{"type": "FeatureCollection", "features": [{"type": "Feature", "properties": {"name": "AirTrain Howard Beach"}, "geometry": {"type": "Point", "coordinates": [-73.83013, 40.660466]}}, {"type": "Feature", "properties": {"name": "Lefferts Blvd"}, "geometry": {"type": "Point", "coordinates": [-73.824455, 40.661773]}}, {"type": "Feature", "properties": {"name": "Federal Circle"}, "geometry": {"type": "Point", "coordinates": [-73.803504, 40.659817]}}, {"type": "Feature", "properties": {"name": "JFK Terminal 1"}, "geometry": {"type": "Point", "coordinates": [-73.789429, 40.643645]}}, {"type": "Feature", "properties": {"name": "JFK Terminal 4"}, "geometry": {"type": "Point", "coordinates": [-73.782449, 40.644043]}}, {"type": "Feature", "properties": {"name": "JFK T5 (TWA Hotel)"}, "geometry": {"type": "Point", "coordinates": [-73.780082, 40.646891]}}, {"type": "Feature", "properties": {"name": "JFK Terminal 7"}, "geometry": {"type": "Point", "coordinates": [-73.78318, 40.648253]}}, {"type": "Feature", "properties": {"name": "JFK Terminal 8"}, "geometry": {"type": "Point", "coordinates": [-73.789023, 40.646728]}}, {"type": "Feature", "properties": {"name": "AirTrain Jamaica"}, "geometry": {"type": "Point", "coordinates": [-73.808427, 40.69894]}}]}