{"type": "FeatureCollection", "features": [{"type": "Feature", "properties": {"name": "AirTrain \u2014 Jamaica", "color": "#00857C"}, "geometry": {"type": "LineString", "coordinates": [[-73.808861, 40.701917], [-73.8072, 40.7008], [-73.8055, 40.699], [-73.804, 40.6965], [-73.8028, 40.6935], [-73.8018, 40.69], [-73.801, 40.6865], [-73.8005, 40.683], [-73.8, 40.6795], [-73.7998, 40.676], [-73.8, 40.6725], [-73.801, 40.669], [-73.8028, 40.6658], [-73.80505, 40.6635], [-73.8035, 40.661], [-73.799, 40.658], [-73.7935, 40.655], [-73.787, 40.6525], [-73.78, 40.651], [-73.774, 40.6505], [-73.772, 40.652], [-73.7715, 40.6555], [-73.773, 40.659], [-73.7765, 40.662], [-73.781, 40.664], [-73.7865, 40.665], [-73.792, 40.6655], [-73.798, 40.6655], [-73.803, 40.6645], [-73.80505, 40.6635], [-73.80505, 40.6635], [-73.8028, 40.6658], [-73.801, 40.669], [-73.8, 40.6725], [-73.7998, 40.676], [-73.8, 40.6795], [-73.8005, 40.683], [-73.801, 40.6865], [-73.8018, 40.69], [-73.8028, 40.6935], [-73.804, 40.6965], [-73.8055, 40.699], [-73.8072, 40.7008]]}}, {"type": "Feature", "properties": {"name": "AirTrain \u2014 Howard Beach", "color": "#00857C"}, "geometry": {"type": "LineString", "coordinates": [[-73.830236, 40.660376], [-73.826, 40.661], [-73.822, 40.662], [-73.8175, 40.663], [-73.813, 40.6638], [-73.809, 40.664], [-73.80505, 40.6635], [-73.80505, 40.6635], [-73.8028, 40.6658], [-73.801, 40.669], [-73.8, 40.6725], [-73.7998, 40.676], [-73.8, 40.6795], [-73.8005, 40.683], [-73.801, 40.6865], [-73.8018, 40.69], [-73.8028, 40.6935], [-73.804, 40.6965], [-73.8055, 40.699], [-73.8072, 40.7008], [-73.808861, 40.701917]]}}]}