{"type": "FeatureCollection", "features": [{"type": "Feature", "properties": {"BoroName": "Manhattan"}, "geometry": {"type": "Point", "coordinates": [-73.969, 40.7829]}}, {"type": "Feature", "properties": {"BoroName": "Bronx"}, "geometry": {"type": "Point", "coordinates": [-73.868, 40.838]}}, {"type": "Feature", "properties": {"BoroName": "Brooklyn"}, "geometry": {"type": "Point", "coordinates": [-73.95, 40.625]}}, {"type": "Feature", "properties": {"BoroName": "Queens"}, "geometry": {"type": "Point", "coordinates": [-73.815, 40.715]}}, {"type": "Feature", "properties": {"BoroName": "Staten Island"}, "geometry": {"type": "Point", "coordinates": [-74.165, 40.575]}}]}