{"type": "FeatureCollection", "features": [{"type": "Feature", "properties": {"name": "Astoria", "colors": "#FF6B00", "color_count": 1}, "geometry": {"type": "Point", "coordinates": [-73.935714, 40.77172]}}, {"type": "Feature", "properties": {"name": "Battery Park (Statue/Ellis)", "colors": "#0057A0", "color_count": 1}, "geometry": {"type": "Point", "coordinates": [-74.015139, 40.703028]}}, {"type": "Feature", "properties": {"name": "Battery Park City", "colors": "#D0006F", "color_count": 1}, "geometry": {"type": "Point", "coordinates": [-74.017775, 40.715029]}}, {"type": "Feature", "properties": {"name": "Bay Ridge", "colors": "#FFD100", "color_count": 1}, "geometry": {"type": "Point", "coordinates": [-74.03813, 40.639858]}}, {"type": "Feature", "properties": {"name": "Brooklyn Bridge Park Pier 6", "colors": "#FFD100", "color_count": 1}, "geometry": {"type": "Point", "coordinates": [-74.002073, 40.692315]}}, {"type": "Feature", "properties": {"name": "Brooklyn Navy Yard", "colors": "#FF6B00", "color_count": 1}, "geometry": {"type": "Point", "coordinates": [-73.973576, 40.701792]}}, {"type": "Feature", "properties": {"name": "Corlears Hook", "colors": "#FFD100", "color_count": 1}, "geometry": {"type": "Point", "coordinates": [-73.979244, 40.710159]}}, {"type": "Feature", "properties": {"name": "DUMBO", "colors": "#00839C,#FFD100", "color_count": 2}, "geometry": {"type": "Point", "coordinates": [-73.995671, 40.703652]}}, {"type": "Feature", "properties": {"name": "East 34th St", "colors": "#00839C,#FF6B00,#4E008E", "color_count": 3}, "geometry": {"type": "Point", "coordinates": [-73.970731, 40.743912]}}, {"type": "Feature", "properties": {"name": "East 90th St", "colors": "#4E008E", "color_count": 1}, "geometry": {"type": "Point", "coordinates": [-73.942172, 40.777475]}}, {"type": "Feature", "properties": {"name": "Ellis Island", "colors": "#0057A0", "color_count": 1}, "geometry": {"type": "Point", "coordinates": [-74.03957, 40.699435]}}, {"type": "Feature", "properties": {"name": "Governors Island (Soissons Landing)", "colors": "#9795A0", "color_count": 1}, "geometry": {"type": "Point", "coordinates": [-74.011667, 40.691968]}}, {"type": "Feature", "properties": {"name": "Governors Island (Yankee Pier)", "colors": "#9795A0", "color_count": 1}, "geometry": {"type": "Point", "coordinates": [-74.016482, 40.68664]}}, {"type": "Feature", "properties": {"name": "Greenpoint", "colors": "#00839C", "color_count": 1}, "geometry": {"type": "Point", "coordinates": [-73.963617, 40.731365]}}, {"type": "Feature", "properties": {"name": "Hunters Point South/LIC", "colors": "#00839C,#FF6B00", "color_count": 2}, "geometry": {"type": "Point", "coordinates": [-73.961322, 40.741838]}}, {"type": "Feature", "properties": {"name": "Liberty Island", "colors": "#0057A0", "color_count": 1}, "geometry": {"type": "Point", "coordinates": [-74.044494, 40.689246]}}, {"type": "Feature", "properties": {"name": "Midtown West/W39", "colors": "#D0006F", "color_count": 1}, "geometry": {"type": "Point", "coordinates": [-74.004075, 40.760323]}}, {"type": "Feature", "properties": {"name": "North Williamsburg", "colors": "#00839C", "color_count": 1}, "geometry": {"type": "Point", "coordinates": [-73.964902, 40.720838]}}, {"type": "Feature", "properties": {"name": "Pier 11/Wall St", "colors": "#00839C,#FF6B00,#4E008E,#FFD100,#00A1E1,#9795A0", "color_count": 6}, "geometry": {"type": "Point", "coordinates": [-74.006144, 40.703161]}}, {"type": "Feature", "properties": {"name": "Red Hook", "colors": "#FFD100", "color_count": 1}, "geometry": {"type": "Point", "coordinates": [-74.013358, 40.680957]}}, {"type": "Feature", "properties": {"name": "Rockaway", "colors": "#00A1E1", "color_count": 1}, "geometry": {"type": "Point", "coordinates": [-73.831596, 40.584228]}}, {"type": "Feature", "properties": {"name": "Roosevelt Island", "colors": "#FF6B00", "color_count": 1}, "geometry": {"type": "Point", "coordinates": [-73.952482, 40.756811]}}, {"type": "Feature", "properties": {"name": "Soundview", "colors": "#4E008E", "color_count": 1}, "geometry": {"type": "Point", "coordinates": [-73.848703, 40.804202]}}, {"type": "Feature", "properties": {"name": "South Williamsburg", "colors": "#00839C", "color_count": 1}, "geometry": {"type": "Point", "coordinates": [-73.970224, 40.708743]}}, {"type": "Feature", "properties": {"name": "St. George", "colors": "#D0006F,#E4002B", "color_count": 2}, "geometry": {"type": "Point", "coordinates": [-74.074231, 40.646072]}}, {"type": "Feature", "properties": {"name": "Stuyvesant Cove", "colors": "#4E008E", "color_count": 1}, "geometry": {"type": "Point", "coordinates": [-73.972922, 40.731979]}}, {"type": "Feature", "properties": {"name": "Sunset Park/BAT", "colors": "#FFD100,#00A1E1", "color_count": 2}, "geometry": {"type": "Point", "coordinates": [-74.026436, 40.646276]}}, {"type": "Feature", "properties": {"name": "Throgs Neck/Ferry Point Pk", "colors": "#4E008E", "color_count": 1}, "geometry": {"type": "Point", "coordinates": [-73.837305, 40.805455]}}, {"type": "Feature", "properties": {"name": "Whitehall (SI Ferry)", "colors": "#E4002B", "color_count": 1}, "geometry": {"type": "Point", "coordinates": [-74.013131, 40.701409]}}]}