{"type": "FeatureCollection", "features": [{"type": "Feature", "properties": {"name": "East River", "color": "#00839C"}, "geometry": {"type": "LineString", "coordinates": [[-74.006144, 40.703161], [-74.005885, 40.703099], [-74.005561, 40.703018], [-74.00518, 40.702921], [-74.004751, 40.702812], [-74.004283, 40.702692], [-74.003784, 40.702565], [-74.003263, 40.702433], [-74.002728, 40.702299], [-74.002189, 40.702167], [-74.001653, 40.702038], [-74.001129, 40.701915], [-74.000627, 40.701802], [-74.000154, 40.701701], [-73.99972, 40.701616], [-73.999332, 40.701548], [-73.999, 40.7015], [-73.998713, 40.70147], [-73.998454, 40.701451], [-73.99822, 40.701444], [-73.998009, 40.701446], [-73.99782, 40.701458], [-73.997649, 40.701479], [-73.997495, 40.701507], [-73.997355, 40.701543], [-73.997228, 40.701585], [-73.997111, 40.701633], [-73.997002, 40.701686], [-73.996899, 40.701743], [-73.996799, 40.701804], [-73.996701, 40.701868], [-73.996602, 40.701933], [-73.9965, 40.702], [-73.996415, 40.702075], [-73.996363, 40.702164], [-73.996339, 40.702264], [-73.996336, 40.702374], [-73.996347, 40.702492], [-73.996367, 40.702614], [-73.99639, 40.70274], [-73.996409, 40.702867], [-73.996417, 40.702992], [-73.99641, 40.703114], [-73.996379, 40.70323], [-73.99632, 40.703339], [-73.996226, 40.703437], [-73.996091, 40.703524], [-73.995908, 40.703596], [-73.995671, 40.703652], [-73.995384, 40.703688], [-73.995055, 40.703705], [-73.994689, 40.703704], [-73.994289, 40.70369], [-73.993857, 40.703665], [-73.993398, 40.703633], [-73.992914, 40.703595], [-73.992409, 40.703554], [-73.991886, 40.703515], [-73.991348, 40.703479], [-73.990799, 40.703449], [-73.990242, 40.703429], [-73.98968, 40.703421], [-73.989117, 40.703428], [-73.988556, 40.703454], [-73.988, 40.7035], [-73.987435, 40.703564], [-73.986846, 40.703639], [-73.986237, 40.703724], [-73.985612, 40.70382], [-73.984972, 40.703924], [-73.984323, 40.704038], [-73.983666, 40.704159], [-73.983007, 40.704288], [-73.982346, 40.704423], [-73.981689, 40.704564], [-73.981039, 40.704711], [-73.980398, 40.704862], [-73.979771, 40.705017], [-73.979159, 40.705176], [-73.978568, 40.705337], [-73.978, 40.7055], [-73.977443, 40.705672], [-73.976884, 40.705859], [-73.976325, 40.706059], [-73.975769, 40.70627], [-73.975219, 40.706488], [-73.974677, 40.706712], [-73.974145, 40.70694], [-73.973626, 40.707168], [-73.973122, 40.707395], [-73.972636, 40.707618], [-73.972169, 40.707835], [-73.971725, 40.708043], [-73.971307, 40.70824], [-73.970915, 40.708424], [-73.970553, 40.708593], [-73.970224, 40.708743], [-73.969936, 40.708867], [-73.969692, 40.708959], [-73.969489, 40.709027], [-73.969319, 40.709074], [-73.969179, 40.709106], [-73.969061, 40.709129], [-73.968962, 40.709148], [-73.968876, 40.709168], [-73.968797, 40.709194], [-73.96872, 40.709232], [-73.96864, 40.709287], [-73.968551, 40.709364], [-73.968448, 40.709468], [-73.968325, 40.709606], [-73.968178, 40.709781], [-73.968, 40.71], [-73.96779, 40.710266], [-73.967551, 40.710576], [-73.96729, 40.710925], [-73.96701, 40.711307], [-73.966717, 40.711717], [-73.966415, 40.712149], [-73.966109, 40.712597], [-73.965805, 40.713057], [-73.965506, 40.713524], [-73.965219, 40.71399], [-73.964948, 40.714452], [-73.964697, 40.714904], [-73.964472, 40.71534], [-73.964278, 40.715755], [-73.964119, 40.716144], [-73.964, 40.7165], [-73.963931, 40.716836], [-73.963911, 40.717167], [-73.963934, 40.717493], [-73.963993, 40.717811], [-73.964081, 40.718122], [-73.96419, 40.718425], [-73.964314, 40.718718], [-73.964445, 40.719003], [-73.964576, 40.719276], [-73.9647, 40.719539], [-73.96481, 40.71979], [-73.964899, 40.720027], [-73.96496, 40.720252], [-73.964986, 40.720463], [-73.964969, 40.720658], [-73.964902, 40.720838], [-73.964786, 40.72099], [-73.964628, 40.721106], [-73.964433, 40.72119], [-73.964208, 40.72125], [-73.963957, 40.72129], [-73.963685, 40.721316], [-73.963398, 40.721333], [-73.963101, 40.721346], [-73.962799, 40.721362], [-73.962498, 40.721386], [-73.962203, 40.721423], [-73.961919, 40.721479], [-73.961652, 40.721559], [-73.961406, 40.721669], [-73.961187, 40.721814], [-73.961, 40.722], [-73.96083, 40.722228], [-73.960659, 40.722491], [-73.96049, 40.722786], [-73.960324, 40.723108], [-73.960165, 40.723453], [-73.960015, 40.723817], [-73.959875, 40.724194], [-73.959749, 40.724581], [-73.959638, 40.724973], [-73.959546, 40.725367], [-73.959473, 40.725756], [-73.959424, 40.726138], [-73.959399, 40.726508], [-73.959402, 40.726861], [-73.959435, 40.727193], [-73.9595, 40.7275], [-73.959622, 40.727789], [-73.959816, 40.72807], [-73.96007, 40.728343], [-73.960374, 40.72861], [-73.960715, 40.72887], [-73.961082, 40.729123], [-73.961463, 40.72937], [-73.961847, 40.729612], [-73.962222, 40.729847], [-73.962576, 40.730078], [-73.962898, 40.730303], [-73.963176, 40.730524], [-73.963398, 40.73074], [-73.963554, 40.730952], [-73.96363, 40.73116], [-73.963617, 40.731365], [-73.963507, 40.731558], [-73.963311, 40.731734], [-73.963038, 40.731894], [-73.962699, 40.732043], [-73.962306, 40.732183], [-73.96187, 40.732317], [-73.961401, 40.732449], [-73.96091, 40.73258], [-73.960408, 40.732715], [-73.959905, 40.732856], [-73.959414, 40.733006], [-73.958944, 40.733169], [-73.958507, 40.733346], [-73.958114, 40.733542], [-73.957774, 40.733759], [-73.9575, 40.734], [-73.957267, 40.734271], [-73.957045, 40.734572], [-73.956836, 40.734899], [-73.95664, 40.735248], [-73.956461, 40.735613], [-73.9563, 40.735992], [-73.956157, 40.736378], [-73.956035, 40.736769], [-73.955936, 40.737158], [-73.95586, 40.737543], [-73.95581, 40.737919], [-73.955787, 40.73828], [-73.955793, 40.738624], [-73.955829, 40.738944], [-73.955898, 40.739238], [-73.956, 40.7395], [-73.956157, 40.739739], [-73.956384, 40.739965], [-73.956671, 40.740179], [-73.957007, 40.740381], [-73.957382, 40.740571], [-73.957788, 40.740748], [-73.958214, 40.740913], [-73.95865, 40.741065], [-73.959086, 40.741205], [-73.959513, 40.741333], [-73.959921, 40.741448], [-73.960299, 40.741551], [-73.960638, 40.741641], [-73.960928, 40.741719], [-73.961159, 40.741785], [-73.961322, 40.741838], [-73.96141, 40.741868], [-73.961431, 40.741866], [-73.961395, 40.741837], [-73.96131, 40.741785], [-73.961187, 40.741715], [-73.961035, 40.741632], [-73.960863, 40.741538], [-73.960681, 40.74144], [-73.960498, 40.741341], [-73.960325, 40.741246], [-73.960169, 40.741159], [-73.960042, 40.741084], [-73.959951, 40.741027], [-73.959908, 40.740991], [-73.959921, 40.74098], [-73.96, 40.741], [-73.960138, 40.741049], [-73.960317, 40.741122], [-73.960536, 40.741215], [-73.960788, 40.741326], [-73.961071, 40.741452], [-73.96138, 40.74159], [-73.961711, 40.741737], [-73.962059, 40.741891], [-73.962422, 40.742048], [-73.962794, 40.742205], [-73.963171, 40.74236], [-73.96355, 40.74251], [-73.963927, 40.742652], [-73.964297, 40.742783], [-73.964656, 40.7429], [-73.965, 40.743], [-73.965349, 40.743089], [-73.965721, 40.743172], [-73.966111, 40.743251], [-73.966516, 40.743326], [-73.966929, 40.743396], [-73.967347, 40.743462], [-73.967765, 40.743523], [-73.968178, 40.743581], [-73.968581, 40.743635], [-73.96897, 40.743685], [-73.969339, 40.743731], [-73.969684, 40.743774], [-73.970001, 40.743813], [-73.970284, 40.743849], [-73.970529, 40.743882], [-73.970731, 40.743912]]}}, {"type": "Feature", "properties": {"name": "Astoria", "color": "#FF6B00"}, "geometry": {"type": "LineString", "coordinates": [[-74.006144, 40.703161], [-74.005563, 40.703135], [-74.004843, 40.703099], [-74.004, 40.703054], [-74.003052, 40.703003], [-74.002018, 40.702947], [-74.000915, 40.702889], [-73.99976, 40.702828], [-73.998572, 40.702768], [-73.997368, 40.70271], [-73.996167, 40.702655], [-73.994985, 40.702606], [-73.993842, 40.702564], [-73.992754, 40.702531], [-73.991739, 40.702508], [-73.990815, 40.702497], [-73.99, 40.7025], [-73.989273, 40.702521], [-73.988597, 40.702563], [-73.987967, 40.70262], [-73.98738, 40.702692], [-73.986831, 40.702774], [-73.986316, 40.702863], [-73.985829, 40.702957], [-73.985366, 40.703052], [-73.984923, 40.703146], [-73.984496, 40.703235], [-73.984079, 40.703316], [-73.983668, 40.703387], [-73.98326, 40.703444], [-73.982849, 40.703483], [-73.98243, 40.703503], [-73.982, 40.7035], [-73.981564, 40.703473], [-73.98113, 40.703423], [-73.9807, 40.703355], [-73.980276, 40.703271], [-73.979857, 40.703173], [-73.979446, 40.703064], [-73.979044, 40.702947], [-73.978652, 40.702825], [-73.97827, 40.702701], [-73.9779, 40.702578], [-73.977544, 40.702457], [-73.977202, 40.702343], [-73.976875, 40.702237], [-73.976565, 40.702143], [-73.976273, 40.702063], [-73.976, 40.702], [-73.975749, 40.701936], [-73.97552, 40.701855], [-73.975312, 40.701761], [-73.975123, 40.70166], [-73.97495, 40.701557], [-73.974792, 40.701458], [-73.974646, 40.701367], [-73.974512, 40.701289], [-73.974385, 40.701231], [-73.974266, 40.701197], [-73.974151, 40.701192], [-73.974039, 40.701222], [-73.973927, 40.701292], [-73.973814, 40.701406], [-73.973698, 40.701571], [-73.973576, 40.701792], [-73.973459, 40.702056], [-73.973355, 40.702348], [-73.973263, 40.70267], [-73.973179, 40.703023], [-73.973102, 40.703407], [-73.973029, 40.703823], [-73.972958, 40.704273], [-73.972887, 40.704758], [-73.972812, 40.705278], [-73.972731, 40.705835], [-73.972643, 40.706429], [-73.972545, 40.707062], [-73.972433, 40.707735], [-73.972307, 40.708448], [-73.972164, 40.709203], [-73.972, 40.71], [-73.971807, 40.710867], [-73.971582, 40.711822], [-73.971329, 40.712855], [-73.971053, 40.713952], [-73.970761, 40.715103], [-73.970458, 40.716296], [-73.970149, 40.71752], [-73.969839, 40.718763], [-73.969534, 40.720013], [-73.96924, 40.721259], [-73.968962, 40.722489], [-73.968705, 40.723692], [-73.968475, 40.724856], [-73.968277, 40.72597], [-73.968117, 40.727022], [-73.968, 40.728], [-73.967924, 40.72893], [-73.967881, 40.729842], [-73.967868, 40.730737], [-73.967881, 40.731611], [-73.967919, 40.732465], [-73.967977, 40.733295], [-73.968052, 40.734101], [-73.968142, 40.734881], [-73.968243, 40.735633], [-73.968352, 40.736356], [-73.968466, 40.737049], [-73.968581, 40.737709], [-73.968696, 40.738336], [-73.968806, 40.738928], [-73.968908, 40.739483], [-73.969, 40.74], [-73.969091, 40.740474], [-73.969193, 40.740903], [-73.969304, 40.74129], [-73.969422, 40.741638], [-73.969545, 40.741951], [-73.969672, 40.742231], [-73.9698, 40.742482], [-73.969928, 40.742706], [-73.970054, 40.742907], [-73.970177, 40.743087], [-73.970293, 40.74325], [-73.970403, 40.743399], [-73.970503, 40.743536], [-73.970592, 40.743665], [-73.970669, 40.74379], [-73.970731, 40.743912]]}}, {"type": "Feature", "properties": {"name": "Astoria", "color": "#FF6B00"}, "geometry": {"type": "LineString", "coordinates": [[-73.961322, 40.741838], [-73.961258, 40.74198], [-73.961179, 40.742147], [-73.961089, 40.742335], [-73.960987, 40.742543], [-73.960876, 40.74277], [-73.960758, 40.743013], [-73.960634, 40.743272], [-73.960505, 40.743544], [-73.960373, 40.743828], [-73.96024, 40.744122], [-73.960107, 40.744424], [-73.959976, 40.744733], [-73.959848, 40.745046], [-73.959725, 40.745363], [-73.959608, 40.745682], [-73.9595, 40.746], [-73.959405, 40.746327], [-73.959325, 40.74667], [-73.959256, 40.747028], [-73.959197, 40.747399], [-73.959142, 40.747779], [-73.95909, 40.748168], [-73.959038, 40.748562], [-73.958981, 40.748959], [-73.958917, 40.749358], [-73.958843, 40.749756], [-73.958755, 40.750151], [-73.95865, 40.750541], [-73.958525, 40.750922], [-73.958378, 40.751294], [-73.958204, 40.751654], [-73.958, 40.752], [-73.957764, 40.752325], [-73.957495, 40.752628], [-73.957199, 40.752913], [-73.956879, 40.753184], [-73.956538, 40.753444], [-73.95618, 40.753699], [-73.955808, 40.753951], [-73.955427, 40.754206], [-73.955041, 40.754467], [-73.954652, 40.754738], [-73.954265, 40.755024], [-73.953883, 40.755328], [-73.95351, 40.755655], [-73.95315, 40.756008], [-73.952806, 40.756392], [-73.952482, 40.756811], [-73.952184, 40.757271], [-73.95191, 40.757772], [-73.951656, 40.758309], [-73.951418, 40.758875], [-73.95119, 40.759466], [-73.950968, 40.760076], [-73.950746, 40.7607], [-73.950521, 40.761331], [-73.950287, 40.761965], [-73.950039, 40.762595], [-73.949773, 40.763217], [-73.949484, 40.763824], [-73.949167, 40.764412], [-73.948817, 40.764974], [-73.94843, 40.765505], [-73.948, 40.766], [-73.947512, 40.766474], [-73.946961, 40.766946], [-73.946356, 40.767412], [-73.945707, 40.767871], [-73.945024, 40.768321], [-73.944315, 40.76876], [-73.943592, 40.769184], [-73.942863, 40.769592], [-73.942138, 40.769981], [-73.941428, 40.77035], [-73.940741, 40.770696], [-73.940087, 40.771016], [-73.939476, 40.771309], [-73.938919, 40.771572], [-73.938423, 40.771803], [-73.938, 40.772], [-73.937641, 40.772154], [-73.937329, 40.772264], [-73.937061, 40.772332], [-73.936833, 40.772365], [-73.936639, 40.772367], [-73.936477, 40.772343], [-73.936343, 40.772297], [-73.936232, 40.772235], [-73.936141, 40.772161], [-73.936065, 40.77208], [-73.936001, 40.771998], [-73.935944, 40.771918], [-73.935891, 40.771845], [-73.935838, 40.771785], [-73.93578, 40.771741], [-73.935714, 40.77172]]}}, {"type": "Feature", "properties": {"name": "Soundview", "color": "#4E008E"}, "geometry": {"type": "LineString", "coordinates": [[-73.837305, 40.805455], [-73.837582, 40.805382], [-73.837926, 40.805286], [-73.838329, 40.805171], [-73.838781, 40.805041], [-73.839275, 40.804899], [-73.839802, 40.804748], [-73.840354, 40.804592], [-73.840921, 40.804434], [-73.841495, 40.804277], [-73.842069, 40.804124], [-73.842632, 40.80398], [-73.843177, 40.803848], [-73.843694, 40.80373], [-73.844177, 40.803631], [-73.844615, 40.803553], [-73.845, 40.8035], [-73.845287, 40.80348], [-73.845452, 40.803494], [-73.845519, 40.803537], [-73.845513, 40.803604], [-73.845459, 40.803688], [-73.84538, 40.803784], [-73.845303, 40.803887], [-73.845251, 40.803991], [-73.84525, 40.804091], [-73.845322, 40.804181], [-73.845494, 40.804256], [-73.84579, 40.804309], [-73.846234, 40.804336], [-73.846851, 40.804331], [-73.847666, 40.804288], [-73.848703, 40.804202], [-73.84999, 40.804077], [-73.851519, 40.803924], [-73.853262, 40.803743], [-73.855188, 40.803538], [-73.857268, 40.803311], [-73.859474, 40.803064], [-73.861776, 40.8028], [-73.864145, 40.80252], [-73.866552, 40.802227], [-73.868967, 40.801923], [-73.871362, 40.801611], [-73.873706, 40.801292], [-73.875971, 40.800969], [-73.878128, 40.800645], [-73.880148, 40.800321], [-73.882, 40.8], [-73.883728, 40.799676], [-73.885395, 40.799343], [-73.887007, 40.799001], [-73.888568, 40.79865], [-73.890082, 40.798291], [-73.891555, 40.797926], [-73.892991, 40.797553], [-73.894394, 40.797175], [-73.895769, 40.796791], [-73.89712, 40.796402], [-73.898454, 40.796009], [-73.899773, 40.795612], [-73.901082, 40.795213], [-73.902387, 40.79481], [-73.903691, 40.794406], [-73.905, 40.794], [-73.906307, 40.793588], [-73.907601, 40.793166], [-73.908881, 40.792735], [-73.910148, 40.792297], [-73.911401, 40.791853], [-73.912638, 40.791404], [-73.913859, 40.790953], [-73.915063, 40.7905], [-73.916249, 40.790047], [-73.917417, 40.789596], [-73.918566, 40.789147], [-73.919695, 40.788703], [-73.920804, 40.788265], [-73.921892, 40.787834], [-73.922957, 40.787412], [-73.924, 40.787], [-73.92503, 40.786593], [-73.926056, 40.786185], [-73.927075, 40.785778], [-73.928082, 40.785372], [-73.929074, 40.784968], [-73.930048, 40.784568], [-73.931, 40.784173], [-73.931927, 40.783783], [-73.932824, 40.7834], [-73.93369, 40.783025], [-73.934519, 40.782659], [-73.935308, 40.782303], [-73.936055, 40.781958], [-73.936754, 40.781625], [-73.937404, 40.781305], [-73.938, 40.781], [-73.938528, 40.780715], [-73.93898, 40.780454], [-73.939367, 40.780214], [-73.939695, 40.77999], [-73.939974, 40.779781], [-73.940212, 40.779583], [-73.940416, 40.779391], [-73.940597, 40.779205], [-73.940761, 40.779019], [-73.940918, 40.778831], [-73.941076, 40.778637], [-73.941243, 40.778435], [-73.941428, 40.778221], [-73.941638, 40.777992], [-73.941884, 40.777744], [-73.942172, 40.777475], [-73.942489, 40.777195], [-73.942813, 40.776915], [-73.943146, 40.776634], [-73.943485, 40.776349], [-73.943832, 40.77606], [-73.944185, 40.775764], [-73.944544, 40.775458], [-73.944909, 40.775142], [-73.94528, 40.774813], [-73.945656, 40.77447], [-73.946037, 40.774111], [-73.946422, 40.773733], [-73.946811, 40.773334], [-73.947204, 40.772914], [-73.947601, 40.77247], [-73.948, 40.772], [-73.948405, 40.771501], [-73.948819, 40.770973], [-73.94924, 40.770419], [-73.949668, 40.769842], [-73.950101, 40.769243], [-73.950539, 40.768625], [-73.950981, 40.767992], [-73.951427, 40.767345], [-73.951874, 40.766688], [-73.952323, 40.766022], [-73.952773, 40.765351], [-73.953223, 40.764676], [-73.953671, 40.764002], [-73.954117, 40.763329], [-73.95456, 40.762661], [-73.955, 40.762], [-73.955439, 40.761331], [-73.955882, 40.760639], [-73.956327, 40.759928], [-73.956773, 40.759203], [-73.957221, 40.758469], [-73.957669, 40.757729], [-73.958116, 40.756988], [-73.958562, 40.75625], [-73.959007, 40.75552], [-73.959448, 40.754803], [-73.959886, 40.754102], [-73.96032, 40.753422], [-73.960749, 40.752767], [-73.961173, 40.752143], [-73.96159, 40.751552], [-73.962, 40.751], [-73.962408, 40.750479], [-73.96282, 40.749977], [-73.963234, 40.749495], [-73.963647, 40.749033], [-73.964059, 40.748591], [-73.964467, 40.748168], [-73.96487, 40.747765], [-73.965267, 40.74738], [-73.965655, 40.747016], [-73.966033, 40.746671], [-73.9664, 40.746344], [-73.966753, 40.746037], [-73.967092, 40.74575], [-73.967413, 40.745481], [-73.967717, 40.745231], [-73.968, 40.745], [-73.968265, 40.744803], [-73.968515, 40.744652], [-73.96875, 40.744539], [-73.96897, 40.744461], [-73.969178, 40.744409], [-73.969372, 40.744378], [-73.969554, 40.744363], [-73.969724, 40.744357], [-73.969883, 40.744354], [-73.970031, 40.744348], [-73.970169, 40.744333], [-73.970298, 40.744303], [-73.970418, 40.744252], [-73.97053, 40.744173], [-73.970634, 40.744062], [-73.970731, 40.743912], [-73.970812, 40.743733], [-73.970871, 40.743541], [-73.97091, 40.743335], [-73.970933, 40.743116], [-73.970941, 40.742883], [-73.97094, 40.742638], [-73.97093, 40.742379], [-73.970916, 40.742108], [-73.9709, 40.741824], [-73.970886, 40.741528], [-73.970877, 40.74122], [-73.970874, 40.7409], [-73.970882, 40.740567], [-73.970904, 40.740223], [-73.970942, 40.739867], [-73.971, 40.7395], [-73.971084, 40.739114], [-73.971194, 40.738705], [-73.971327, 40.738274], [-73.971478, 40.737826], [-73.971641, 40.737361], [-73.971813, 40.736884], [-73.971987, 40.736396], [-73.97216, 40.7359], [-73.972327, 40.735399], [-73.972483, 40.734896], [-73.972624, 40.734394], [-73.972743, 40.733894], [-73.972838, 40.7334], [-73.972902, 40.732914], [-73.972932, 40.73244], [-73.972922, 40.731979], [-73.97286, 40.731539], [-73.972741, 40.731122], [-73.972575, 40.730723], [-73.97237, 40.730337], [-73.972134, 40.72996], [-73.971877, 40.729587], [-73.971606, 40.729212], [-73.971331, 40.728832], [-73.97106, 40.728441], [-73.970802, 40.728034], [-73.970565, 40.727607], [-73.970357, 40.727155], [-73.970189, 40.726673], [-73.970067, 40.726157], [-73.970001, 40.725601], [-73.97, 40.725], [-73.970049, 40.72434], [-73.970128, 40.723615], [-73.970236, 40.722835], [-73.970373, 40.722009], [-73.970537, 40.721147], [-73.970729, 40.720258], [-73.970948, 40.719352], [-73.971192, 40.718439], [-73.971462, 40.717527], [-73.971756, 40.716627], [-73.972075, 40.715748], [-73.972416, 40.714899], [-73.97278, 40.71409], [-73.973166, 40.713331], [-73.973573, 40.712631], [-73.974, 40.712], [-73.974438, 40.711427], [-73.97488, 40.710893], [-73.97533, 40.710397], [-73.975794, 40.709934], [-73.976274, 40.709502], [-73.976777, 40.709098], [-73.977306, 40.70872], [-73.977866, 40.708365], [-73.978461, 40.708029], [-73.979097, 40.707711], [-73.979777, 40.707407], [-73.980506, 40.707114], [-73.981288, 40.706829], [-73.982128, 40.706551], [-73.98303, 40.706275], [-73.984, 40.706], [-73.985091, 40.705731], [-73.986338, 40.705474], [-73.987717, 40.705232], [-73.989201, 40.705001], [-73.990766, 40.704784], [-73.992388, 40.704579], [-73.99404, 40.704386], [-73.995697, 40.704206], [-73.997335, 40.704036], [-73.998928, 40.703879], [-74.000452, 40.703732], [-74.00188, 40.703597], [-74.003189, 40.703472], [-74.004353, 40.703358], [-74.005346, 40.703255], [-74.006144, 40.703161]]}}, {"type": "Feature", "properties": {"name": "South Brooklyn", "color": "#FFD100"}, "geometry": {"type": "LineString", "coordinates": [[-74.03813, 40.639858], [-74.037758, 40.639875], [-74.037286, 40.639888], [-74.036727, 40.639898], [-74.036096, 40.639906], [-74.035406, 40.639915], [-74.034672, 40.639926], [-74.033908, 40.639941], [-74.033127, 40.63996], [-74.032345, 40.639987], [-74.031575, 40.640022], [-74.030831, 40.640067], [-74.030128, 40.640123], [-74.029479, 40.640194], [-74.028899, 40.640279], [-74.028401, 40.64038], [-74.028, 40.6405], [-74.027686, 40.640642], [-74.027435, 40.640809], [-74.027241, 40.640997], [-74.027098, 40.641203], [-74.026999, 40.641424], [-74.026937, 40.641657], [-74.026907, 40.641899], [-74.026902, 40.642148], [-74.026916, 40.6424], [-74.026942, 40.642652], [-74.026974, 40.642901], [-74.027005, 40.643144], [-74.02703, 40.643379], [-74.027042, 40.643602], [-74.027034, 40.64381], [-74.027, 40.644], [-74.026954, 40.644164], [-74.026915, 40.644299], [-74.02688, 40.64441], [-74.026849, 40.644504], [-74.026821, 40.644585], [-74.026795, 40.64466], [-74.02677, 40.644733], [-74.026745, 40.644811], [-74.02672, 40.6449], [-74.026692, 40.645004], [-74.026662, 40.64513], [-74.026628, 40.645282], [-74.026589, 40.645468], [-74.026545, 40.645691], [-74.026494, 40.645959], [-74.026436, 40.646276], [-74.026369, 40.646636], [-74.026295, 40.647029], [-74.026214, 40.647452], [-74.026128, 40.647903], [-74.026037, 40.648383], [-74.025942, 40.648887], [-74.025845, 40.649416], [-74.025745, 40.649968], [-74.025645, 40.65054], [-74.025545, 40.651132], [-74.025446, 40.651742], [-74.025349, 40.652367], [-74.025255, 40.653008], [-74.025165, 40.653661], [-74.025079, 40.654325], [-74.025, 40.655], [-74.024943, 40.655695], [-74.02492, 40.656421], [-74.024923, 40.657173], [-74.024945, 40.65795], [-74.024979, 40.658748], [-74.025017, 40.659564], [-74.025051, 40.660394], [-74.025075, 40.661235], [-74.025081, 40.662085], [-74.025062, 40.66294], [-74.02501, 40.663797], [-74.024918, 40.664653], [-74.024778, 40.665504], [-74.024583, 40.666348], [-74.024327, 40.667181], [-74.024, 40.668], [-74.023572, 40.66884], [-74.023027, 40.66973], [-74.022383, 40.670659], [-74.021659, 40.671615], [-74.020873, 40.672586], [-74.020044, 40.673561], [-74.019189, 40.674528], [-74.018326, 40.675476], [-74.017475, 40.676392], [-74.016653, 40.677266], [-74.015879, 40.678085], [-74.01517, 40.678838], [-74.014545, 40.679513], [-74.014023, 40.680099], [-74.013621, 40.680584], [-74.013358, 40.680957], [-74.013255, 40.681188], [-74.013307, 40.681271], [-74.013492, 40.681224], [-74.013787, 40.681068], [-74.014171, 40.680824], [-74.014623, 40.68051], [-74.015119, 40.680148], [-74.015639, 40.679757], [-74.01616, 40.679357], [-74.01666, 40.678969], [-74.017118, 40.678612], [-74.017511, 40.678307], [-74.017818, 40.678073], [-74.018016, 40.67793], [-74.018084, 40.677899], [-74.018, 40.678], [-74.01777, 40.678221], [-74.017423, 40.678533], [-74.016973, 40.678923], [-74.016434, 40.679382], [-74.01582, 40.6799], [-74.015143, 40.680466], [-74.014419, 40.68107], [-74.013661, 40.681702], [-74.012881, 40.68235], [-74.012095, 40.683006], [-74.011316, 40.683657], [-74.010557, 40.684295], [-74.009832, 40.684909], [-74.009155, 40.685488], [-74.00854, 40.686022], [-74.008, 40.6865], [-74.007511, 40.686945], [-74.007038, 40.687384], [-74.006582, 40.687815], [-74.006142, 40.688239], [-74.005718, 40.688654], [-74.00531, 40.689059], [-74.004918, 40.689452], [-74.004541, 40.689833], [-74.00418, 40.690201], [-74.003834, 40.690555], [-74.003504, 40.690893], [-74.003188, 40.691215], [-74.002888, 40.691519], [-74.002602, 40.691804], [-74.00233, 40.69207], [-74.002073, 40.692315], [-74.001839, 40.692529], [-74.001636, 40.692704], [-74.001459, 40.692846], [-74.001305, 40.692961], [-74.001172, 40.693052], [-74.001054, 40.693126], [-74.000949, 40.693187], [-74.000854, 40.69324], [-74.000764, 40.69329], [-74.000676, 40.693343], [-74.000587, 40.693404], [-74.000493, 40.693478], [-74.000391, 40.693569], [-74.000277, 40.693683], [-74.000148, 40.693825], [-74.0, 40.694], [-73.999835, 40.694203], [-73.999658, 40.694423], [-73.999471, 40.69466], [-73.999276, 40.694912], [-73.999075, 40.695176], [-73.998869, 40.695453], [-73.998662, 40.695739], [-73.998454, 40.696033], [-73.998247, 40.696335], [-73.998043, 40.696641], [-73.997845, 40.696951], [-73.997654, 40.697263], [-73.997472, 40.697576], [-73.997301, 40.697887], [-73.997143, 40.698196], [-73.997, 40.6985], [-73.996869, 40.698814], [-73.996745, 40.699148], [-73.996628, 40.699499], [-73.996519, 40.699863], [-73.996417, 40.700235], [-73.996321, 40.700611], [-73.996231, 40.700986], [-73.996148, 40.701357], [-73.99607, 40.701719], [-73.995999, 40.702069], [-73.995932, 40.702401], [-73.995871, 40.702711], [-73.995814, 40.702996], [-73.995762, 40.70325], [-73.995715, 40.70347], [-73.995671, 40.703652]]}}, {"type": "Feature", "properties": {"name": "South Brooklyn", "color": "#FFD100"}, "geometry": {"type": "LineString", "coordinates": [[-74.006144, 40.703161], [-74.005634, 40.703261], [-74.004997, 40.703382], [-74.004251, 40.703522], [-74.003412, 40.703679], [-74.002495, 40.70385], [-74.001518, 40.704033], [-74.000497, 40.704225], [-73.999447, 40.704424], [-73.998386, 40.704629], [-73.997329, 40.704835], [-73.996293, 40.705043], [-73.995295, 40.705248], [-73.99435, 40.705448], [-73.993475, 40.705642], [-73.992686, 40.705827], [-73.992, 40.706], [-73.991403, 40.706167], [-73.990865, 40.706334], [-73.990382, 40.706502], [-73.989945, 40.706669], [-73.989549, 40.706835], [-73.989187, 40.706999], [-73.988852, 40.707162], [-73.988538, 40.707324], [-73.988239, 40.707483], [-73.987947, 40.707639], [-73.987657, 40.707792], [-73.987362, 40.707942], [-73.987055, 40.708088], [-73.986731, 40.70823], [-73.986381, 40.708367], [-73.986, 40.7085], [-73.985586, 40.70863], [-73.985145, 40.708759], [-73.984684, 40.708887], [-73.984206, 40.709013], [-73.983718, 40.709136], [-73.983225, 40.709257], [-73.982733, 40.709373], [-73.982247, 40.709486], [-73.981773, 40.709593], [-73.981316, 40.709695], [-73.980882, 40.709791], [-73.980476, 40.709881], [-73.980103, 40.709963], [-73.97977, 40.710037], [-73.979482, 40.710102], [-73.979244, 40.710159]]}}, {"type": "Feature", "properties": {"name": "Rockaway", "color": "#00A1E1"}, "geometry": {"type": "LineString", "coordinates": [[-73.831596, 40.584228], [-73.832939, 40.584162], [-73.834548, 40.584102], [-73.836397, 40.584045], [-73.838459, 40.583986], [-73.840707, 40.583924], [-73.843115, 40.583853], [-73.845654, 40.583772], [-73.848298, 40.583677], [-73.85102, 40.583563], [-73.853794, 40.583429], [-73.856592, 40.583271], [-73.859387, 40.583085], [-73.862152, 40.582869], [-73.864861, 40.582618], [-73.867486, 40.582329], [-73.87, 40.582], [-73.872456, 40.58162], [-73.874924, 40.581185], [-73.877401, 40.580703], [-73.879888, 40.580179], [-73.882382, 40.57962], [-73.884883, 40.579033], [-73.88739, 40.578424], [-73.8899, 40.577798], [-73.892414, 40.577164], [-73.89493, 40.576526], [-73.897446, 40.575892], [-73.899963, 40.575268], [-73.902477, 40.57466], [-73.904989, 40.574076], [-73.907497, 40.57352], [-73.91, 40.573], [-73.9125, 40.572497], [-73.915, 40.571988], [-73.9175, 40.571478], [-73.92, 40.570969], [-73.9225, 40.570463], [-73.925, 40.569965], [-73.9275, 40.569476], [-73.93, 40.569], [-73.9325, 40.56854], [-73.935, 40.568098], [-73.9375, 40.567677], [-73.94, 40.567281], [-73.9425, 40.566913], [-73.945, 40.566574], [-73.9475, 40.566269], [-73.95, 40.566], [-73.952509, 40.565753], [-73.955034, 40.565513], [-73.957571, 40.565284], [-73.960117, 40.56507], [-73.962668, 40.564875], [-73.96522, 40.564702], [-73.967769, 40.564555], [-73.970313, 40.564437], [-73.972846, 40.564353], [-73.975366, 40.564306], [-73.977869, 40.564299], [-73.980352, 40.564336], [-73.982809, 40.564421], [-73.985239, 40.564558], [-73.987637, 40.564749], [-73.99, 40.565], [-73.992358, 40.565295], [-73.994737, 40.565621], [-73.997129, 40.56598], [-73.999523, 40.566375], [-74.001911, 40.566809], [-74.004282, 40.567285], [-74.006628, 40.567806], [-74.008938, 40.568375], [-74.011203, 40.568995], [-74.013413, 40.569668], [-74.01556, 40.570398], [-74.017633, 40.571188], [-74.019623, 40.57204], [-74.021521, 40.572957], [-74.023316, 40.573943], [-74.025, 40.575], [-74.026595, 40.576151], [-74.02813, 40.577407], [-74.029601, 40.578759], [-74.031008, 40.580195], [-74.032347, 40.581705], [-74.033616, 40.583276], [-74.034814, 40.584899], [-74.035938, 40.586563], [-74.036985, 40.588255], [-74.037954, 40.589966], [-74.038843, 40.591684], [-74.039648, 40.593398], [-74.040369, 40.595098], [-74.041003, 40.596772], [-74.041547, 40.59841], [-74.042, 40.6], [-74.042341, 40.601569], [-74.042557, 40.60315], [-74.042658, 40.604741], [-74.042654, 40.606337], [-74.042555, 40.607938], [-74.04237, 40.609539], [-74.042111, 40.611138], [-74.041785, 40.612733], [-74.041404, 40.61432], [-74.040977, 40.615898], [-74.040514, 40.617463], [-74.040024, 40.619012], [-74.039518, 40.620543], [-74.039006, 40.622053], [-74.038496, 40.62354], [-74.038, 40.625], [-74.037487, 40.626442], [-74.036922, 40.627876], [-74.036312, 40.629299], [-74.035661, 40.630711], [-74.034974, 40.63211], [-74.034256, 40.633495], [-74.033511, 40.634865], [-74.032745, 40.636218], [-74.031963, 40.637552], [-74.031169, 40.638868], [-74.030368, 40.640162], [-74.029566, 40.641435], [-74.028766, 40.642684], [-74.027975, 40.643908], [-74.027197, 40.645106], [-74.026436, 40.646276], [-74.025667, 40.647403], [-74.024866, 40.648478], [-74.024038, 40.649507], [-74.023191, 40.650497], [-74.022331, 40.651456], [-74.021466, 40.652391], [-74.020601, 40.653309], [-74.019745, 40.654218], [-74.018904, 40.655124], [-74.018084, 40.656034], [-74.017293, 40.656957], [-74.016536, 40.657898], [-74.015822, 40.658866], [-74.015157, 40.659868], [-74.014547, 40.66091], [-74.014, 40.662], [-74.013516, 40.66314], [-74.013089, 40.664323], [-74.012714, 40.665542], [-74.012383, 40.666793], [-74.012093, 40.668068], [-74.011838, 40.669363], [-74.011612, 40.670669], [-74.01141, 40.671983], [-74.011227, 40.673297], [-74.011056, 40.674605], [-74.010893, 40.675902], [-74.010732, 40.677181], [-74.010568, 40.678436], [-74.010394, 40.679662], [-74.010207, 40.680852], [-74.01, 40.682], [-74.009781, 40.68313], [-74.009562, 40.684266], [-74.009345, 40.685402], [-74.009129, 40.686535], [-74.008917, 40.687659], [-74.008708, 40.688769], [-74.008503, 40.68986], [-74.008304, 40.690927], [-74.00811, 40.691966], [-74.007924, 40.69297], [-74.007746, 40.693935], [-74.007576, 40.694856], [-74.007416, 40.695728], [-74.007266, 40.696546], [-74.007127, 40.697305], [-74.007, 40.698], [-74.006886, 40.69863], [-74.006785, 40.699199], [-74.006695, 40.699712], [-74.006615, 40.700173], [-74.006545, 40.700587], [-74.006484, 40.700956], [-74.006431, 40.701286], [-74.006385, 40.70158], [-74.006344, 40.701844], [-74.006308, 40.70208], [-74.006276, 40.702293], [-74.006248, 40.702488], [-74.006221, 40.702668], [-74.006195, 40.702837], [-74.00617, 40.703], [-74.006144, 40.703161]]}}, {"type": "Feature", "properties": {"name": "St. George", "color": "#D0006F"}, "geometry": {"type": "LineString", "coordinates": [[-74.074231, 40.646072], [-74.073553, 40.64637], [-74.072732, 40.646706], [-74.071784, 40.647078], [-74.070723, 40.647487], [-74.069567, 40.647932], [-74.06833, 40.648411], [-74.067028, 40.648926], [-74.065678, 40.649473], [-74.064294, 40.650055], [-74.062893, 40.650668], [-74.06149, 40.651314], [-74.060102, 40.651991], [-74.058742, 40.652699], [-74.057429, 40.653437], [-74.056176, 40.654204], [-74.055, 40.655], [-74.053869, 40.655835], [-74.052741, 40.656718], [-74.051617, 40.657645], [-74.050499, 40.658612], [-74.049388, 40.659616], [-74.048286, 40.660652], [-74.047193, 40.661717], [-74.046111, 40.662808], [-74.045041, 40.66392], [-74.043984, 40.665051], [-74.042942, 40.666195], [-74.041916, 40.66735], [-74.040908, 40.668512], [-74.039918, 40.669676], [-74.038949, 40.67084], [-74.038, 40.672], [-74.037067, 40.673175], [-74.036143, 40.674384], [-74.035229, 40.675621], [-74.034328, 40.676883], [-74.033441, 40.678163], [-74.032568, 40.679456], [-74.031713, 40.680758], [-74.030875, 40.682063], [-74.030057, 40.683365], [-74.02926, 40.684661], [-74.028485, 40.685945], [-74.027734, 40.687211], [-74.027009, 40.688455], [-74.026311, 40.689671], [-74.02564, 40.690854], [-74.025, 40.692], [-74.024385, 40.693126], [-74.023792, 40.694253], [-74.023219, 40.695376], [-74.022669, 40.696492], [-74.022142, 40.697597], [-74.021638, 40.698687], [-74.021157, 40.69976], [-74.020702, 40.700811], [-74.020271, 40.701836], [-74.019865, 40.702833], [-74.019486, 40.703797], [-74.019133, 40.704725], [-74.018808, 40.705612], [-74.01851, 40.706457], [-74.01824, 40.707254], [-74.018, 40.708], [-74.017806, 40.708675], [-74.017672, 40.709267], [-74.017589, 40.709788], [-74.017551, 40.710249], [-74.017549, 40.71066], [-74.017575, 40.711032], [-74.017624, 40.711376], [-74.017686, 40.711704], [-74.017754, 40.712025], [-74.017822, 40.712352], [-74.01788, 40.712695], [-74.017922, 40.713064], [-74.01794, 40.713471], [-74.017927, 40.713927], [-74.017874, 40.714443], [-74.017775, 40.715029], [-74.017639, 40.715669], [-74.017481, 40.716338], [-74.017304, 40.717036], [-74.01711, 40.71776], [-74.016899, 40.718508], [-74.016673, 40.719281], [-74.016435, 40.720076], [-74.016186, 40.720891], [-74.015927, 40.721726], [-74.015661, 40.72258], [-74.015389, 40.72345], [-74.015113, 40.724335], [-74.014834, 40.725234], [-74.014555, 40.726145], [-74.014276, 40.727068], [-74.014, 40.728], [-74.013721, 40.728955], [-74.013433, 40.729944], [-74.013137, 40.730962], [-74.012834, 40.732006], [-74.012525, 40.733071], [-74.012211, 40.734154], [-74.011893, 40.735249], [-74.011572, 40.736353], [-74.011248, 40.737462], [-74.010923, 40.738571], [-74.010598, 40.739676], [-74.010273, 40.740773], [-74.00995, 40.741859], [-74.00963, 40.742928], [-74.009313, 40.743976], [-74.009, 40.745], [-74.008681, 40.746032], [-74.008347, 40.7471], [-74.008002, 40.748196], [-74.007648, 40.749308], [-74.00729, 40.750427], [-74.006931, 40.751542], [-74.006575, 40.752645], [-74.006225, 40.753724], [-74.005885, 40.75477], [-74.005558, 40.755773], [-74.005248, 40.756723], [-74.004958, 40.757609], [-74.004693, 40.758422], [-74.004454, 40.759152], [-74.004247, 40.759789], [-74.004075, 40.760323]]}}, {"type": "Feature", "properties": {"name": "Governors Island", "color": "#9795A0"}, "geometry": {"type": "LineString", "coordinates": [[-74.006144, 40.703161], [-74.006218, 40.703015], [-74.00632, 40.702839], [-74.006446, 40.702636], [-74.006591, 40.70241], [-74.00675, 40.702163], [-74.006917, 40.701898], [-74.007089, 40.70162], [-74.00726, 40.70133], [-74.007424, 40.701033], [-74.007578, 40.700731], [-74.007716, 40.700428], [-74.007834, 40.700126], [-74.007926, 40.69983], [-74.007988, 40.699541], [-74.008014, 40.699263], [-74.008, 40.699], [-74.007928, 40.698744], [-74.007791, 40.698486], [-74.0076, 40.698226], [-74.007365, 40.697966], [-74.007097, 40.697706], [-74.006806, 40.697446], [-74.006503, 40.697187], [-74.006199, 40.696929], [-74.005905, 40.696674], [-74.00563, 40.696422], [-74.005387, 40.696173], [-74.005184, 40.695928], [-74.005034, 40.695688], [-74.004946, 40.695453], [-74.004931, 40.695223], [-74.005, 40.695], [-74.005161, 40.694782], [-74.005407, 40.694567], [-74.005728, 40.694356], [-74.006112, 40.694149], [-74.006549, 40.693945], [-74.007026, 40.693745], [-74.007535, 40.693549], [-74.008063, 40.693357], [-74.008599, 40.693169], [-74.009133, 40.692985], [-74.009653, 40.692804], [-74.010149, 40.692629], [-74.010609, 40.692457], [-74.011023, 40.692289], [-74.011379, 40.692127], [-74.011667, 40.691968], [-74.011896, 40.691816], [-74.012084, 40.691671], [-74.012238, 40.691534], [-74.01236, 40.691402], [-74.012455, 40.691275], [-74.012528, 40.691153], [-74.012583, 40.691035], [-74.012625, 40.69092], [-74.012658, 40.690806], [-74.012686, 40.690694], [-74.012713, 40.690582], [-74.012745, 40.690469], [-74.012785, 40.690356], [-74.012838, 40.69024], [-74.012908, 40.690122], [-74.013, 40.69], [-74.013108, 40.689875], [-74.013222, 40.689747], [-74.013341, 40.689618], [-74.013465, 40.689487], [-74.013593, 40.689356], [-74.013724, 40.689224], [-74.013857, 40.689093], [-74.013991, 40.688962], [-74.014125, 40.688832], [-74.014259, 40.688705], [-74.014391, 40.688579], [-74.014521, 40.688456], [-74.014648, 40.688336], [-74.01477, 40.68822], [-74.014888, 40.688107], [-74.015, 40.688], [-74.01511, 40.687895], [-74.01522, 40.68779], [-74.015331, 40.687686], [-74.015442, 40.687583], [-74.015551, 40.687482], [-74.015659, 40.687383], [-74.015764, 40.687287], [-74.015866, 40.687195], [-74.015964, 40.687106], [-74.016058, 40.687022], [-74.016146, 40.686943], [-74.016228, 40.686869], [-74.016303, 40.686802], [-74.016371, 40.686741], [-74.016431, 40.686686], [-74.016482, 40.68664]]}}, {"type": "Feature", "properties": {"name": "Statue & Ellis Islands", "color": "#0057A0"}, "geometry": {"type": "LineString", "coordinates": [[-74.015139, 40.703028], [-74.015374, 40.702854], [-74.015647, 40.702647], [-74.015956, 40.70241], [-74.016298, 40.702147], [-74.016671, 40.701861], [-74.017071, 40.701553], [-74.017497, 40.701229], [-74.017945, 40.700889], [-74.018412, 40.700538], [-74.018896, 40.700178], [-74.019394, 40.699812], [-74.019903, 40.699443], [-74.020421, 40.699075], [-74.020945, 40.698709], [-74.021472, 40.69835], [-74.022, 40.698], [-74.022539, 40.697645], [-74.0231, 40.697273], [-74.023681, 40.696885], [-74.024279, 40.696486], [-74.024893, 40.696079], [-74.02552, 40.695667], [-74.026158, 40.695254], [-74.026804, 40.694842], [-74.027456, 40.694435], [-74.028112, 40.694036], [-74.02877, 40.693649], [-74.029426, 40.693277], [-74.03008, 40.692922], [-74.030729, 40.692589], [-74.031369, 40.692281], [-74.032, 40.692], [-74.032639, 40.691744], [-74.033301, 40.691505], [-74.033982, 40.691283], [-74.034676, 40.691076], [-74.035377, 40.690885], [-74.03608, 40.690707], [-74.036779, 40.690543], [-74.037469, 40.690391], [-74.038145, 40.69025], [-74.0388, 40.690119], [-74.039429, 40.689998], [-74.040028, 40.689885], [-74.04059, 40.68978], [-74.041109, 40.689681], [-74.041581, 40.689588], [-74.042, 40.6895], [-74.042371, 40.689417], [-74.042705, 40.68934], [-74.043003, 40.68927], [-74.043268, 40.689208], [-74.043501, 40.689154], [-74.043704, 40.689108], [-74.043879, 40.689071], [-74.044028, 40.689045], [-74.044152, 40.689028], [-74.044254, 40.689022], [-74.044335, 40.689028], [-74.044397, 40.689045], [-74.044442, 40.689075], [-74.044472, 40.689118], [-74.044489, 40.689175], [-74.044494, 40.689246], [-74.044472, 40.689333], [-74.044411, 40.689438], [-74.044314, 40.689558], [-74.044186, 40.689694], [-74.044033, 40.689843], [-74.043858, 40.690004], [-74.043668, 40.690176], [-74.043465, 40.690357], [-74.043256, 40.690547], [-74.043045, 40.690744], [-74.042836, 40.690946], [-74.042635, 40.691153], [-74.042446, 40.691364], [-74.042274, 40.691576], [-74.042124, 40.691788], [-74.042, 40.692], [-74.041897, 40.692217], [-74.041806, 40.692444], [-74.041726, 40.692681], [-74.041655, 40.692926], [-74.041592, 40.693177], [-74.041534, 40.693434], [-74.041482, 40.693694], [-74.041433, 40.693957], [-74.041387, 40.694222], [-74.041341, 40.694487], [-74.041294, 40.69475], [-74.041245, 40.695011], [-74.041193, 40.695267], [-74.041135, 40.695519], [-74.041072, 40.695763], [-74.041, 40.696], [-74.040928, 40.696239], [-74.040863, 40.69649], [-74.040803, 40.696749], [-74.040746, 40.697013], [-74.04069, 40.697279], [-74.040633, 40.697544], [-74.040573, 40.697804], [-74.040508, 40.698057], [-74.040436, 40.6983], [-74.040355, 40.698528], [-74.040263, 40.69874], [-74.040158, 40.698932], [-74.040039, 40.6991], [-74.039902, 40.699243], [-74.039746, 40.699355], [-74.03957, 40.699435], [-74.039381, 40.699471], [-74.039186, 40.699458], [-74.038985, 40.699404], [-74.038776, 40.699315], [-74.038556, 40.699197], [-74.038325, 40.699059], [-74.03808, 40.698906], [-74.037821, 40.698745], [-74.037544, 40.698583], [-74.037249, 40.698427], [-74.036935, 40.698284], [-74.036598, 40.698161], [-74.036238, 40.698064], [-74.035853, 40.698], [-74.035441, 40.697977], [-74.035, 40.698], [-74.034519, 40.698069], [-74.033989, 40.698176], [-74.033418, 40.698317], [-74.032811, 40.698485], [-74.032175, 40.698677], [-74.031516, 40.698888], [-74.030839, 40.699113], [-74.030152, 40.699348], [-74.02946, 40.699587], [-74.028769, 40.699827], [-74.028086, 40.700061], [-74.027416, 40.700287], [-74.026767, 40.700498], [-74.026144, 40.70069], [-74.025553, 40.700859], [-74.025, 40.701], [-74.024473, 40.701117], [-74.023953, 40.701221], [-74.023443, 40.701311], [-74.022942, 40.70139], [-74.022452, 40.701459], [-74.021973, 40.70152], [-74.021507, 40.701574], [-74.021054, 40.701623], [-74.020615, 40.701668], [-74.02019, 40.701711], [-74.019781, 40.701753], [-74.019389, 40.701795], [-74.019013, 40.701839], [-74.018656, 40.701887], [-74.018318, 40.70194], [-74.018, 40.702], [-74.017702, 40.702065], [-74.017425, 40.702134], [-74.017167, 40.702206], [-74.016927, 40.702279], [-74.016704, 40.702354], [-74.016498, 40.702429], [-74.016308, 40.702503], [-74.016132, 40.702576], [-74.01597, 40.702648], [-74.01582, 40.702717], [-74.015683, 40.702782], [-74.015556, 40.702843], [-74.015439, 40.702898], [-74.015331, 40.702949], [-74.015232, 40.702992], [-74.015139, 40.703028]]}}, {"type": "Feature", "properties": {"name": "Staten Island Ferry", "color": "#E4002B"}, "geometry": {"type": "LineString", "coordinates": [[-74.013131, 40.701409], [-74.013289, 40.701243], [-74.013458, 40.701078], [-74.013641, 40.700909], [-74.013839, 40.700732], [-74.014054, 40.700541], [-74.014287, 40.70033], [-74.01454, 40.700095], [-74.014815, 40.699829], [-74.015114, 40.699529], [-74.015438, 40.699188], [-74.015788, 40.698802], [-74.016167, 40.698364], [-74.016576, 40.697871], [-74.017017, 40.697316], [-74.017491, 40.696694], [-74.018, 40.696], [-74.018543, 40.695217], [-74.019118, 40.694339], [-74.019723, 40.693376], [-74.020358, 40.692338], [-74.021022, 40.691238], [-74.021714, 40.690084], [-74.022433, 40.688889], [-74.023179, 40.687662], [-74.023951, 40.686414], [-74.024747, 40.685157], [-74.025568, 40.6839], [-74.026411, 40.682654], [-74.027277, 40.681431], [-74.028164, 40.68024], [-74.029072, 40.679093], [-74.03, 40.678], [-74.030968, 40.676934], [-74.03199, 40.675863], [-74.033061, 40.674791], [-74.034172, 40.673719], [-74.035316, 40.672651], [-74.036486, 40.67159], [-74.037675, 40.670539], [-74.038875, 40.6695], [-74.040079, 40.668477], [-74.041279, 40.667473], [-74.042469, 40.66649], [-74.043641, 40.665531], [-74.044787, 40.6646], [-74.0459, 40.663699], [-74.046974, 40.662832], [-74.048, 40.662], [-74.048988, 40.661203], [-74.049953, 40.660435], [-74.050898, 40.659696], [-74.051823, 40.658983], [-74.05273, 40.658295], [-74.053621, 40.657632], [-74.054497, 40.656991], [-74.055361, 40.656371], [-74.056213, 40.65577], [-74.057055, 40.655188], [-74.05789, 40.654623], [-74.058718, 40.654073], [-74.059542, 40.653537], [-74.060362, 40.653014], [-74.061181, 40.652502], [-74.062, 40.652], [-74.062835, 40.651507], [-74.063697, 40.651024], [-74.064577, 40.650552], [-74.065469, 40.650093], [-74.066363, 40.649648], [-74.067254, 40.649218], [-74.068132, 40.648806], [-74.06899, 40.648411], [-74.069822, 40.648036], [-74.070618, 40.647682], [-74.071371, 40.64735], [-74.072075, 40.647042], [-74.07272, 40.646758], [-74.073299, 40.646502], [-74.073806, 40.646272], [-74.074231, 40.646072]]}}]}