{"type":"FeatureCollection","features":[{"type":"Feature","properties":{"name":"Citi Bike playable area"},"geometry":{"type":"Polygon","coordinates":[[[-74.1166865,40.7105965],[-74.1145169,40.7066237],[-74.1141786,40.7031709],[-74.114559,40.701072],[-74.1028384,40.6954223],[-74.1011587,40.6921243],[-74.1012144,40.691605],[-74.101891,40.6908731],[-74.1018346,40.6900276],[-74.0998356,40.6859155],[-74.0980053,40.6807041],[-74.0657769,40.6670744],[-74.049594,40.661622],[-74.03249632882127,40.69],[-74.02237751340249,40.69],[-74.02637621613826,40.68623131880005],[-74.02662178340191,40.68565463411141],[-74.02633404242412,40.68480169772416],[-74.02546836768585,40.68415292257828],[-74.0239473535509,40.68394921598663],[-74.02275899029961,40.68428444833224],[-74.02236823557672,40.68377991679396],[-74.02305574749596,40.68291694544512],[-74.02213250186882,40.68376767238524],[-74.02259359581043,40.68435969594994],[-74.02061267235813,40.685240390198025],[-74.02027819846492,40.684809135174476],[-74.02095255010298,40.684384431647175],[-74.0193984239193,40.68508740404719],[-74.02020686710533,40.684833833077064],[-74.02054367293083,40.68527206792595],[-74.01712099101076,40.68684333763654],[-74.01678113957148,40.68634903791918],[-74.01753032434098,40.68536298793245],[-74.01667351529994,40.6863051685535],[-74.01514391021996,40.686437034043],[-74.01664664084758,40.68641634723332],[-74.01704986609231,40.68687598791899],[-74.01604730539525,40.687338006297715],[-74.01488097975012,40.68725457048853],[-74.01316926402764,40.68815477120316],[-74.01230688304494,40.68928018293757],[-74.01226082809055,40.69],[-74.00486756806355,40.69],[-74.0034092162452,40.68961326065753],[-74.00382038919734,40.688929644699286],[-74.00636461225268,40.68966966863697],[-74.00678438439812,40.68882687995826],[-74.00459270521773,40.688215222986585],[-74.00500373315077,40.68760598540084],[-74.00742012154099,40.68820629043591],[-74.00783293766685,40.68738505516271],[-74.00562986330397,40.686784205541045],[-74.00588224183234,40.6861957688936],[-74.00701988682655,40.68652641719407],[-74.00816414593912,40.686174717161464],[-74.00835446532176,40.68640020025069],[-74.01217596614637,40.684095185628465],[-74.01178272201211,40.68375999549927],[-74.01077312339382,40.68435861554089],[-74.00967108558885,40.68326872771502],[-74.01301835422106,40.68041237401431],[-74.01387398777983,40.68100981281633],[-74.01360863270286,40.68122194672814],[-74.01410549647976,40.68171251937546],[-74.01213481688792,40.68290592802509],[-74.01282000332849,40.683622416497336],[-74.01899105405408,40.67990499370389],[-74.01955261263598,40.6790292520846],[-74.01857882788786,40.67898307947237],[-74.01825267004563,40.67855288672592],[-74.01966312651506,40.678388201270586],[-74.01841103183163,40.678407121278426],[-74.0184304066162,40.677908321864855],[-74.01917743946902,40.67782694900697],[-74.01908257386332,40.67713956404752],[-74.01995197864679,40.67710301044998],[-74.01976925613236,40.67661322491727],[-74.01791198226185,40.67651046280194],[-74.01801800739601,40.67588952276335],[-74.01850332636647,40.67584155869193],[-74.01840869520876,40.67552402107138],[-74.0188810137862,40.67509248066173],[-74.01839290896025,40.67510772414781],[-74.01829802655337,40.67545917918137],[-74.0178344757269,40.67525822301427],[-74.0181761827466,40.67446417703668],[-74.01780187203207,40.67409544141238],[-74.01801077320542,40.67391318105236],[-74.01775247096369,40.67404772289247],[-74.01727138470127,40.67360864580553],[-74.01880094776921,40.6722507648487],[-74.0181683928079,40.671939240601084],[-74.01496392184576,40.674677630294205],[-74.01457946720957,40.67441401707158],[-74.01632099922308,40.6729082695637],[-74.01511918663964,40.67215699596911],[-74.01336378218146,40.673591536934374],[-74.01297587792192,40.67332791872094],[-74.01568625497517,40.671038834928815],[-74.01423289452784,40.67213000051302],[-74.01387273763247,40.671880761760434],[-74.01519980570072,40.670754027664316],[-74.01427407257734,40.671379299181794],[-74.011753505097,40.67065775757833],[-74.01424926931877,40.66972860473712],[-74.01162527521358,40.67058102827584],[-74.0115428803157,40.66978434275031],[-74.01087343978189,40.6697101155584],[-74.01091024340415,40.66919049236948],[-74.01033845947939,40.66907819544801],[-74.01035683667317,40.668642835388496],[-74.01087664028977,40.66860161576352],[-74.01227967872794,40.66573241415885],[-74.01593698534552,40.66547079172145],[-74.01602551776013,40.664863048788085],[-74.01648665554498,40.664930508953816],[-74.01751037086696,40.67103453098412],[-74.01933946871779,40.67162494842262],[-74.01876336878676,40.6710758744944],[-74.01857605010878,40.67039241386995],[-74.01788719149391,40.66585046628535],[-74.0169026736107,40.664846602338876],[-74.01574872882661,40.66456833629162],[-74.01154017543332,40.66508591975665],[-74.00985411855628,40.6685236283354],[-74.00708724287813,40.66859135853573],[-74.00779653349626,40.667159770777204],[-74.00754821618389,40.667051745733545],[-74.00543926529355,40.67092146823844],[-74.00475388692327,40.67072135894501],[-74.00696707834248,40.66605218235666],[-74.00586366180686,40.66799376258568],[-74.00289483876952,40.66734846594938],[-74.00221506816547,40.6685786374412],[-74.00141527103163,40.668359414347],[-74.00105664113187,40.66894568171725],[-74.00030337808884,40.66871689249705],[-73.99876941058923,40.67160204710507],[-73.99855824468393,40.67133550166993],[-73.99891160167893,40.669648578639524],[-73.99865580691613,40.66951479554791],[-73.99924049105037,40.668306286559975],[-73.99902633264176,40.669007888400685],[-73.99902600998391,40.66844297212697],[-73.99998149339125,40.66745027490865],[-74.00068774868767,40.66754595189878],[-74.00146470932711,40.66716956870756],[-74.00120611348312,40.6670181072028],[-74.00161950021094,40.66676627917446],[-74.0029246351639,40.666462312163375],[-73.99953152609918,40.66439748593691],[-74.00113519509662,40.6629017240551],[-74.0048619379266,40.66506482193818],[-74.00528132177344,40.66465700352396],[-74.00432294897378,40.66405231997527],[-74.00459238636755,40.66373519983284],[-74.00340348595633,40.662985726598244],[-74.00362862508568,40.66273484753455],[-74.00565025959587,40.663900337843735],[-74.00564140754484,40.6645314918958],[-74.0057578104549,40.663922756801625],[-74.00604608518981,40.66384000563553],[-74.00584157632487,40.66413802067457],[-74.00644979980795,40.664506206799054],[-74.00662937859572,40.66418793012444],[-74.00688215307308,40.66434037294294],[-74.00652469600124,40.664547227662936],[-74.00712532646742,40.664915218474285],[-74.00730516126836,40.66459759075258],[-74.00767434594508,40.66479110926576],[-74.0056134868175,40.663458390254746],[-74.00599748682693,40.66325861082853],[-74.00538014413922,40.66288392645279],[-74.00519233775088,40.663201553096584],[-74.00497157758613,40.66306821324207],[-74.00535812864253,40.66286912973172],[-74.00473298121778,40.662496503996664],[-74.00455498488715,40.66281637291271],[-74.00348801100651,40.662240556128495],[-74.00380815470886,40.66190794572815],[-74.00592360503035,40.66310825073907],[-74.00622698247926,40.662787827860946],[-74.00428358250127,40.661444894101265],[-74.00568594756895,40.66227474036051],[-74.00616141136322,40.66184506899048],[-74.00868371591302,40.66337201284022],[-74.00955074142037,40.66326769413036],[-74.01046331724496,40.66264211979004],[-74.01037201297231,40.662398880232516],[-74.00745858163897,40.66055847620991],[-74.00859956968291,40.65952092309824],[-74.01265358811496,40.66198165403757],[-74.01402247678026,40.66152974744007],[-74.01110750410312,40.65970627458062],[-74.01183862056554,40.65891283727471],[-74.01554165389008,40.66075835547612],[-74.01745803087906,40.65945019738671],[-74.01442130484554,40.657608021951376],[-74.01504738221857,40.65695038669341],[-74.01768549175472,40.65845299276121],[-74.01774232727495,40.65809891672493],[-74.0154363226965,40.656632396759655],[-74.01585370056829,40.656213240555395],[-74.01860569460999,40.65784587402285],[-74.01910843803124,40.65736888430346],[-74.01639437533778,40.65562064285076],[-74.01665047959763,40.65533879657216],[-74.01691617851074,40.655483274957746],[-74.01726715936589,40.65519418798648],[-74.01980081652,40.65648721058464],[-74.01715319581028,40.654775104362095],[-74.01787407223819,40.654061502330826],[-74.02005182454299,40.65533594887446],[-74.02025589052928,40.65511826288113],[-74.01811897876475,40.65388527110525],[-74.01872686588685,40.653474310524395],[-74.01919203025423,40.654022598494116],[-74.02047461820187,40.65421658922714],[-74.02164486415393,40.654878983382446],[-74.02182479745501,40.65465617578539],[-74.02114963484496,40.654210755211565],[-74.021629462955,40.653645165216034],[-74.02320464727143,40.654096116817854],[-74.02118670027893,40.65283983689533],[-74.02195900090598,40.65222278197075],[-74.02359434497558,40.65321636896176],[-74.02380703903127,40.653044728511475],[-74.02089862870835,40.65124727521829],[-74.02233734666835,40.6519106053816],[-74.02105230392216,40.65109828292773],[-74.02124652373412,40.650834972564304],[-74.02154138319227,40.650671622911226],[-74.0253689015052,40.65272143692725],[-74.02285141795984,40.65116919516173],[-74.02417752973398,40.65119177321216],[-74.02541604028595,40.65193380685506],[-74.02424021347531,40.65113351631337],[-74.02477160495675,40.65068770743538],[-74.02552971543658,40.651478550692815],[-74.026051331968,40.650994300743115],[-74.02484436363446,40.650599638056974],[-74.02553864578044,40.64978215934804],[-74.0249679211714,40.6486059622675],[-74.0251291195524,40.64832318145725],[-74.02414566050571,40.64761510125984],[-74.02488305491134,40.64741052302423],[-74.0262968885822,40.648168926521016],[-74.02467396344869,40.64709451887867],[-74.02516202606728,40.64713874849414],[-74.02571758804814,40.64661549229094],[-74.02938990486622,40.64880405511387],[-74.02974078211075,40.6484860262104],[-74.02604948400321,40.646261350326164],[-74.02820569545008,40.64401598289028],[-74.02845721095782,40.644156059248175],[-74.02819053049323,40.644414330206274],[-74.02850116250606,40.64417756470264],[-74.02908654289241,40.6445830017996],[-74.0288624112704,40.64486602372301],[-74.02908090885778,40.64440359693035],[-74.0305183086342,40.64527442520901],[-74.03189708494341,40.64388934936976],[-74.03226870865824,40.644074379292555],[-74.03254173795672,40.6438254848545],[-74.03231070598243,40.64357458661776],[-74.03284292013862,40.64356371035059],[-74.03407329294262,40.64431393296391],[-74.03675840317523,40.64161176271395],[-74.03571276150733,40.640640154046494],[-74.03672484374884,40.63914119020669],[-74.03868804690735,40.63973825602958],[-74.03680662048853,40.63898422154549],[-74.04106320439344,40.63019033724501],[-74.04189513118017,40.62429902703854],[-74.04161740773603,40.620562714545734],[-74.04047612021519,40.615625263664064],[-74.0398236508975,40.61432738866381],[-74.03691628433887,40.611180791065514],[-74.03603977777917,40.609295639001864],[-74.03495830824207,40.608659489123696],[-74.03213159551316,40.60590183626424],[-74.03005146547686,40.60475917381196],[-74.02101662991085,40.603555553160966],[-74.01913563902892,40.60261275450496],[-74.01582404828717,40.60229498086637],[-74.01236981602702,40.60134925711617],[-74.00921723904911,40.59984404515235],[-74.00363401947313,40.59608059924293],[-74.00184415135475,40.59397766723788],[-74.0010574844572,40.59253700506226],[-73.9983883108362,40.59353139160628],[-73.99948304872376,40.592969199897595],[-73.9990121720855,40.592335116988906],[-74.00023075282743,40.59147848976969],[-73.99957329199393,40.59109256658331],[-73.99754851058402,40.59191757917558],[-73.99728269703789,40.59171481486806],[-73.99806438267686,40.59120946473149],[-73.99718982739488,40.591606181403975],[-73.99711168571538,40.59127797744375],[-73.99844325936868,40.59024010549442],[-73.99877800589589,40.590314355341874],[-73.99844387079493,40.5898603991775],[-73.99883618014574,40.58962548954227],[-73.99837834882112,40.589770445088554],[-73.99946446811074,40.589233269380706],[-73.9992369039696,40.588935328269066],[-73.99867293375561,40.589195549939646],[-73.99788311251041,40.58834343792279],[-74.00038207115723,40.587133057349455],[-74.00037368890936,40.58647481462995],[-74.00011449538404,40.58695164090259],[-73.99534737661219,40.589331380439965],[-73.9948767769537,40.588771746675135],[-73.9979563973929,40.58726950636563],[-73.99509949490816,40.5885925050438],[-73.99556316619989,40.58827707219877],[-73.99421554608307,40.58886853048277],[-73.99407904621782,40.588693441990536],[-73.99566054512272,40.58793620734381],[-73.99417305638379,40.588382857820754],[-73.99814530449005,40.586531693907126],[-73.9995651157032,40.58624392009567],[-73.99970597099515,40.58568981985855],[-73.99808523776015,40.58536472158149],[-74.00035951790484,40.58418644588039],[-74.00017922859409,40.5830739507476],[-73.99547188560325,40.58221005511795],[-73.99026244714373,40.584619148205306],[-73.99182529575872,40.58173852030272],[-73.9916300747238,40.58107988438184],[-73.98995504921774,40.58066166953139],[-73.98800973376761,40.57967068715573],[-73.98684478996452,40.58123210200517],[-73.98604509916231,40.58172068515157],[-73.98588567394853,40.581144424564755],[-73.98702138577707,40.58002276487527],[-73.98669539997074,40.57981490813254],[-73.98739064388407,40.57908698306367],[-73.9884283376943,40.57881584261948],[-73.9903620646656,40.57942458012048],[-73.99182912790279,40.57924708092877],[-73.99780862456942,40.580595800915916],[-73.99821946495926,40.58147437721421],[-74.0002605542433,40.58125238636872],[-74.00604734235819,40.58198365303582],[-74.00762456723109,40.581767790278576],[-74.01086035571245,40.58046224526466],[-74.01235035929241,40.579221821659004],[-74.01303113457199,40.57785701811856],[-74.01201540191131,40.574885052474215],[-74.01115668729265,40.574166761858805],[-74.01007410785428,40.57383080951763],[-74.00666915632598,40.57339364837533],[-74.00303186164811,40.57218559475899],[-74.00248707737711,40.57173838887244],[-74.00208547639737,40.56958598398493],[-74.00201167053908,40.57020875852411],[-74.0010643863451,40.57040154143546],[-73.9984677790016,40.57049739697296],[-73.99736944882602,40.57013730754286],[-73.99576469677096,40.57039296236246],[-73.99518726085736,40.57002187763311],[-73.99493763229948,40.57035467451237],[-73.99298098072168,40.57019677330915],[-73.99119337523618,40.5706118749682],[-73.99086374684875,40.57060201624237],[-73.99079264766945,40.57024864875552],[-73.99077310323926,40.570599421837805],[-73.99026267527441,40.57070834011722],[-73.98375790448654,40.571396227250915],[-73.98348842146673,40.570156030549086],[-73.98383949489262,40.57011246715793],[-73.98348521866143,40.570089015062756],[-73.98336058039274,40.56952999448672],[-73.98339168436641,40.57009468501946],[-73.98304328883714,40.57014586098795],[-73.98340440737678,40.57016554451075],[-73.98367270153264,40.57140705768738],[-73.98282723201834,40.57154241357455],[-73.9815715542343,40.57124998842481],[-73.98204075852517,40.571480370522465],[-73.980103515519,40.57172722648448],[-73.9794432836762,40.571220925948026],[-73.97984694469409,40.57153931961014],[-73.97845486511177,40.57189220429922],[-73.97780796518646,40.57175620072631],[-73.9777153307249,40.57125191384221],[-73.97807599798226,40.571229570128686],[-73.97767087523826,40.57117102007906],[-73.97766384588144,40.57172938779909],[-73.97730110158642,40.5718623859464],[-73.97592552091531,40.57201865743753],[-73.9754056409422,40.57142104064051],[-73.975285649671,40.572049832668526],[-73.97344805325685,40.57227210696934],[-73.97324990115125,40.571626686611594],[-73.97334502229812,40.57232121400611],[-73.97293476162699,40.57247460264785],[-73.97160706452391,40.572628223919835],[-73.9711830635572,40.571941899084166],[-73.97132989626343,40.57264381038404],[-73.96975580336886,40.57284692469034],[-73.96924621215568,40.572304075654536],[-73.96945126202375,40.57285728036317],[-73.96818506098593,40.57317786854616],[-73.96742628474543,40.57298510896923],[-73.96720294103957,40.57332631739744],[-73.95982864911242,40.57392930963569],[-73.95909642194565,40.57386382043327],[-73.95898718972552,40.573430655731926],[-73.95896634152741,40.573947268768464],[-73.9584347635901,40.574088815548876],[-73.9565675090591,40.574170778492956],[-73.95634533454609,40.573797578291845],[-73.95634506681627,40.5742072219895],[-73.9556948404436,40.57432699626318],[-73.95413360803455,40.57433326749515],[-73.95408333385907,40.57407327218327],[-73.95254341027398,40.57422397950426],[-73.9459239023584,40.575115432309396],[-73.94618237597052,40.575298836206905],[-73.94572352014008,40.57555943976485],[-73.9447484174005,40.57551202474831],[-73.94459642832113,40.57524561730258],[-73.94439308875684,40.57578881326343],[-73.94250907828429,40.57537355453175],[-73.93672041869382,40.57541830080353],[-73.93647107586592,40.57586049635636],[-73.93489356455193,40.57522164650021],[-73.93486092830432,40.575527796668155],[-73.9315025674406,40.57566050512677],[-73.93106288335653,40.57616310072331],[-73.93258006568038,40.58126474120343],[-73.94274062592515,40.58099558955926],[-73.949696724994,40.58231940106665],[-73.95330135995678,40.582002749633475],[-73.95349322048682,40.58298819826097],[-73.9474686786132,40.58352819536239],[-73.94682202947197,40.58319119187104],[-73.9472683270523,40.58353318257447],[-73.94691796276106,40.583546033249704],[-73.94631603648754,40.583206940210665],[-73.9467894506878,40.58355046761413],[-73.94643429059353,40.58356315259242],[-73.94579941258893,40.58319464023027],[-73.94628634691874,40.583568685707924],[-73.94537605237882,40.58318193165051],[-73.94573014930474,40.58354487455874],[-73.94484512940832,40.58316423534609],[-73.94517477781616,40.5835213782442],[-73.9443205981808,40.58315942487762],[-73.94461828666238,40.58349662608767],[-73.94363589795745,40.58314557390954],[-73.94406764167105,40.58347200911037],[-73.94369153004573,40.58346775426596],[-73.94309334781462,40.583134545214385],[-73.94354467530925,40.58347101436107],[-73.94319506158027,40.583489662633255],[-73.94256316190979,40.583127347516445],[-73.94304709646006,40.58349212946424],[-73.94270167762984,40.583508797613966],[-73.94202033352752,40.58311042378245],[-73.94255133565296,40.58351447617082],[-73.94157408083576,40.58360755593937],[-73.94120155728888,40.583090465204975],[-73.94093422085358,40.58330230643671],[-73.94102517918687,40.583070361906195],[-73.94070019514757,40.58332762473209],[-73.94067657802276,40.58306580556733],[-73.9401090368288,40.58307506968685],[-73.94056608947771,40.583087368308064],[-73.94057745828911,40.583328225573474],[-73.93930153084892,40.58333321505446],[-73.93862755765119,40.58306702179746],[-73.93855276236509,40.583337984991246],[-73.93809420627771,40.583116810716966],[-73.93811917695095,40.58334047899514],[-73.93712459798454,40.58334673016421],[-73.93700558408267,40.58301601947137],[-73.93763269743297,40.58309626828407],[-73.93663307422509,40.58297221190407],[-73.93697427463763,40.5832303264113],[-73.93657592440785,40.58324050558996],[-73.93630031206766,40.58300295567546],[-73.93656607029148,40.582957648786426],[-73.9360966869136,40.58294874583287],[-73.93613233590835,40.5833144745686],[-73.9357665721109,40.583277509849694],[-73.93582439275778,40.583021115552036],[-73.93569071639769,40.58327509318912],[-73.93420971486968,40.582979798893426],[-73.93201839411537,40.58311112461853],[-73.93237695742826,40.58291850997811],[-73.93192811186758,40.58286976893525],[-73.9319425895197,40.58310975022709],[-73.9309600314458,40.58272861078609],[-73.93067191898315,40.583159811872804],[-73.92963248074904,40.58339880862547],[-73.92443604094979,40.58355820344421],[-73.91505520170757,40.581543607722594],[-73.91148327601968,40.58183216186747],[-73.9112863598385,40.5823135862924],[-73.91191058860356,40.58296337725257],[-73.91285379588712,40.5830122672988],[-73.9129938424696,40.582706740169286],[-73.91296905167872,40.58297280262396],[-73.91335911446286,40.582954021014295],[-73.91417322816004,40.58280136166249],[-73.91438667636008,40.582383158049325],[-73.91541290900814,40.58236407379867],[-73.91729861410724,40.583190801749524],[-73.91614199473284,40.582857437633855],[-73.91498685680605,40.58315284032853],[-73.91463166275312,40.58275763490533],[-73.91246022036009,40.58335175442636],[-73.9127107973976,40.58369994166923],[-73.91236790288812,40.58452617424723],[-73.91255391691257,40.585526336006225],[-73.91349961675873,40.586095825705314],[-73.91566114963587,40.58622345400562],[-73.9201956305338,40.584634537869825],[-73.92529083981735,40.58464073566465],[-73.9263454207472,40.58527615475314],[-73.9254935435831,40.58501929200315],[-73.92730433823881,40.58586592841988],[-73.92751621995615,40.58639826671543],[-73.9273695578589,40.58600658531633],[-73.92815700695618,40.58586452306607],[-73.92827672497617,40.58610694357008],[-73.92791933785848,40.58613580604611],[-73.92814969379522,40.58617810776292],[-73.9280823297159,40.58669769393763],[-73.9285739393647,40.5870615023714],[-73.93125191267127,40.586849825214244],[-73.93134917824067,40.58732816722949],[-73.92972232646734,40.58756008290379],[-73.93038545256269,40.588441616078846],[-73.92972846380188,40.58861391582974],[-73.93039967597511,40.58846552041527],[-73.93065021927526,40.58866986977072],[-73.93009138279223,40.58898886237893],[-73.93068568059815,40.5888219542268],[-73.93121294858956,40.58953130811927],[-73.93155939441621,40.59129296407077],[-73.93100989343161,40.59193104248093],[-73.9313999798639,40.59180489056214],[-73.93113956057567,40.59200892874747],[-73.93267653975752,40.594236417967586],[-73.93282654852891,40.59480374496913],[-73.93260420556857,40.594929544524945],[-73.9307813137962,40.59449895527677],[-73.93176387400015,40.59428409876283],[-73.93136684826811,40.594529172094475],[-73.93095463426403,40.594465945206174],[-73.9312205593891,40.59418331726272],[-73.93043246129614,40.59440267494988],[-73.93004011947696,40.59410488733043],[-73.93029934404393,40.59393805451024],[-73.93054679070713,40.594199304085535],[-73.93052488661873,40.593880240700805],[-73.93022756280043,40.59393062089686],[-73.9300815945314,40.593595462871235],[-73.93001650952083,40.59409453606215],[-73.92978081742059,40.59343674147159],[-73.93003922396672,40.59334843088381],[-73.92974147322656,40.59314392244555],[-73.92995591909575,40.593308572326606],[-73.9300423841959,40.59306087931805],[-73.92971282036603,40.593120048248046],[-73.93035364458576,40.592554950294016],[-73.93017616634201,40.592406220970396],[-73.93036443603303,40.59248009351355],[-73.9306058065659,40.59154136250844],[-73.93040541662207,40.591730942142945],[-73.93060444306961,40.59118617622097],[-73.93037197719028,40.5912114008759],[-73.93072578729827,40.59108986026513],[-73.93044960172926,40.59107969192914],[-73.93069641658053,40.591018541400196],[-73.9304601366188,40.5910012190209],[-73.93058940447366,40.58995259113252],[-73.93029788091678,40.59003516762998],[-73.93010325988767,40.58960610507142],[-73.93057705718259,40.58989064120317],[-73.92976615773308,40.58929206944766],[-73.92936128354364,40.58925066298247],[-73.92998187866193,40.58951599787862],[-73.9287570349942,40.589152966925],[-73.92913440382641,40.58887924168195],[-73.92844090493656,40.589030428142],[-73.92863061415639,40.58857263642065],[-73.92460129938567,40.59119932500313],[-73.92419963392662,40.59136428018869],[-73.92395294850095,40.591139850525046],[-73.92776143639115,40.588660609758804],[-73.92745467790994,40.58829956407405],[-73.92802185276425,40.58806875635088],[-73.92736935753541,40.588044598802966],[-73.9280790681786,40.5877024605232],[-73.92791625741057,40.58754873639201],[-73.92735680928895,40.58802217627617],[-73.92724750521374,40.587753274719795],[-73.92768287747325,40.587361600134045],[-73.92720774188905,40.58772275918675],[-73.9247570979969,40.585632575099226],[-73.923341180798,40.58599522055545],[-73.92090603836388,40.58559058153361],[-73.92082156941883,40.58599577420629],[-73.92040498231103,40.58608977964568],[-73.91919033172358,40.585962494147644],[-73.91805568585308,40.586436545676285],[-73.917366596562,40.587404626060426],[-73.91454699795437,40.588742326006965],[-73.91420566206686,40.589196883636184],[-73.91461921395874,40.58932715577961],[-73.91454758323466,40.5899517907881],[-73.91655940040144,40.59109258743766],[-73.91793876571171,40.592891661295475],[-73.91908617945425,40.59380130525552],[-73.92035216727963,40.5947355056488],[-73.92177536324357,40.59503092620111],[-73.92290185533977,40.59644756381633],[-73.92720240400453,40.59991008043415],[-73.92859230600075,40.600611615976234],[-73.9286525041383,40.600385591828726],[-73.92922698259744,40.60048810851603],[-73.92935962488765,40.60098626107378],[-73.9303253811347,40.60118184218977],[-73.93211608839755,40.602688516646964],[-73.93117476161741,40.60385040643471],[-73.9304892010015,40.60373586462894],[-73.93016762708736,40.60402845833084],[-73.92989750871342,40.603743246095625],[-73.92940872349565,40.60400361989424],[-73.9290161239676,40.603721240271284],[-73.9296158974918,40.603189639979405],[-73.92950671202789,40.602709233504314],[-73.92832255237376,40.60221838231453],[-73.92486491934983,40.59982148242321],[-73.92401237890166,40.599722273819474],[-73.92291904736973,40.601392798497805],[-73.9215168998195,40.60192365414113],[-73.92016573798146,40.601087838804794],[-73.91859190395137,40.60079639057197],[-73.915132974595,40.5987811159303],[-73.91418739482309,40.597357026283674],[-73.91364562396885,40.597099977182296],[-73.91204234015639,40.594506954288896],[-73.91202436365307,40.59309623390645],[-73.91148579005623,40.5911087530185],[-73.91191080135248,40.588467433873646],[-73.91157677449867,40.58726262488534],[-73.91197278431744,40.586697357471316],[-73.9114817199007,40.58607871871231],[-73.91088554171193,40.58594764500446],[-73.90643924223777,40.58703385637473],[-73.90649351286096,40.58734467487571],[-73.90712502406387,40.58752970296232],[-73.90651874663767,40.588025473892536],[-73.90426874447127,40.58691226298859],[-73.90209953736365,40.587356541176376],[-73.90071546045657,40.58808399538835],[-73.89995234070638,40.588041598696854],[-73.9012179188318,40.58738334002316],[-73.8998106052503,40.588014457055486],[-73.89903026095932,40.587670097520544],[-73.89973341305183,40.58716521210988],[-73.89891599908808,40.587537436061034],[-73.8983050622705,40.58684118500341],[-73.89789705159708,40.585821255728405],[-73.89813542477577,40.5851856550598],[-73.89655591241934,40.58300501897462],[-73.89648974288562,40.582016519249684],[-73.89708755890902,40.579886959303906],[-73.89552381007172,40.5767698184364],[-73.89118413759041,40.5778721123008],[-73.88734824650487,40.57807522462709],[-73.88287342943633,40.57912824068064],[-73.88206958203648,40.579073978696556],[-73.88174676983895,40.57915880721246],[-73.88174290022101,40.57959170076461],[-73.87970231664002,40.58013510069814],[-73.87671672482075,40.58491443020079],[-73.87878760357643,40.588030461058366],[-73.87929326377301,40.590661431870615],[-73.87896890438743,40.59089677311756],[-73.87935729205896,40.59084373529749],[-73.87971492228004,40.591398891828995],[-73.87989902851933,40.59202063885207],[-73.87940807013561,40.59210340689226],[-73.87990713259005,40.59204799432243],[-73.88071906028293,40.59482632973361],[-73.88071445697018,40.596393097319854],[-73.88147208280691,40.597872095419255],[-73.88162780733816,40.599446482691036],[-73.88329452020047,40.602916104555675],[-73.88269358924964,40.60422497014916],[-73.88398042953052,40.60556651972072],[-73.8847753981048,40.605144844134124],[-73.88764437104096,40.605277047313585],[-73.89117096536292,40.60359615399234],[-73.89219609555762,40.60338848361697],[-73.89530920285453,40.60312108015543],[-73.89880755323306,40.60365709041247],[-73.90143013761227,40.60327267745599],[-73.90332866108643,40.60245630398555],[-73.90393449508672,40.60272510278642],[-73.9076785933026,40.60229166671992],[-73.9089422513804,40.60160704069869],[-73.90979649926416,40.60204301300349],[-73.91073123013268,40.60202137602762],[-73.90940934304665,40.602190765755324],[-73.91070633053955,40.60214451526533],[-73.91071154457036,40.60241949317829],[-73.90903689530535,40.60267734322014],[-73.9107512397226,40.60243729986252],[-73.91075830846505,40.60202750098338],[-73.91155529140806,40.60215546472977],[-73.91093999639918,40.602128474222454],[-73.91151957194403,40.60239686856935],[-73.9108653658578,40.60249048328844],[-73.91257290407535,40.602683300034684],[-73.9115441118299,40.6024393231039],[-73.91254170182432,40.60236443995541],[-73.9115842768934,40.60213548840338],[-73.91305994409447,40.60220621016667],[-73.91270696033585,40.60269470948373],[-73.91311658733721,40.602220255928806],[-73.9134751154424,40.60234929587337],[-73.91301723241868,40.6027542487176],[-73.91349826413607,40.60236697606776],[-73.91347072649009,40.60291169068994],[-73.91364075667403,40.602524181704275],[-73.91368718510044,40.60285042101264],[-73.91442813462287,40.60286391956324],[-73.91952209796018,40.60773879743479],[-73.9193710042992,40.60803264124184],[-73.91850300413923,40.607071236027],[-73.91825269092955,40.60722935064056],[-73.91935398484114,40.6080429222877],[-73.91902310765313,40.60825686819942],[-73.9183624673764,40.60750136941871],[-73.91813814889973,40.60764538690762],[-73.91900737147328,40.60826725497108],[-73.91857357570954,40.60848794628733],[-73.918187285901,40.60802458091072],[-73.91800500501196,40.60814977851462],[-73.91855666120597,40.608498309043355],[-73.91781972771432,40.60930430006589],[-73.91796270083074,40.608785937120324],[-73.91767870757278,40.60966286494887],[-73.91786638626965,40.609327233800826],[-73.91773185485057,40.60978253819977],[-73.91811036679015,40.610208394058134],[-73.91573181927137,40.611830844513776],[-73.9166280437116,40.61344358926546],[-73.91587086536367,40.61291003739051],[-73.91639586745892,40.613446834034676],[-73.91574585230275,40.61338486070302],[-73.91624768959599,40.613626100791194],[-73.91597173175407,40.61380783536662],[-73.91576807356569,40.61354033333576],[-73.91591452110687,40.61384537631233],[-73.916420990035,40.61356935469268],[-73.91422238665956,40.61493245670446],[-73.91386053060685,40.61464226907088],[-73.91493418790436,40.613958155054945],[-73.91449542205984,40.61165322366485],[-73.91616475037732,40.610515575076114],[-73.91708838503317,40.60882085489853],[-73.91650924535934,40.60862975409002],[-73.9168398111877,40.60876001472052],[-73.91657073983427,40.60942353954593],[-73.91678394432759,40.60877388439221],[-73.91632230017528,40.608675662668986],[-73.91673556486204,40.606814561550166],[-73.91365119759602,40.603982513836954],[-73.91092270021183,40.60350547610068],[-73.90832536835175,40.604073373918595],[-73.90985154845471,40.605999722177685],[-73.90888574422165,40.606536518828385],[-73.90840361574533,40.605243297059786],[-73.90803306097821,40.605358602117214],[-73.90849236684971,40.60577213812821],[-73.90882919865999,40.606564966000455],[-73.90863959535433,40.606658722047825],[-73.90811001167575,40.606273265343056],[-73.9059746117786,40.606384028704326],[-73.90524300992104,40.604910090324374],[-73.90164211790092,40.60576336073886],[-73.90225859966283,40.61042277259992],[-73.90313578707025,40.6109675381571],[-73.90349407447779,40.61138900874264],[-73.90331047012506,40.61154716386367],[-73.90350980782245,40.61140649037257],[-73.90429103725162,40.6120148561288],[-73.9042410385934,40.61236227321874],[-73.90544378702968,40.61301450900807],[-73.90730153384288,40.61480891300764],[-73.90865024676273,40.61548455568715],[-73.90959740910345,40.616392669799325],[-73.90895706128725,40.616991484819316],[-73.90917675105399,40.616521946980214],[-73.90815663851602,40.61560112405153],[-73.90797306390522,40.615736844061175],[-73.90913853186652,40.61653162172903],[-73.90879420819167,40.6168729573246],[-73.9083540321468,40.616530998961515],[-73.90907145153956,40.617160438331815],[-73.90863333912971,40.61716785490937],[-73.90879088017648,40.617436396721374],[-73.90815289956957,40.617161892995966],[-73.90781388603345,40.61737406758582],[-73.90796806538616,40.617046586776986],[-73.90724169382702,40.616551501887564],[-73.9075273513217,40.6163444325489],[-73.90710595399027,40.61660986021425],[-73.90744255412073,40.61625853570061],[-73.907083469682,40.61622136802836],[-73.90725685565059,40.61608758137676],[-73.90673848666407,40.6162959199901],[-73.90717291149849,40.61600987533838],[-73.90696283645077,40.6161140175788],[-73.90603328924867,40.614953389219515],[-73.9024227471758,40.612033560004726],[-73.90304392812502,40.61209521498723],[-73.90271854260656,40.61182602529591],[-73.90236032096213,40.61198041218253],[-73.90265077946788,40.61178062116416],[-73.90132962659408,40.61048104310328],[-73.902493929853,40.61181499903227],[-73.90133303458654,40.61171788290594],[-73.90134997400659,40.611088615101956],[-73.90015619936537,40.61007643818692],[-73.90087672510026,40.60698012134732],[-73.89986880363867,40.60552464054403],[-73.89855419496179,40.60529446731982],[-73.89672573151205,40.60563653751715],[-73.89372092468457,40.606595272880774],[-73.89274578072484,40.60719514834253],[-73.89217035937483,40.60854472135728],[-73.89242327207698,40.6085582427387],[-73.89226735458973,40.60916527314666],[-73.89176940682313,40.60951926895924],[-73.89194461446814,40.60910225214828],[-73.89030211389492,40.610317656862506],[-73.88970208064968,40.61156330202819],[-73.89107794632622,40.61227686186851],[-73.89099709323193,40.612052452416194],[-73.89189389086447,40.61153467124987],[-73.89354938853045,40.61100089763644],[-73.89396385060905,40.61121422258077],[-73.89393240072201,40.61153659672418],[-73.89141430474193,40.61212544769949],[-73.89095414564684,40.6128340473171],[-73.89249926249607,40.613792312183776],[-73.89427581408155,40.61388264324812],[-73.89586112894189,40.614518137494755],[-73.89602881667844,40.614804600052],[-73.89573445152966,40.61488774712011],[-73.89646002707956,40.616129873890465],[-73.89664335225234,40.61734771314743],[-73.89561388501932,40.619801287150636],[-73.8964592116951,40.6214159073261],[-73.89811767568025,40.62185156212633],[-73.900704610501,40.62162879432084],[-73.9009871751637,40.62254138634817],[-73.90293591363087,40.62362404852839],[-73.90228707932278,40.62440985393028],[-73.90283262223252,40.62405099444946],[-73.90269333271979,40.62421333487325],[-73.90327045944026,40.62448418394094],[-73.9025465611261,40.624444239169506],[-73.9053295804466,40.62586495608437],[-73.90385540661488,40.624940198699655],[-73.91535460301415,40.62999169507066],[-73.91731998946489,40.63100715271804],[-73.91750657333893,40.63144181607985],[-73.91633195427595,40.63203873255834],[-73.90412793207629,40.62630620013431],[-73.90114685492416,40.62568538759794],[-73.89826103023736,40.62298915984356],[-73.89577374598765,40.62251907138479],[-73.8923765655193,40.623733236347746],[-73.89090471444757,40.6250161984639],[-73.89048710394745,40.62622477905803],[-73.88752673706202,40.628331824482494],[-73.88604117197288,40.62869724648158],[-73.88572166971264,40.62844671572566],[-73.88512954023781,40.628827258671365],[-73.88369231571504,40.627559373914],[-73.88263248433405,40.62827427312689],[-73.88404726149386,40.6295601185465],[-73.88345412923472,40.62990766993483],[-73.88376932796379,40.630221761342376],[-73.88364451728232,40.6309433121386],[-73.88301362103513,40.63162614953537],[-73.88127068104544,40.632369119161034],[-73.87820590489784,40.63457294366259],[-73.87714434868599,40.63597649800753],[-73.87863488136358,40.63755178129429],[-73.87863863908075,40.63829360626023],[-73.87953888017083,40.63821783932069],[-73.88373578763789,40.642450349188394],[-73.88623646791808,40.643816787720986],[-73.88734361665685,40.64522415387101],[-73.8880558718287,40.6451197872573],[-73.88740960156504,40.64532928012421],[-73.88828981420745,40.64604421554559],[-73.88808138884075,40.64662056962872],[-73.88864181593007,40.64678511345134],[-73.8881899083885,40.64677356952389],[-73.88820050726659,40.64714086952909],[-73.88851637568524,40.647360691521946],[-73.88861004869388,40.647081360931914],[-73.88941387285452,40.64693843999413],[-73.88879690848674,40.646050258056334],[-73.88945074227671,40.64717395559644],[-73.89108330605373,40.648792575696],[-73.89100298051531,40.64935070556566],[-73.89034734693777,40.64903360577808],[-73.89013701016975,40.64917041211644],[-73.89033529141228,40.64934776900196],[-73.89006780073068,40.64932363564047],[-73.88863638434103,40.648024492615654],[-73.88771211156099,40.64787443463653],[-73.88743444708423,40.64593668177373],[-73.88557762148909,40.64404095029236],[-73.8848075041113,40.64394630368026],[-73.88341999203028,40.64452381564948],[-73.88214832562572,40.64374372784058],[-73.88224108165659,40.64345349240906],[-73.8815285584656,40.642451686091654],[-73.88006714132426,40.64200344662672],[-73.88029248068574,40.64140491573313],[-73.88073623546332,40.641565958475766],[-73.88048386922627,40.64097803454748],[-73.87851742532122,40.639003430741845],[-73.87716909788728,40.638658069701634],[-73.87444865634039,40.636658673298754],[-73.87293435009107,40.636364807922355],[-73.86955902490305,40.6379474843275],[-73.86920846110642,40.637465809260995],[-73.86960972136566,40.63708553460872],[-73.86799709668131,40.63811526520962],[-73.86989583386249,40.63893452891954],[-73.87008544224427,40.63984418136625],[-73.87327031255244,40.6439032143449],[-73.87344344510434,40.64467191424074],[-73.87318593330956,40.6454450133616],[-73.87971979034305,40.65437592977632],[-73.87933211680561,40.65462201684979],[-73.87257043102893,40.645575612359636],[-73.87119172949643,40.64530535631245],[-73.87061492461062,40.64485674188673],[-73.86867282895089,40.64092507920341],[-73.86732291072714,40.63987198395282],[-73.86681528201252,40.639963527666715],[-73.86548637000537,40.638765183481624],[-73.8653538996912,40.63895129367573],[-73.8667041197378,40.640021763495405],[-73.8628946322439,40.642550679682444],[-73.85716978298213,40.64367855888598],[-73.85840315341024,40.647003901237376],[-73.85752429374355,40.649996190231356],[-73.85695870291826,40.65058737397428],[-73.85898002979157,40.65267545783549],[-73.85979242750737,40.654476157377],[-73.86072015717335,40.65519718344291],[-73.86264117343167,40.65566753700767],[-73.86320115391982,40.65634937819984],[-73.86299057835198,40.65637399457031],[-73.86327623068608,40.65694121532815],[-73.8630020220129,40.65748811662727],[-73.86172714514387,40.658033653993165],[-73.8616137116362,40.65699651025277],[-73.86087003517073,40.65690897540408],[-73.86035030672484,40.65722606716761],[-73.86057646234761,40.657834589864535],[-73.85976839588908,40.65828193634575],[-73.86093499368778,40.65805606752864],[-73.86129886151848,40.658352859651394],[-73.86068516151484,40.659311786836916],[-73.86049000450198,40.658994143866366],[-73.86098077540714,40.65838130334332],[-73.8602158530437,40.65889590239071],[-73.86025847890085,40.65862971173905],[-73.85967919564035,40.658492276453494],[-73.85955850409013,40.65808366389071],[-73.85993897279542,40.657720177150374],[-73.85981027609678,40.65732241149368],[-73.86007499798225,40.65704861107999],[-73.8598336352149,40.656977063220445],[-73.8600677781954,40.65677986104951],[-73.86020839501062,40.657010374446465],[-73.8606166932969,40.656464657206925],[-73.86136381950391,40.65641475416526],[-73.85930573554424,40.654972383384234],[-73.85828132383818,40.652994872151815],[-73.85671288972276,40.652801664541606],[-73.85605277956536,40.651398891463536],[-73.85403329487947,40.65066031157481],[-73.85250949612214,40.650551403711845],[-73.85078499726185,40.65153285190428],[-73.84992253316292,40.65165796360367],[-73.84936074751856,40.65139383119356],[-73.84925726840825,40.65103153255088],[-73.85058665633544,40.65033798099495],[-73.85090552461412,40.64916819600036],[-73.85159089132353,40.64909647844212],[-73.85241668556098,40.64738809796633],[-73.85183280737654,40.645860056712564],[-73.84950699084176,40.64413376567875],[-73.83592320073286,40.645499790674954],[-73.83978752612929,40.66048599804802],[-73.83997949975621,40.661904273862234],[-73.83873608555963,40.662454060021076],[-73.83805800948623,40.66200606333904],[-73.83878517503132,40.66108844843479],[-73.83569927830652,40.64866891475943],[-73.83434221467303,40.648099766847906],[-73.83166902767809,40.64797221101766],[-73.83103729946357,40.6487114423776],[-73.83338439472546,40.65805185920799],[-73.83096907996669,40.65823029417234],[-73.83260036370608,40.657826591627284],[-73.83194394578257,40.65617142725343],[-73.83290309524598,40.65748377162305],[-73.83218186068025,40.65489475195476],[-73.83185238479285,40.65488503826696],[-73.83127112568121,40.65600327149467],[-73.83009172569683,40.65673635744863],[-73.8295026511985,40.656647431983274],[-73.82909434825204,40.65733421866328],[-73.83024427039392,40.658349969348144],[-73.82969520083398,40.65865592869147],[-73.83013138340064,40.659806903175856],[-73.82959986903032,40.658656806915346],[-73.8301302874039,40.65840264372115],[-73.82917919734581,40.65779977854428],[-73.82896778740297,40.65720524792007],[-73.82937603410718,40.65650633521589],[-73.83003301456557,40.65656716833609],[-73.83116100809629,40.65591923373717],[-73.83149330103011,40.65497982053974],[-73.83221698518582,40.65446038629297],[-73.83170814411547,40.65393117429689],[-73.83060245974774,40.654806889777525],[-73.83044328071924,40.65551947244447],[-73.82966677652146,40.65559904001632],[-73.82901417557976,40.656107884452446],[-73.83161314793696,40.653748953236196],[-73.83129214295731,40.65347092446843],[-73.83093651353482,40.65162612925581],[-73.82852522721231,40.64913099927315],[-73.82686957464318,40.648799045186095],[-73.82636174739362,40.64833356017742],[-73.82614483059665,40.65008184094257],[-73.82585962093296,40.649475601604436],[-73.8254877081487,40.64989215694147],[-73.82499846516201,40.64937693088289],[-73.82464845979977,40.64971518096836],[-73.82307197451632,40.64800620927737],[-73.82498070378549,40.65543197118368],[-73.82426776040363,40.65774651163849],[-73.82405929133719,40.65769595402017],[-73.82426410867659,40.657779092686546],[-73.82408625283462,40.65828935484827],[-73.8238795151995,40.65825780833886],[-73.82409166371448,40.65843148062121],[-73.82352151962056,40.66007539025802],[-73.81867184374163,40.66213277692867],[-73.81145557768781,40.66073655223526],[-73.81124435291112,40.66054463956668],[-73.81143833844025,40.660254210773516],[-73.81262125517674,40.660157049898345],[-73.81869531558692,40.661105051055166],[-73.82169139439422,40.66003508674306],[-73.82233688072895,40.659363084269735],[-73.82348381110748,40.65536991271867],[-73.82192156855423,40.65011183488633],[-73.82124797279174,40.64913861608747],[-73.81830607819731,40.64638698303701],[-73.81643071612785,40.645998005645694],[-73.81350685093177,40.64463665382682],[-73.81203333683298,40.644303575045754],[-73.81075749444099,40.64349239125583],[-73.80565939652632,40.64160198312627],[-73.79923711983865,40.63842010970357],[-73.79725742867075,40.63800761375769],[-73.79474387433125,40.63662936739451],[-73.7922231803763,40.635890088279965],[-73.7912289850974,40.63485706406986],[-73.79130877788232,40.634401300654815],[-73.79081111250507,40.63431035551072],[-73.79827615415297,40.6312521793658],[-73.79811872226206,40.63103750926111],[-73.79079284299101,40.634282043205054],[-73.79076947485197,40.63384872575818],[-73.78949663072328,40.63426977920211],[-73.78690666684497,40.63226190072891],[-73.78570293740457,40.632094989480755],[-73.78434764242148,40.6313733204335],[-73.78377728675008,40.63063411564901],[-73.78264543435611,40.630247969088785],[-73.78346558375237,40.6281181407572],[-73.78967870205898,40.62261481917206],[-73.79142802632144,40.622277658347954],[-73.79352550682161,40.622771009756775],[-73.79456630193825,40.62261586582285],[-73.794440154823,40.62185157331525],[-73.79523751343395,40.621657155463325],[-73.79501188737638,40.62133074366219],[-73.79554530911447,40.62092979848458],[-73.7955953430827,40.620211013607275],[-73.79618830890922,40.6196098530292],[-73.79635567904242,40.618454684535365],[-73.79700484778853,40.61837994395798],[-73.79678304336664,40.61770472285112],[-73.7972429814663,40.61759376347241],[-73.7972759253773,40.6166604129168],[-73.7980609038916,40.61632691654108],[-73.79816300611755,40.61571609028358],[-73.79854465671528,40.61588959618307],[-73.79903903505597,40.6155505424839],[-73.79968510153105,40.61377747404307],[-73.79931694077334,40.61335822059154],[-73.79993435271606,40.61314387003036],[-73.80023948919158,40.61208196016919],[-73.8008012591948,40.61193390448159],[-73.8002570007024,40.61159728288814],[-73.79917318059515,40.612026246931805],[-73.7989852939434,40.611482457719156],[-73.79745676195702,40.61131820439619],[-73.7948063387506,40.610378360481214],[-73.79365104095649,40.60898581496911],[-73.79117287672639,40.608474598606165],[-73.79151114690593,40.60815452141681],[-73.79139721011914,40.60761085524994],[-73.79087659100064,40.60769558928749],[-73.78995389362359,40.60898156632596],[-73.78901840238663,40.6092222069446],[-73.78865910627559,40.6100905942268],[-73.78741544568013,40.61026211159958],[-73.78719897412167,40.61065584216972],[-73.78577809315809,40.61099347707074],[-73.78497523353346,40.61192957008811],[-73.78355221437405,40.611924451980876],[-73.78090621621665,40.613603676618716],[-73.78114906072874,40.61399827198236],[-73.7807088719529,40.614026809005864],[-73.78079376503527,40.61458756709236],[-73.78171700912469,40.61517684879657],[-73.78229527471439,40.61516815367756],[-73.78248993127512,40.61556754988678],[-73.7832255453002,40.61557873072325],[-73.78446087067888,40.617027835129676],[-73.78435569021104,40.61776449058741],[-73.7851592000602,40.61864728248336],[-73.78521543076677,40.62006349374441],[-73.78419483297873,40.62089266991026],[-73.78063556575749,40.62599224048735],[-73.77923952344828,40.62731703440736],[-73.77769495694226,40.62769495918835],[-73.77619349304146,40.627431600473365],[-73.77435982099229,40.62610454093221],[-73.77349461614592,40.625142569370915],[-73.77381024409402,40.62492559673092],[-73.77323537240515,40.62499416247692],[-73.77173897581247,40.62360572607341],[-73.77236260162717,40.623147326004236],[-73.77220950703828,40.62300523248704],[-73.77518045935562,40.61926471788485],[-73.7717276028514,40.62358502803034],[-73.77082069707969,40.62328299794486],[-73.77091499945931,40.622403889155486],[-73.77171699447307,40.620961678798],[-73.77160377183134,40.6203432477997],[-73.77077016754353,40.620031182310015],[-73.76975585630291,40.621106620392716],[-73.76952135023454,40.62211848845963],[-73.76869442937246,40.62266565879529],[-73.76878236333695,40.62432279617564],[-73.76700006115739,40.627527790060526],[-73.76639863095271,40.62835013406256],[-73.76474289735037,40.62916808489757],[-73.7650089140494,40.629412183079666],[-73.7645300263729,40.62922113635696],[-73.76308789670844,40.62965889850199],[-73.76219407813788,40.630259432956485],[-73.75243758572769,40.63367678024329],[-73.74855478394913,40.63541155957564],[-73.74752877885734,40.63932443475473],[-73.74742095899629,40.641413643684466],[-73.74870701496528,40.64334349233743],[-73.75376146361374,40.64668632265805],[-73.75340189507162,40.64680746120925],[-73.75373770826351,40.646960423577795],[-73.75379289369526,40.64670560418288],[-73.75461208438026,40.647200458955474],[-73.75492768642911,40.64757272103844],[-73.75475592551949,40.64781219889335],[-73.75427809856588,40.64788642258144],[-73.75329210674906,40.64734340272192],[-73.75354191835883,40.64719631231923],[-73.75323328269444,40.64705211468614],[-73.75327090492594,40.64733376251912],[-73.75171302466917,40.64650059076872],[-73.74945274280583,40.6449312345002],[-73.74885047914479,40.64516927011326],[-73.7487512126161,40.64447110335032],[-73.74729153878724,40.643186686422304],[-73.7463146786795,40.641394313181564],[-73.74617061995008,40.64039664925929],[-73.74702300437451,40.63690878284306],[-73.74551058251754,40.63794388103335],[-73.74567316004256,40.63812465742794],[-73.74532770333596,40.6383722119698],[-73.74527138642928,40.637915901245336],[-73.74679074637307,40.636778135546706],[-73.74629219000668,40.636437267982444],[-73.74519496966803,40.63719171231198],[-73.744712755117,40.637307046894215],[-73.74479558148508,40.63707502907612],[-73.74373421504632,40.63902211766396],[-73.74352226238187,40.638889486374765],[-73.74397128496237,40.63788001261485],[-73.74272966303367,40.63827015598168],[-73.74189040305609,40.638122213540235],[-73.74130372491105,40.637898812918436],[-73.74096487686367,40.63730477503007],[-73.74243638020498,40.63571275510746],[-73.7424664261526,40.6351192282521],[-73.74170882729823,40.634926322434794],[-73.74001376732649,40.635345586724846],[-73.73995957570577,40.63514380937331],[-73.73947121626793,40.63570643182938],[-73.74125900067384,40.63889749993758],[-73.74227387225922,40.64012338145145],[-73.74142279314965,40.6405033907533],[-73.7420508495277,40.64147420452568],[-73.74166141317535,40.64219806218241],[-73.74143706042346,40.64688917832144],[-73.73904482131437,40.64820118034441],[-73.73513501472308,40.649732040466816],[-73.73028652972184,40.65036852267439],[-73.72522608107018,40.65200100014745],[-73.72509934582096,40.65234574831177],[-73.72505569119357,40.65350789414446],[-73.725926877412,40.657731319352855],[-73.72833071875962,40.66304394373114],[-73.72781392393443,40.66322396947803],[-73.72826385203373,40.668072875631964],[-73.7275561635645,40.67416158819153],[-73.72619806195749,40.67738088972974],[-73.72563005119902,40.67958795078136],[-73.7267834683389,40.70198712394837],[-73.72689487481325,40.70997857361936],[-73.72917629515446,40.719167214561715],[-73.73032628968097,40.72215729678481],[-73.72567196959443,40.724037658993154],[-73.71828706778554,40.726041111270405],[-73.70766217305994,40.727830934509434],[-73.7014707303812,40.73751156096409],[-73.70000906387122,40.739323413163355],[-73.7016334589216,40.75249332969287],[-73.72248438411827,40.76552721035582],[-73.7230592417252,40.76614440631415],[-73.72356002286429,40.76612876166832],[-73.75080593613785,40.78289337866807],[-73.75299839296436,40.781289489522116],[-73.75300812549722,40.78086607518846],[-73.75412964083077,40.77938414323761],[-73.75455791105844,40.77777659066426],[-73.75551737581799,40.77770404836418],[-73.75481322893437,40.777619032305594],[-73.75518575394328,40.776498070830215],[-73.75424149999387,40.77526683036522],[-73.75336691999311,40.7732078477634],[-73.75438074757542,40.77204127164215],[-73.75557332649316,40.7715291259227],[-73.75553498728895,40.770985526494385],[-73.7547059371668,40.76974152294668],[-73.75471391687866,40.76879514389752],[-73.75439388269348,40.76875346274864],[-73.7548591582932,40.76840425295842],[-73.75507210849048,40.767533106787354],[-73.75304571090007,40.76481722743512],[-73.75169523455712,40.76365182736872],[-73.75142048789608,40.762761694366745],[-73.75057049365307,40.761915474821556],[-73.74917394462385,40.761377744827925],[-73.74936203349063,40.76184452034029],[-73.74837456439487,40.76155878963078],[-73.74815865904624,40.76072637728021],[-73.7461622437191,40.75902479927693],[-73.74631196705492,40.758054814022756],[-73.74486618338662,40.757204304878954],[-73.74465748646875,40.75655810497731],[-73.74463599057212,40.75689117586712],[-73.74576014295553,40.75783664481694],[-73.74627700539388,40.75779678540848],[-73.74628904491375,40.75905924481752],[-73.74655981867953,40.75933914768846],[-73.74861225072563,40.76092780307599],[-73.75107432252561,40.76176367133622],[-73.75219261536525,40.76383041851508],[-73.75493674341267,40.766093252138866],[-73.75650494248832,40.76634587358724],[-73.75739020803876,40.767166672358414],[-73.75787030567047,40.76694642845212],[-73.7586426435808,40.76735717003546],[-73.75893512093697,40.768334328515856],[-73.76510436820217,40.77379903872306],[-73.76709113484736,40.77684484110918],[-73.76816173051583,40.77939682124199],[-73.76677570373937,40.77981245869835],[-73.76702392346509,40.78008623415831],[-73.76716193687594,40.779782875660665],[-73.76820055460028,40.77944417919096],[-73.77407638297791,40.7859172840192],[-73.77426466694436,40.78665122914524],[-73.77633728818724,40.78848722575377],[-73.7742301148686,40.78706504167592],[-73.7742683605897,40.786756658654745],[-73.77173756350669,40.787463608911835],[-73.77082315021428,40.78798266705992],[-73.77063124537429,40.78846290603716],[-73.77213292826464,40.79017877433443],[-73.77232648173553,40.79148082462656],[-73.7736324818892,40.7927497562151],[-73.77437174340281,40.79449606104037],[-73.77613963747994,40.79607154628253],[-73.77747147920527,40.796633202451794],[-73.77936246804832,40.796685392534826],[-73.77980305052066,40.79620552893674],[-73.7815415003275,40.79565973732001],[-73.78200326103384,40.79497546250354],[-73.7832587625304,40.794923914800506],[-73.7819038542104,40.794901203894185],[-73.78079182072652,40.79403591986439],[-73.78072435069838,40.793333618824185],[-73.78166011555392,40.79348202031303],[-73.78083949014321,40.79327744017283],[-73.78077503139019,40.79299070534054],[-73.78107845970226,40.79167732177906],[-73.78174708763105,40.79113340664451],[-73.78434153059598,40.791749353794806],[-73.78253080663525,40.79127678943193],[-73.78383842514356,40.790640954671545],[-73.78568101301408,40.79034067165998],[-73.79028202353209,40.790316963399796],[-73.79268790112792,40.78877761872355],[-73.79362007276023,40.78899663774982],[-73.79338033504996,40.7895783926206],[-73.7937512648411,40.78906193333896],[-73.79494377022755,40.79175069424005],[-73.79438022516152,40.79417735461059],[-73.79461098148353,40.7949297355261],[-73.79670587562212,40.79519762595181],[-73.79643438737669,40.795736429856476],[-73.79673567660245,40.79520894291802],[-73.79787014914412,40.7955520131465],[-73.79766994008874,40.79599382238173],[-73.79811108045216,40.79560588856531],[-73.79960548292513,40.79633222060566],[-73.80018235388125,40.796266913696826],[-73.80008350203389,40.79662756747464],[-73.80025662935854,40.796260149266516],[-73.80101126230598,40.79652237458959],[-73.80226038840073,40.79626220935539],[-73.80334996362963,40.79671302643],[-73.80431138699936,40.796212876160034],[-73.80427353614901,40.796641261328396],[-73.80434825935407,40.796214090992734],[-73.80464873976848,40.79615919598309],[-73.80463437753288,40.796438088956215],[-73.80467173768787,40.796167469164004],[-73.80539573274983,40.79617082151334],[-73.80633076714669,40.796392740435984],[-73.80623135012372,40.79681747758281],[-73.80636331452577,40.79639360543767],[-73.81160938202314,40.79737240944346],[-73.81177838321315,40.79802505345337],[-73.81224184472103,40.79812582792781],[-73.81254798974678,40.79804706445945],[-73.81288386452475,40.79716656522699],[-73.81305279469937,40.79745501885087],[-73.81349350368556,40.79705838037769],[-73.81342050415851,40.79769302041059],[-73.8136996372526,40.7970794156651],[-73.81367907633195,40.79754578791093],[-73.81740429876716,40.799299019784996],[-73.81982823806023,40.80099487489434],[-73.82040454927238,40.80063950029244],[-73.82052810788424,40.80100602386808],[-73.82043245966645,40.80062786442107],[-73.82161789179179,40.79999198769275],[-73.82238754736629,40.7991128915736],[-73.82262174556766,40.79940780807217],[-73.82251916455886,40.79898773568924],[-73.82277727882831,40.79932022137899],[-73.82259935617274,40.79890184247576],[-73.82300262970566,40.798642289723965],[-73.82330552497582,40.79896286612054],[-73.82310769668369,40.798613103772766],[-73.82340872309888,40.79841781429594],[-73.82367983693864,40.79876994649951],[-73.82343323450807,40.798406514407844],[-73.82385948384704,40.798154135104646],[-73.82402784484825,40.79836118320874],[-73.8240359325072,40.798079662716795],[-73.82514036020436,40.79734144676913],[-73.82614856928558,40.79741598500302],[-73.82673856166689,40.797796245452965],[-73.82717365601191,40.79762220131624],[-73.82697091510656,40.79712827768959],[-73.827417688312,40.79678901882893],[-73.82905864191757,40.79656211413428],[-73.82945991534366,40.796823367591465],[-73.82801372355917,40.79493240876997],[-73.82792932227461,40.79287850745513],[-73.82829155299562,40.79251424596062],[-73.82922857533947,40.79301934041084],[-73.82836657648606,40.79239541955735],[-73.82977794576156,40.791617245801696],[-73.83137353382793,40.79136894466198],[-73.83214914505989,40.79004344056596],[-73.83195118463732,40.78941477213217],[-73.83143767101402,40.78917835148847],[-73.83292937171423,40.78851811420314],[-73.83381316764704,40.78852267799083],[-73.83413566521286,40.78906613655139],[-73.83533150242089,40.789212742716856],[-73.8356580816108,40.789572670981045],[-73.83713432989525,40.78956403301426],[-73.83728049134787,40.78900987242202],[-73.83748191403241,40.79043449792176],[-73.83681814957046,40.79046990635977],[-73.83750358883592,40.79046166072546],[-73.83764565993728,40.79103555307705],[-73.83653187324711,40.7917434324057],[-73.83706498880271,40.79385109842619],[-73.83840083077963,40.79675525830685],[-73.83903676812281,40.79705247708079],[-73.8399709959005,40.79690564189224],[-73.84025860809139,40.79758885843215],[-73.8391900472719,40.797777266447625],[-73.83789967503604,40.798508971186614],[-73.83920948324108,40.797844314353966],[-73.84041517975838,40.797678437258725],[-73.84013930364462,40.79687918783611],[-73.84129943545977,40.79621966933],[-73.84158721174411,40.79540106922119],[-73.8421674734114,40.7956129401636],[-73.84286675259371,40.796922229071924],[-73.84225959368348,40.795584968937334],[-73.84280875241227,40.795418222413105],[-73.84328497194207,40.79617439268503],[-73.84284865322392,40.79521340167171],[-73.84330632386921,40.79550093348889],[-73.84354668938992,40.794913944010496],[-73.84459915044437,40.79491154987517],[-73.84559167122413,40.796011819025686],[-73.84624528406331,40.796161950667056],[-73.84855988738984,40.79549506021832],[-73.84887654563346,40.79513404169125],[-73.8490616083509,40.79336261029847],[-73.8515907715724,40.79408653158045],[-73.85263098256246,40.794944854244704],[-73.85276627198395,40.79438924782931],[-73.85373351593728,40.793935375091095],[-73.85377854910708,40.79242127400707],[-73.85265830693051,40.79110642061034],[-73.8544719407123,40.79025897531958],[-73.85480194733206,40.788619154725914],[-73.85438364788584,40.788320128763026],[-73.85284230133873,40.78821137173993],[-73.85345184461342,40.78782611229885],[-73.85595868913046,40.78767517877377],[-73.85681133765486,40.78667261369716],[-73.85812817158507,40.78705156105827],[-73.8586828335008,40.78653116647525],[-73.8585884050856,40.78614814015384],[-73.85912461223721,40.78585015966327],[-73.85899048937264,40.78549159943628],[-73.85952909197246,40.78553056053402],[-73.85911049798673,40.78544258469839],[-73.8590362897384,40.785092722779524],[-73.85909500008367,40.78543874885148],[-73.85852698593598,40.785228939174544],[-73.85797685542536,40.784678164568106],[-73.85808318103322,40.78372407884168],[-73.85684129014673,40.78337136348517],[-73.85664951090611,40.78289231927643],[-73.85645206661758,40.78332299081608],[-73.85545062834923,40.78314307913834],[-73.85528242786594,40.78197538434991],[-73.85028520882399,40.782459450176496],[-73.84924675980248,40.78225636532164],[-73.84954774265998,40.781841078342715],[-73.84918709418467,40.781641811549505],[-73.84983660014284,40.781599624916275],[-73.84988728063753,40.78112151131686],[-73.85093646396541,40.781119575156005],[-73.84988932081795,40.78108913479843],[-73.84949381208317,40.78006582811419],[-73.85169028085436,40.779867508478176],[-73.84956325207469,40.77987908216711],[-73.8523883277841,40.77952890238693],[-73.85235661936255,40.779169330522315],[-73.852352678813,40.779480672833344],[-73.8498172006601,40.779630348054155],[-73.85148755480323,40.778992978617545],[-73.84963968933047,40.779483275176744],[-73.84993353296177,40.778769123381],[-73.84946904846167,40.778663783211705],[-73.84974741420473,40.778414054006056],[-73.84896802544698,40.77802221269157],[-73.84893873474765,40.77556035848071],[-73.84921678107074,40.7746395821261],[-73.84897619867202,40.77356166795695],[-73.85004065546364,40.77222460055493],[-73.84995162517309,40.77195829887705],[-73.85130108374477,40.771806360797626],[-73.8499424188298,40.77192719325988],[-73.84867152868853,40.7707615729025],[-73.84872671824337,40.770106189088786],[-73.84977407793215,40.769936012942956],[-73.8495042717849,40.76951022388226],[-73.84872999189103,40.76998954177919],[-73.84860101425133,40.76981782588793],[-73.84901287079069,40.769215304351285],[-73.84830138199061,40.76843044060844],[-73.84856697139044,40.76809090719905],[-73.8478057510443,40.76677294817168],[-73.84723067976157,40.766313158095706],[-73.84448895884208,40.76545960258394],[-73.84031170315288,40.766294797898375],[-73.83993922177471,40.767064277147355],[-73.83959072609818,40.76711082471901],[-73.83969772549088,40.76639267704538],[-73.83913189263423,40.765991105568354],[-73.83957826853548,40.76525232297302],[-73.8405263547927,40.76538799020267],[-73.84272819396486,40.764628548931704],[-73.84304240810833,40.76432131992025],[-73.84306961269658,40.76359256915372],[-73.84368787664128,40.763612726083686],[-73.84359361316302,40.76337054278838],[-73.84858834617654,40.76017956308823],[-73.84916662406042,40.76029658479041],[-73.84981162475144,40.76127097400814],[-73.8520720017785,40.7603928846721],[-73.8498748449615,40.761103812948434],[-73.8493011081434,40.76024287534997],[-73.85017503993362,40.75959160122563],[-73.85158552901187,40.75935542065696],[-73.85372403934954,40.76024638863481],[-73.854663664589,40.760171169562085],[-73.8552230639742,40.760816950511995],[-73.85627320640072,40.760902408430326],[-73.85858526284446,40.76191700859691],[-73.85819433132534,40.76237410798455],[-73.85661195813333,40.761649542759294],[-73.85817631070532,40.76239629422384],[-73.85760424037188,40.76305328178898],[-73.85678236963493,40.76250827740659],[-73.85658675388775,40.76272284011425],[-73.85758285470706,40.76307290062657],[-73.85667482362351,40.76393018832615],[-73.85696355939807,40.76407442786309],[-73.85763896602013,40.76309944863463],[-73.85834319308874,40.76356256146054],[-73.8585008125526,40.763376433585044],[-73.8576547361623,40.76307982335111],[-73.85861915281875,40.7619355969989],[-73.85884371506148,40.76205876728174],[-73.85864510487954,40.76251439590902],[-73.85892298182519,40.76212234652152],[-73.85892056312613,40.762406401185174],[-73.85949072467402,40.76256261539987],[-73.86275490196977,40.76676452492579],[-73.86131386166115,40.76694063174373],[-73.86110277152281,40.767271942529774],[-73.86085535944586,40.76693211808922],[-73.8593751042978,40.767075328942695],[-73.85767800266247,40.76827626539146],[-73.8570479026223,40.76913955594882],[-73.85624565746176,40.76888571419898],[-73.85621267610185,40.76919579775779],[-73.85820511050211,40.77032345647718],[-73.85738091328327,40.7705708071564],[-73.85645807349376,40.77032086119874],[-73.8550510627182,40.77219538998911],[-73.87255732673734,40.78082112154257],[-73.87146292358184,40.78212640074077],[-73.87048029898966,40.78230611231519],[-73.86942344795422,40.78359131491773],[-73.86849479101397,40.783662778242565],[-73.86943751657097,40.78363839981371],[-73.86987007434344,40.785085907068165],[-73.86788407470767,40.78736103669457],[-73.86809912257891,40.78745866181839],[-73.86978081192643,40.78533793332583],[-73.87124856242517,40.78603815125499],[-73.87515754893371,40.78150944965326],[-73.87833923298065,40.783025920749424],[-73.87883146781746,40.78243071449435],[-73.87970163672257,40.782882818072274],[-73.87885837485597,40.78239817868118],[-73.87930868295157,40.781853658332295],[-73.87870562518876,40.78058590995006],[-73.87960692432871,40.780850313065244],[-73.88488113731049,40.77998719674127],[-73.88525026986594,40.778612901742434],[-73.8842873771213,40.775472056165995],[-73.88477361907331,40.7753322805865],[-73.88483742391053,40.77495298074564],[-73.88455150532157,40.774360622332146],[-73.8839162796381,40.77413260659154],[-73.8857847369767,40.77402471216451],[-73.88567007665041,40.774433071216855],[-73.8858076228666,40.774022224475374],[-73.88945486903738,40.773532951127166],[-73.89019171520673,40.77364687622498],[-73.88947105399761,40.77553555096723],[-73.89008729416801,40.77778419360687],[-73.8911204433948,40.777124699736],[-73.89183244904515,40.77488019988874],[-73.89141605902397,40.77633895623427],[-73.89252259860892,40.777404628989046],[-73.89119589704403,40.77856328788708],[-73.89166859702844,40.77949253940986],[-73.89254018145553,40.77955183427145],[-73.89159164247525,40.780581121290346],[-73.89166585582748,40.78084326509409],[-73.89300986180194,40.78179802356218],[-73.89224191097452,40.7824107990611],[-73.89165459123727,40.78219478153069],[-73.89274917876416,40.782965706684735],[-73.89230750203647,40.78246604157372],[-73.89306090692067,40.78184828970713],[-73.89416469083811,40.78247204644129],[-73.89534447842294,40.781585566311264],[-73.89460091774592,40.78225315898133],[-73.89535750567515,40.781657657133415],[-73.89477429053538,40.782253592494236],[-73.89606377738433,40.78315720180519],[-73.89437777934138,40.784243203484195],[-73.89865437844038,40.78199542032078],[-73.90034960780265,40.78216441052998],[-73.90129127618928,40.781858419270336],[-73.90203565790117,40.78120310196292],[-73.90218303706587,40.78035936715205],[-73.9025792967235,40.78028912083556],[-73.90217815316004,40.781780561863464],[-73.90114577552114,40.78271110609058],[-73.898748976384,40.78278115576603],[-73.8958291437706,40.785221527383484],[-73.89612632632513,40.78559316931142],[-73.89592962975526,40.7856489443138],[-73.90032629743823,40.789007662825696],[-73.9098586292578,40.790945493781884],[-73.91222952426364,40.78917927996615],[-73.91259985911492,40.789376329633875],[-73.91558710139768,40.78642963116583],[-73.91526013936101,40.78619221664151],[-73.91683277016425,40.785191392487356],[-73.91717118646432,40.784193484371414],[-73.91909034674545,40.78336764600397],[-73.92295652690139,40.78044100812222],[-73.9242336300752,40.77910119376548],[-73.92631833403907,40.77824177518492],[-73.92860515023351,40.776592675100964],[-73.92988058500087,40.77622163190185],[-73.93062856554167,40.77659090274956],[-73.93104964298945,40.77744189731203],[-73.93178834305158,40.77787060710482],[-73.93390840247866,40.77811712981848],[-73.9350823249215,40.77794423372776],[-73.93638022817541,40.77692145656263],[-73.93765483090814,40.77508568538364],[-73.93781335969513,40.7735628946479],[-73.93746638537078,40.77253149512518],[-73.93443525743179,40.7714623623334],[-73.9349539871499,40.77137294301685],[-73.93448548303907,40.77130652321843],[-73.93500813872225,40.77116239486654],[-73.93514715402601,40.770541956058395],[-73.93469499066984,40.77042533852512],[-73.9348953389456,40.77004186288951],[-73.93574021432626,40.76936722986653],[-73.93640381736213,40.769474884014315],[-73.9368146065473,40.76890394747839],[-73.93820383486073,40.76872757186393],[-73.93895502453356,40.767958186217044],[-73.9398355928302,40.76798800593897],[-73.94131174941452,40.76691800476962],[-73.94350282032735,40.76449904074381],[-73.95136748557827,40.75452388323724],[-73.9539935352658,40.75178619551901],[-73.95506652560171,40.74963273037541],[-73.9553492851445,40.750013856903934],[-73.95546436936408,40.74967421308261],[-73.95620136801125,40.74968563332373],[-73.9557603914094,40.74959665953019],[-73.95638045449134,40.74903400751158],[-73.95305375571402,40.748087487229284],[-73.9531838249286,40.74773481196094],[-73.95679453290512,40.748839516955584],[-73.95899427160532,40.746064646435165],[-73.95837927151243,40.745953090093295],[-73.95839861481156,40.74571941944536],[-73.95932420250095,40.74554332269664],[-73.95849389303122,40.744987864916226],[-73.95965229755984,40.74521658817347],[-73.95864096676283,40.744948314954954],[-73.95876372515244,40.74459261916389],[-73.95946329058694,40.74465487734709],[-73.95877537004482,40.74455559986341],[-73.95923368945687,40.74431004302648],[-73.96012600962388,40.74444393699146],[-73.95939106609552,40.74428332474383],[-73.95963225023964,40.74393463191411],[-73.96064863700722,40.74413031761404],[-73.9597512385099,40.74390227665783],[-73.95978468552278,40.74349771658396],[-73.9605195141806,40.74349577832752],[-73.96119029789024,40.74264485525968],[-73.96155253168958,40.74199326140715],[-73.96110814501405,40.74182802590787],[-73.96136466867718,40.74183517907706],[-73.96107708539763,40.741697324617824],[-73.96121862852014,40.74110786013014],[-73.96190930217678,40.740867833243854],[-73.96129339923259,40.740432799367966],[-73.96162982563841,40.7404589294575],[-73.96159204782981,40.740003968231605],[-73.96220916491781,40.74000617549806],[-73.96262015898665,40.73903266212604],[-73.96216583608778,40.738272924998576],[-73.9607258037368,40.73808017017914],[-73.95741470766002,40.73955658201154],[-73.95379878808718,40.73981986527195],[-73.95138071451842,40.73933647729503],[-73.94715087181176,40.73790012334473],[-73.94270608992113,40.73911506297864],[-73.94118816696165,40.74029021829451],[-73.93965301521379,40.74273108709562],[-73.94014858521226,40.74283244146002],[-73.94001922975667,40.7432082722107],[-73.93858786976787,40.74293088268747],[-73.93866991753197,40.74253408202492],[-73.9391087413814,40.74261703517666],[-73.94050888805727,40.7401139417531],[-73.94146173463169,40.73924858362714],[-73.9459409598722,40.73750507655394],[-73.94162472636475,40.7358414423382],[-73.9400670932704,40.73376215298009],[-73.93911054574816,40.731379806525545],[-73.93804478507168,40.730509967846054],[-73.93453176375691,40.729104806534956],[-73.92923485876167,40.72826016576104],[-73.92853805222329,40.72788244993673],[-73.92655663912399,40.725669065287214],[-73.92490316165184,40.724506575671434],[-73.92037064235672,40.72368111382105],[-73.92073356094134,40.72330981277047],[-73.92214330961288,40.72370755701873],[-73.92442298754872,40.72358997598619],[-73.9251544690648,40.72232046365765],[-73.92424364921008,40.72142949875855],[-73.92383575405653,40.720148164078175],[-73.92394312815337,40.7190594462455],[-73.92346602654165,40.718130334322254],[-73.92279414745396,40.71753457614397],[-73.92223761124342,40.71638244049409],[-73.920578613887,40.71602742469072],[-73.920642589406,40.7157731920288],[-73.92232970167703,40.7160765451724],[-73.92352547251087,40.71561660836783],[-73.92412241575498,40.71513804844516],[-73.92368352152526,40.71408284140819],[-73.92433589757125,40.71412259346638],[-73.92488553507602,40.71526718765253],[-73.92431329961576,40.715847056576735],[-73.92305500014335,40.71634266479336],[-73.92422196230993,40.71774774806308],[-73.9247717357903,40.71793694712733],[-73.9287111132049,40.71684974585982],[-73.92890242854062,40.7165728123179],[-73.92843881814595,40.715530949575744],[-73.93085190134032,40.714902985592786],[-73.93105231901718,40.71461022392334],[-73.93042294313072,40.71317255867104],[-73.93184249493433,40.7126272379906],[-73.93161032734842,40.71203802318295],[-73.93077894737054,40.71216042795547],[-73.93154613746867,40.71185535175107],[-73.93025038849085,40.70892791291993],[-73.930501000832,40.708681225039555],[-73.93190101920862,40.711338471428185],[-73.9332834932025,40.71097870745792],[-73.93338484615305,40.71123372774566],[-73.93203262980511,40.71159022307427],[-73.93264621458809,40.71303927229798],[-73.93124067059492,40.7137248108847],[-73.93175357182271,40.7147416755057],[-73.93213686921229,40.71467904647476],[-73.93222529811972,40.71493579746082],[-73.92947356921462,40.71572145262114],[-73.92931999766084,40.7161120088326],[-73.92970539915329,40.717049279389144],[-73.92887965180017,40.717720318623535],[-73.92837930101503,40.71757836729007],[-73.92493181378998,40.718405828749425],[-73.924538549858,40.71934258020449],[-73.924817989437,40.7202651374753],[-73.92561470516624,40.72006166221244],[-73.92779650104079,40.7249256692162],[-73.92787172405026,40.72585405119765],[-73.92849418540163,40.726614603307866],[-73.92958020690881,40.72761282070866],[-73.93492926391873,40.72854391575297],[-73.93810334960668,40.72972851952133],[-73.93981322625453,40.731152688912054],[-73.94154566832451,40.73473433593478],[-73.94321347652948,40.73579053001613],[-73.94451542117359,40.736284391395344],[-73.9451850718132,40.73547915267779],[-73.94499908889489,40.7364366937126],[-73.94557048457219,40.736612303910405],[-73.94587310562892,40.736101831258146],[-73.94662663786626,40.73586558516741],[-73.94692902737472,40.735313140683736],[-73.94659806707354,40.734442224347276],[-73.94706532915389,40.73440199281923],[-73.9471998336712,40.73535517811413],[-73.94652352854787,40.73692685395815],[-73.95292355724183,40.73893494239519],[-73.95466321500021,40.73912795313436],[-73.95693002865117,40.73888707307152],[-73.96046748142263,40.7363996458555],[-73.96209034449912,40.73450799787361],[-73.96230408011073,40.73311409141064],[-73.96408821900239,40.732919099545036],[-73.96226340423297,40.732915551623485],[-73.96143187611803,40.73096517114505],[-73.96099640841629,40.72876912608585],[-73.96161518835937,40.72586556307404],[-73.96028544944213,40.72594812241295],[-73.96012497133245,40.7253196366369],[-73.95842611843923,40.72540053583214],[-73.9579509621324,40.72503643916838],[-73.95794183489497,40.72464920269988],[-73.9583307822691,40.724411700766154],[-73.96190239643161,40.725320500308506],[-73.96211461566837,40.7251480633989],[-73.96165984301349,40.72486045446305],[-73.96189426712186,40.72410670210107],[-73.96247195112906,40.72417498927349],[-73.96207271943886,40.72388030040293],[-73.9629656633696,40.72203447712268],[-73.96399793724464,40.720938438072736],[-73.9650491454937,40.721357344251764],[-73.9640876914787,40.72075552952225],[-73.96435090640153,40.7204040323719],[-73.9646828364128,40.72047045735994],[-73.96435606131357,40.72016300359866],[-73.9651371356229,40.72034359475416],[-73.96537431061721,40.720093633066874],[-73.96554693084717,40.71965919869085],[-73.9651538597604,40.719269683047365],[-73.96552577399208,40.718900892712455],[-73.96585847175177,40.718773228346464],[-73.96654344630551,40.71922294246947],[-73.96587893532673,40.7187550776864],[-73.9665311756518,40.71803212709863],[-73.96718243631243,40.71848305630157],[-73.96730741474417,40.71831306668157],[-73.96659690332696,40.717967980887636],[-73.96884229050278,40.71322392502161],[-73.96846973347044,40.712824709346144],[-73.96879580997506,40.71273703885378],[-73.96911535361014,40.71151189897812],[-73.96942598248583,40.711472725127344],[-73.96925812194769,40.711162421246435],[-73.96976280357138,40.711172617759985],[-73.96934894946881,40.71096061478661],[-73.97000953222526,40.7104539376276],[-73.96955679589703,40.71029607131984],[-73.96994088125629,40.709310231405944],[-73.96984864823538,40.708003041687675],[-73.96929296348497,40.70709333109556],[-73.96929693837714,40.705088331229675],[-73.96747674493031,40.70394987095625],[-73.96751516691093,40.7034373568781],[-73.97018075572801,40.70492927056684],[-73.9701689450992,40.705361853407254],[-73.9704888184858,40.705400665621866],[-73.97026218532287,40.70688750428405],[-73.97232032139826,40.709082883304205],[-73.97275756998378,40.70883127854763],[-73.97105692306185,40.70694643381666],[-73.97109655489109,40.705850056558205],[-73.97423616968537,40.70802438612236],[-73.97462966604424,40.70768106076824],[-73.9725488005782,40.70620449000377],[-73.9734762959847,40.70568628339133],[-73.97439083502324,40.706325774144695],[-73.97465569608042,40.7060742629942],[-73.97101963118514,40.70381561368633],[-73.97110342298834,40.70345973583974],[-73.97231246276112,40.70384453953858],[-73.96893474818431,40.70161586820725],[-73.96924539207359,40.7013647418835],[-73.97266938433756,40.70350138043112],[-73.97283889974956,40.70334642860187],[-73.96948655218085,40.70051906125815],[-73.96982556559533,40.700245070367984],[-73.97283512788736,40.70272874074396],[-73.97332456103942,40.70241265601069],[-73.9707820058799,40.69997866301124],[-73.9711382458321,40.69991789325808],[-73.97318676670898,40.70166980367368],[-73.973757007132,40.7015341388818],[-73.9723920139746,40.70016632275224],[-73.97411513926484,40.701305271419315],[-73.97537649873671,40.69960129346639],[-73.97573541084546,40.699570447705575],[-73.97455023388352,40.70159034430477],[-73.97600587845447,40.70194613378178],[-73.97532987393983,40.702951924338265],[-73.97553456489743,40.70304280880568],[-73.97615937292024,40.70217128035684],[-73.97692749188353,40.70279782040037],[-73.97596096344837,40.70471550644052],[-73.97623864768488,40.70477564419068],[-73.97713562625398,40.703005581402515],[-73.97751215494965,40.70319675266345],[-73.97721196339242,40.70421392662423],[-73.9777296269704,40.70424156179009],[-73.9777296269704,40.71070460983203],[-73.9764287251453,40.71190903250366],[-73.97443551856578,40.71624683837035],[-73.97326155317317,40.71960448348709],[-73.9717675541022,40.72583330345461],[-73.9714571612231,40.729169407557954],[-73.9734132173086,40.731282416428655],[-73.97386810776209,40.7330656871956],[-73.9736762757606,40.73320593388803],[-73.97443700958621,40.73531635612929],[-73.97354472883963,40.73494432610145],[-73.97329895046141,40.73524235507709],[-73.97294520758683,40.7350651700711],[-73.97276308380354,40.73550508747355],[-73.97305698712049,40.73517745341554],[-73.974514597726,40.73589459841122],[-73.97414062018373,40.7359556571673],[-73.97446647047288,40.736278456829886],[-73.97402692104306,40.73612576724549],[-73.97441385816533,40.73641439385896],[-73.97248994174741,40.73580328010761],[-73.9726574380304,40.739222754276966],[-73.97188888913047,40.7427248203555],[-73.97108533439575,40.74366405834517],[-73.9713575294187,40.743838455359445],[-73.97117346687062,40.74410753551064],[-73.97070317531666,40.743990495411325],[-73.97112503018552,40.744189748947605],[-73.97094062960421,40.74447144402538],[-73.95918103219995,40.75785611105222],[-73.95441826078607,40.762184104951054],[-73.94866416477885,40.76885762439943],[-73.94293043781398,40.77467626803581],[-73.94200266722275,40.776185317382705],[-73.94289340818794,40.778614093246105],[-73.94253556320854,40.77909095606243],[-73.9427160054509,40.77954416947609],[-73.94300423950469,40.779639495474164],[-73.94321386265226,40.779317588659985],[-73.94387075988709,40.781273026571576],[-73.94323985739753,40.78332785169434],[-73.93982619696463,40.785256552415454],[-73.93811570089728,40.78718476275637],[-73.93714965461106,40.789168449059446],[-73.93612689279688,40.788926867985396],[-73.93708104382303,40.789366395709955],[-73.93583106788908,40.79109470487022],[-73.93019664392845,40.7945932248548],[-73.92927936741172,40.79585313952059],[-73.92903640179627,40.79676259410125],[-73.9290349024031,40.80108090385186],[-73.93030876458724,40.80378601587066],[-73.93356119311483,40.80760067738665],[-73.9343386458474,40.80956221383135],[-73.93386510261904,40.814153157955616],[-73.93383009163676,40.81971974342963],[-73.93515659173336,40.83268240673982],[-73.93491533578651,40.83523082193879],[-73.92971850477538,40.84523177826375],[-73.9215189405909,40.856601170623186],[-73.9223445937413,40.85568233581485],[-73.92237695742355,40.85658356962484],[-73.92151967268636,40.85734890638003],[-73.92075532130512,40.85755715914571],[-73.92101432159714,40.85783880318054],[-73.92070610816094,40.85770101410192],[-73.9203647724977,40.85816493709913],[-73.92093869016952,40.85812067446148],[-73.92125580136798,40.85884655352702],[-73.92186633783653,40.85918134014977],[-73.9215901484823,40.86007280002688],[-73.92127091296315,40.8601880428167],[-73.92047868273166,40.85910409209883],[-73.9194385354145,40.85885542134399],[-73.91729467741683,40.86167941823063],[-73.91538673051143,40.86308438420069],[-73.91519574800095,40.863945224735865],[-73.91589911645862,40.86430803758249],[-73.91508583854335,40.864448143417285],[-73.91441113392618,40.864173627375536],[-73.9149238792787,40.86458037891912],[-73.91391863133242,40.86474558440359],[-73.91254775130282,40.866514943004304],[-73.91273173919521,40.866605212711306],[-73.91107553160977,40.86904322624032],[-73.91147448899113,40.86945475763833],[-73.91092491224235,40.86943659135412],[-73.91042644048508,40.871485438062045],[-73.91117450708147,40.87298469583897],[-73.91250176411442,40.87372832966796],[-73.91568463084472,40.874527618105084],[-73.91787144917507,40.873904995288655],[-73.91757729884732,40.8745486785472],[-73.91859729866317,40.873495497325095],[-73.918499956622,40.87319171560384],[-73.91929467786812,40.87364989035391],[-73.91886187407479,40.874642585790376],[-73.9208755919967,40.87546395002323],[-73.92118186508978,40.87513784085064],[-73.92080255630358,40.87419405886667],[-73.91979301672357,40.8736065126604],[-73.92055602106613,40.8729987739631],[-73.92125541079864,40.87308244882503],[-73.92217677288461,40.87367506500938],[-73.92261383040437,40.87440727210196],[-73.92239768169318,40.876780223141196],[-73.92329476733927,40.87726443545978],[-73.92457036990588,40.877428912671306],[-73.92619292267656,40.877064419414374],[-73.9264818571844,40.87761820301787],[-73.92901345809737,40.87573866059269],[-73.93106254199601,40.8726668065287],[-73.93191377136812,40.871129493722734],[-73.93205908286347,40.8695828168867],[-73.93235934466004,40.86950736321936],[-73.93235370807278,40.86975525529659],[-73.9324688306991,40.86947609938698],[-73.9321890382608,40.86936697638908],[-73.9325679516988,40.86904439147383],[-73.9322503175495,40.86863950937264],[-73.93265083512809,40.868465033481876],[-73.93226769826256,40.86856231897239],[-73.93242538215341,40.86756824842365],[-73.93283958205063,40.86741527691139],[-73.93266332721464,40.867237066436985],[-73.93401664426699,40.86503554829161],[-73.94029347497121,40.856641770657596],[-73.94186996426674,40.8538677394428],[-73.94347978545628,40.8522818829471],[-73.94466721178105,40.85192122650932],[-73.94627501496666,40.850840977675546],[-73.9465022945768,40.85097566609897],[-73.94696441759596,40.85046552581819],[-73.94663550012672,40.848912425059694],[-73.94682445342646,40.84713426206979],[-73.94635078049937,40.84624033128926],[-73.94612416421774,40.84389249655712],[-73.94842860791513,40.83986085465321],[-73.95015520996611,40.83439675981582],[-73.95131641119002,40.832450511970634],[-73.95503912978397,40.82741343191186],[-73.95631784510313,40.82794421538855],[-73.9569486642047,40.82700055393499],[-73.95725896977147,40.827117309873074],[-73.95955575493865,40.823693797768776],[-73.95814312769204,40.82302072227142],[-73.95793904909124,40.82277435354728],[-73.95820019354015,40.822283136918095],[-73.95852731524259,40.82184375665214],[-73.95892614718304,40.82271175544134],[-73.95960332460281,40.82299468678331],[-73.95990999444399,40.82257111982199],[-73.95900018289895,40.822409728374346],[-73.95881892233999,40.82151852484675],[-73.95908960240091,40.821206247055926],[-73.95914685715194,40.82157132855095],[-73.9594262434965,40.82125238173795],[-73.9591306158063,40.82116895377475],[-73.95981462674527,40.820297875203956],[-73.964140828883,40.81577165745391],[-73.96855747771201,40.80907289432357],[-73.97205095521869,40.804530376010035],[-73.98461942858411,40.78658601634983],[-73.98594956155658,40.786487113966515],[-73.98465507883024,40.786534741807955],[-73.98501696406498,40.78601423719564],[-73.98576566029753,40.78619627485863],[-73.98508113773207,40.78592193511045],[-73.98542932126944,40.78541394218463],[-73.9861284224859,40.786239001331126],[-73.98711901394257,40.7852103190041],[-73.98617270496545,40.78606845225869],[-73.98546581197027,40.785360700575445],[-73.98807644914507,40.781650935001636],[-73.98888614411698,40.77987889853272],[-73.99155105922742,40.77957482143734],[-73.98886861740004,40.779692922911416],[-73.99039616003652,40.777585065679055],[-73.9909271741497,40.777566878762975],[-73.99238604296029,40.775557180424634],[-73.99205908493715,40.77549759819226],[-73.99226708903541,40.77511603385855],[-73.99393587681122,40.77317951258611],[-73.9961794599738,40.77398695435151],[-73.99624065189882,40.77378979139767],[-73.99383108203094,40.772931787850645],[-73.99416328456302,40.77248719152385],[-73.99668544431168,40.77350368804625],[-73.99614329133082,40.77324754156347],[-73.99644894667635,40.773056841996734],[-73.99444501293385,40.7723771265883],[-73.99477407930824,40.77192954753019],[-73.9969094690279,40.77283294565995],[-73.99711218538609,40.77255323669952],[-73.99493501659008,40.77146814657798],[-73.99530566365358,40.771196004909505],[-73.99589990100938,40.771450298582096],[-73.99542474436305,40.77103161516795],[-73.99631327022088,40.76979883633641],[-73.99876206914317,40.7708250567092],[-73.99902682832905,40.77046327298206],[-73.99657126439578,40.76942456827382],[-73.99689311312372,40.76897962881943],[-73.99754875564477,40.7689376],[-73.99951552161615,40.7697675658378],[-73.99972819190101,40.76947350663368],[-73.99845301726928,40.7689376],[-74.0492459,40.7689376],[-74.0492459,40.758670675],[-74.049807,40.759537],[-74.051955,40.760707],[-74.0568815,40.7689376],[-74.058512,40.766708],[-74.05998,40.765723],[-74.0596406,40.7639011],[-74.060193,40.762493],[-74.061602,40.7623172],[-74.063806,40.763644],[-74.064793,40.763769],[-74.066669,40.762574],[-74.0723462,40.75993],[-74.072763,40.758817],[-74.074802,40.758122],[-74.075201,40.757113],[-74.0748749,40.755637],[-74.07659,40.754787],[-74.075404,40.753226],[-74.075385,40.75262],[-74.077472,40.752014],[-74.078686,40.750601],[-74.0763949,40.7497222],[-74.0747546,40.7476518],[-74.0752148,40.7455592],[-74.0762621,40.7438338],[-74.0803198,40.7412406],[-74.0910662,40.7378859],[-74.0929214,40.7365485],[-74.0963996,40.733033],[-74.0998291,40.7234459],[-74.1015535,40.7206305],[-74.1046157,40.7182491],[-74.1166865,40.7105965]]]}}]}