{"type":"FeatureCollection","features":[{"type":"Feature","properties":{"name":"grey"},"geometry":{"type":"Polygon","coordinates":[[[-75.8,39.6],[-71.4,39.6],[-71.4,42.2],[-75.8,42.2],[-75.8,39.6]],[[-74.1166865,40.7105965],[-74.02569093920555,40.65131954691692],[-74.00024683907259,40.584263762833636],[-73.98194794042386,40.57123700215749],[-73.94073681665428,40.541820087155216],[-73.88243780514937,40.560790950968446],[-73.75136600562928,40.59157445822418],[-73.73848743971779,40.59435226349083],[-73.73846229498807,40.597463401951494],[-73.74482045163963,40.63719686108063],[-73.7478478427397,40.64373505692549],[-73.81278138104244,40.64450580732235],[-73.82923845041698,40.65700718833912],[-73.85853208671442,40.7620217613326],[-73.84860729245337,40.76970346891756],[-73.75428527983935,40.76638560683272],[-73.74589061547655,40.75779166231073],[-73.71365557013415,40.75993557088915],[-73.76533243995293,40.855043595124876],[-73.76668965841931,40.867097781624544],[-73.77080975398201,40.87154994684791],[-73.77409538292133,40.87489618448014],[-73.7858219050261,40.880755096100096],[-73.85257767317117,40.90720019121027],[-73.91128143106678,40.9139439108104],[-73.93865306164702,40.85876881362195],[-73.95908960240091,40.821206247055926],[-74.071956,40.760138],[-74.1166865,40.7105965]]]}}]}