{"type": "FeatureCollection", "features": [{"type": "Feature", "properties": {"name": "City Terminal Zone", "color": "#4D5357"}, "geometry": {"type": "LineString", "coordinates": [[-73.977365, 40.684751], [-73.976867, 40.684354], [-73.976331, 40.683988], [-73.975733, 40.683683], [-73.975068, 40.683478], [-73.974368, 40.683349], [-73.973665, 40.683224], [-73.972963, 40.683101], [-73.972263, 40.682969], [-73.971578, 40.682799], [-73.970896, 40.682619], [-73.970215, 40.68244], [-73.969533, 40.682261], [-73.968852, 40.682081], [-73.968167, 40.68191], [-73.967473, 40.681762], [-73.966778, 40.681616], [-73.966082, 40.681472], [-73.965386, 40.681329], [-73.96469, 40.681184], [-73.963995, 40.681038], [-73.963299, 40.680893], [-73.962604, 40.680748], [-73.961909, 40.680602], [-73.961213, 40.680457], [-73.960518, 40.680312], [-73.959823, 40.680166], [-73.959127, 40.680021], [-73.958432, 40.679876], [-73.957737, 40.67973], [-73.957041, 40.679585], [-73.956346, 40.67944], [-73.955651, 40.679294], [-73.954955, 40.679149], [-73.95426, 40.679004], [-73.953565, 40.678858], [-73.952869, 40.678714], [-73.952161, 40.678616], [-73.951442, 40.678574], [-73.950723, 40.678535], [-73.950004, 40.678496], [-73.949285, 40.678457], [-73.948565, 40.678417], [-73.947846, 40.678378], [-73.947127, 40.678343], [-73.946407, 40.67831], [-73.945688, 40.678271], [-73.944968, 40.678231], [-73.944249, 40.678191], [-73.94353, 40.678153], [-73.942811, 40.678113], [-73.942092, 40.678074], [-73.941372, 40.678035], [-73.940653, 40.677995], [-73.939934, 40.677957], [-73.939215, 40.677916], [-73.938496, 40.677877], [-73.937776, 40.677838], [-73.937057, 40.677799], [-73.936338, 40.67776], [-73.935619, 40.677719], [-73.9349, 40.67768], [-73.93418, 40.677642], [-73.933461, 40.677603], [-73.932742, 40.677564], [-73.932023, 40.677525], [-73.931304, 40.677486], [-73.930584, 40.677446], [-73.929865, 40.677406], [-73.929146, 40.677367], [-73.928427, 40.677327], [-73.927708, 40.677288], [-73.926988, 40.67725], [-73.926269, 40.677211], [-73.92555, 40.677172], [-73.924831, 40.677132], [-73.924112, 40.677093], [-73.923392, 40.677053], [-73.922674, 40.67701], [-73.921955, 40.676968], [-73.921236, 40.676927], [-73.920517, 40.676887], [-73.919798, 40.676845], [-73.919079, 40.676803], [-73.918359, 40.676764], [-73.91764, 40.676725], [-73.916921, 40.676686], [-73.916202, 40.676646], [-73.915483, 40.676607], [-73.914764, 40.676568], [-73.914044, 40.676529], [-73.913325, 40.67649], [-73.912606, 40.676451], [-73.911887, 40.676412], [-73.911167, 40.676373], [-73.910448, 40.676337], [-73.909729, 40.676299], [-73.909009, 40.676264], [-73.90829, 40.676222], [-73.907571, 40.67618], [-73.906852, 40.676138], [-73.906133, 40.6761], [-73.905414, 40.676062], [-73.904695, 40.67602], [-73.903978, 40.675964], [-73.903265, 40.675882], [-73.902553, 40.675794], [-73.901842, 40.675704], [-73.901127, 40.675636], [-73.900407, 40.675622], [-73.899686, 40.675632], [-73.898966, 40.67566], [-73.898246, 40.675688], [-73.897526, 40.675717], [-73.896808, 40.675762], [-73.896092, 40.675827], [-73.895375, 40.675887], [-73.894661, 40.675962], [-73.893949, 40.67605], [-73.893242, 40.676154], [-73.892536, 40.676267], [-73.89183, 40.676381], [-73.891125, 40.676494], [-73.890423, 40.676617], [-73.889728, 40.676765], [-73.889035, 40.676914], [-73.888341, 40.677064], [-73.887647, 40.677213], [-73.886955, 40.677368], [-73.886275, 40.67755], [-73.885597, 40.677737], [-73.884919, 40.677924], [-73.884241, 40.67811], [-73.883563, 40.678297], [-73.882886, 40.678486], [-73.882211, 40.678678], [-73.881535, 40.67887], [-73.88086, 40.679063], [-73.880185, 40.679255], [-73.879509, 40.679447], [-73.878834, 40.67964], [-73.878158, 40.679832], [-73.877483, 40.680024], [-73.876808, 40.680216], [-73.876132, 40.680408], [-73.875457, 40.680601], [-73.874781, 40.680793], [-73.874106, 40.680985], [-73.87343, 40.681177], [-73.872755, 40.681369], [-73.872079, 40.681561], [-73.871404, 40.681753], [-73.870728, 40.681946], [-73.870053, 40.682138], [-73.869377, 40.68233], [-73.868702, 40.682522], [-73.868026, 40.682714], [-73.867351, 40.682907], [-73.866676, 40.683099], [-73.866, 40.683291], [-73.865325, 40.683483], [-73.864649, 40.683675], [-73.863974, 40.683868], [-73.863298, 40.684059], [-73.862622, 40.684251], [-73.861946, 40.684442], [-73.86127, 40.684634], [-73.860595, 40.684825], [-73.859919, 40.685017], [-73.859243, 40.685209], [-73.858568, 40.685402], [-73.857893, 40.685595], [-73.857218, 40.685788], [-73.856543, 40.685981], [-73.855868, 40.686173], [-73.855192, 40.686366], [-73.854517, 40.686559], [-73.853842, 40.686752], [-73.853167, 40.686945], [-73.852492, 40.687138], [-73.851817, 40.687331], [-73.851141, 40.687523], [-73.850466, 40.687716], [-73.849791, 40.687909], [-73.849116, 40.688102], [-73.848441, 40.688295], [-73.847765, 40.688488], [-73.84709, 40.68868], [-73.846415, 40.688873], [-73.84574, 40.689066], [-73.845064, 40.689259], [-73.844389, 40.689452], [-73.843714, 40.689645], [-73.843039, 40.689837], [-73.842364, 40.69003], [-73.841688, 40.690223], [-73.841013, 40.690416], [-73.840338, 40.69061], [-73.839664, 40.690804], [-73.83899, 40.690999], [-73.838315, 40.691193], [-73.837641, 40.691388], [-73.836965, 40.69158], [-73.836288, 40.69177], [-73.835612, 40.691959], [-73.834935, 40.692148], [-73.834258, 40.692338], [-73.833581, 40.692527], [-73.832904, 40.692716], [-73.832227, 40.692906], [-73.83155, 40.693096], [-73.830874, 40.693287], [-73.830198, 40.693478], [-73.829522, 40.693669], [-73.828846, 40.69386], [-73.82817, 40.694052], [-73.827494, 40.694243], [-73.826818, 40.694434], [-73.826142, 40.694625], [-73.825465, 40.694816], [-73.82479, 40.695008], [-73.824113, 40.695199], [-73.823437, 40.69539], [-73.822761, 40.695582], [-73.822085, 40.695773], [-73.82141, 40.695965], [-73.820734, 40.696157], [-73.820058, 40.696348], [-73.819383, 40.696541], [-73.818707, 40.696733], [-73.818031, 40.696925], [-73.817356, 40.697117], [-73.816683, 40.697316], [-73.816021, 40.697532], [-73.815366, 40.697763], [-73.814717, 40.698002], [-73.814067, 40.698241], [-73.813407, 40.698462], [-73.812726, 40.698639], [-73.812029, 40.698782], [-73.811332, 40.698921], [-73.810645, 40.699089], [-73.809967, 40.699276], [-73.80929, 40.699465], [-73.808758, 40.699614]]}}, {"type": "Feature", "properties": {"name": "City Terminal Zone", "color": "#4D5357"}, "geometry": {"type": "LineString", "coordinates": [[-73.993087, 40.750743], [-73.992446, 40.750492], [-73.991804, 40.750241], [-73.991162, 40.749989], [-73.99049, 40.749812], [-73.989791, 40.749681], [-73.989142, 40.749449], [-73.988509, 40.749184], [-73.987877, 40.74892], [-73.987244, 40.748656], [-73.986611, 40.748391], [-73.985979, 40.748127], [-73.985346, 40.747863], [-73.984714, 40.747598], [-73.984081, 40.747334], [-73.983448, 40.74707], [-73.982816, 40.746805], [-73.982183, 40.746541], [-73.981551, 40.746276], [-73.980918, 40.746012], [-73.980286, 40.745748], [-73.979653, 40.745483], [-73.97902, 40.745219], [-73.978388, 40.744955], [-73.977752, 40.744695], [-73.977115, 40.744436], [-73.976479, 40.744178], [-73.975839, 40.743924], [-73.975174, 40.743712], [-73.974499, 40.743519], [-73.973807, 40.743364], [-73.97311, 40.743223], [-73.972398, 40.743134], [-73.971684, 40.743052], [-73.970971, 40.742971], [-73.970257, 40.74289], [-73.969543, 40.742809], [-73.968829, 40.742728], [-73.968115, 40.742647], [-73.967401, 40.742566], [-73.966688, 40.742485], [-73.965974, 40.742404], [-73.96526, 40.742323], [-73.964546, 40.742242], [-73.963832, 40.742161], [-73.963118, 40.74208], [-73.962405, 40.741999], [-73.961691, 40.741917], [-73.960977, 40.741836], [-73.960263, 40.741755], [-73.959549, 40.741676], [-73.958834, 40.741599], [-73.95812, 40.741522], [-73.957405, 40.741447], [-73.956688, 40.741382], [-73.955973, 40.741311], [-73.955258, 40.741236], [-73.954539, 40.741198], [-73.953817, 40.741206], [-73.953097, 40.741234], [-73.952379, 40.741283], [-73.951666, 40.74137], [-73.950961, 40.741485], [-73.950263, 40.741623], [-73.949582, 40.741804], [-73.948906, 40.741996], [-73.948243, 40.742212], [-73.947587, 40.742441], [-73.946932, 40.74267], [-73.946276, 40.7429], [-73.945627, 40.74314], [-73.944992, 40.743401], [-73.944358, 40.743663], [-73.943724, 40.743925], [-73.94309, 40.744187], [-73.942456, 40.744449], [-73.941824, 40.744715], [-73.941194, 40.744982], [-73.940563, 40.745249], [-73.939933, 40.745517], [-73.939299, 40.745779], [-73.938651, 40.746021], [-73.938001, 40.746259], [-73.937339, 40.746479], [-73.936666, 40.746676], [-73.935982, 40.74685], [-73.935295, 40.747018], [-73.934599, 40.747164], [-73.933901, 40.747304], [-73.933203, 40.747445], [-73.932506, 40.747585], [-73.931806, 40.74772], [-73.931104, 40.747848], [-73.930402, 40.747976], [-73.9297, 40.748104], [-73.928998, 40.748232], [-73.928298, 40.748363], [-73.927597, 40.748495], [-73.926896, 40.748626], [-73.926195, 40.748758], [-73.925495, 40.748892], [-73.924794, 40.749023], [-73.924094, 40.749156], [-73.923393, 40.749289], [-73.922693, 40.749421], [-73.921992, 40.749553], [-73.921292, 40.749685], [-73.920591, 40.749818], [-73.919891, 40.74995], [-73.919189, 40.750079], [-73.918486, 40.750205], [-73.917784, 40.750331], [-73.917082, 40.750459], [-73.91638, 40.750586], [-73.915677, 40.750712], [-73.914975, 40.750838], [-73.91427, 40.750956], [-73.913559, 40.751049], [-73.91284, 40.751096], [-73.912119, 40.751085], [-73.911405, 40.751011], [-73.91071, 40.750866], [-73.910039, 40.750666], [-73.909384, 40.750436], [-73.908746, 40.750179], [-73.908128, 40.749895], [-73.907529, 40.749589], [-73.906952, 40.74926], [-73.906398, 40.748909], [-73.905869, 40.748535], [-73.905367, 40.748141], [-73.904887, 40.747731], [-73.904414, 40.747316], [-73.903944, 40.7469], [-73.903473, 40.746484], [-73.903005, 40.746066], [-73.902548, 40.745641], [-73.902096, 40.745213], [-73.901652, 40.74478], [-73.901203, 40.74435], [-73.900747, 40.743925], [-73.900289, 40.743501], [-73.89983, 40.743077], [-73.899371, 40.742654], [-73.898911, 40.74223], [-73.898452, 40.741807], [-73.897992, 40.741384], [-73.897532, 40.740961], [-73.897072, 40.740538], [-73.89662, 40.74011], [-73.89618, 40.739676], [-73.895684, 40.739278], [-73.895166, 40.738896], [-73.894611, 40.738546], [-73.894021, 40.73823], [-73.893412, 40.737936], [-73.892786, 40.737663], [-73.892156, 40.737396], [-73.891525, 40.737129], [-73.890894, 40.736863], [-73.890263, 40.736596], [-73.889633, 40.736329], [-73.889002, 40.736062], [-73.888371, 40.735795], [-73.887741, 40.735528], [-73.88711, 40.735261], [-73.88648, 40.734993], [-73.88585, 40.734726], [-73.885219, 40.73446], [-73.884586, 40.734196], [-73.883947, 40.733941], [-73.883303, 40.733693], [-73.882656, 40.733451], [-73.882006, 40.733212], [-73.881356, 40.732974], [-73.880705, 40.732736], [-73.880055, 40.732498], [-73.879405, 40.73226], [-73.878754, 40.732022], [-73.878104, 40.731784], [-73.877453, 40.731546], [-73.876803, 40.731309], [-73.876152, 40.731071], [-73.875502, 40.730833], [-73.874852, 40.730595], [-73.874202, 40.730357], [-73.873551, 40.730119], [-73.872901, 40.729881], [-73.872251, 40.729643], [-73.871601, 40.729405], [-73.870951, 40.729166], [-73.870301, 40.728928], [-73.869651, 40.72869], [-73.869001, 40.728451], [-73.868351, 40.728213], [-73.8677, 40.727975], [-73.86705, 40.727737], [-73.8664, 40.727499], [-73.865749, 40.727261], [-73.865099, 40.727024], [-73.864448, 40.726786], [-73.863799, 40.726548], [-73.863149, 40.726309], [-73.862498, 40.726071], [-73.861848, 40.725833], [-73.861198, 40.725595], [-73.860548, 40.725357], [-73.859898, 40.725118], [-73.859248, 40.72488], [-73.858598, 40.724642], [-73.857948, 40.724403], [-73.857298, 40.724165], [-73.856647, 40.723928], [-73.855997, 40.72369], [-73.855347, 40.723451], [-73.854697, 40.723213], [-73.854047, 40.722975], [-73.853397, 40.722737], [-73.852747, 40.722499], [-73.852096, 40.722261], [-73.851446, 40.722023], [-73.850796, 40.721785], [-73.850146, 40.721546], [-73.849496, 40.721308], [-73.848846, 40.721069], [-73.848197, 40.720831], [-73.847546, 40.720593], [-73.846896, 40.720355], [-73.846246, 40.720117], [-73.845596, 40.719879], [-73.844946, 40.71964], [-73.844297, 40.719401], [-73.843649, 40.719159], [-73.843009, 40.718906], [-73.84238, 40.718637], [-73.841765, 40.71835], [-73.841162, 40.718049], [-73.840575, 40.71773], [-73.840002, 40.717397], [-73.839446, 40.717047], [-73.838905, 40.716684], [-73.838382, 40.716306], [-73.837878, 40.715913], [-73.83739, 40.715509], [-73.836916, 40.715095], [-73.836451, 40.714675], [-73.835984, 40.714257], [-73.835518, 40.713838], [-73.835052, 40.713419], [-73.834586, 40.713], [-73.83412, 40.712581], [-73.833654, 40.712161], [-73.833188, 40.711742], [-73.832722, 40.711323], [-73.832257, 40.710904], [-73.831791, 40.710484], [-73.831326, 40.710065], [-73.830861, 40.709646], [-73.830395, 40.709226], [-73.829929, 40.708807], [-73.829464, 40.708388], [-73.828998, 40.707969], [-73.828532, 40.707549], [-73.828067, 40.70713], [-73.827602, 40.70671], [-73.827136, 40.706291], [-73.82667, 40.705872], [-73.826204, 40.705453], [-73.825739, 40.705034], [-73.825273, 40.704614], [-73.824808, 40.704195], [-73.824343, 40.703775], [-73.823878, 40.703355], [-73.823412, 40.702936], [-73.822945, 40.702518], [-73.822482, 40.702097], [-73.822016, 40.701678], [-73.821543, 40.701264], [-73.821055, 40.700859], [-73.820549, 40.700468], [-73.820025, 40.700091], [-73.819475, 40.699736], [-73.818895, 40.69941], [-73.818286, 40.699117], [-73.817651, 40.698857], [-73.81699, 40.69864], [-73.816301, 40.698478], [-73.815591, 40.698388], [-73.814871, 40.698372], [-73.814154, 40.698424], [-73.813452, 40.698545], [-73.812754, 40.698686], [-73.812057, 40.698826], [-73.811367, 40.698985], [-73.810687, 40.699168], [-73.81001, 40.699358], [-73.809334, 40.699547]]}}, {"type": "Feature", "properties": {"name": "Port Washington", "color": "#C60C30"}, "geometry": {"type": "LineString", "coordinates": [[-73.687612, 40.829928], [-73.68749, 40.829494], [-73.687339, 40.828957], [-73.687191, 40.82842], [-73.68708, 40.827878], [-73.686979, 40.827335], [-73.686832, 40.826798], [-73.686679, 40.826261], [-73.686529, 40.825724], [-73.68638, 40.825187], [-73.686246, 40.824648], [-73.686183, 40.824102], [-73.68622, 40.823555], [-73.686346, 40.823015], [-73.686524, 40.822483], [-73.686702, 40.821951], [-73.686835, 40.821412], [-73.686899, 40.820866], [-73.68691, 40.820317], [-73.686907, 40.819768], [-73.686904, 40.819219], [-73.6869, 40.81867], [-73.686919, 40.818122], [-73.687028, 40.817581], [-73.687279, 40.817069], [-73.687667, 40.816608], [-73.688171, 40.816218], [-73.688766, 40.81591], [-73.689406, 40.815655], [-73.690054, 40.815413], [-73.690702, 40.81517], [-73.69135, 40.814927], [-73.691997, 40.814682], [-73.692629, 40.814417], [-73.693214, 40.814096], [-73.693736, 40.813718], [-73.694186, 40.81329], [-73.694549, 40.812817], [-73.694822, 40.812309], [-73.695007, 40.81178], [-73.695117, 40.811237], [-73.695214, 40.810693], [-73.695309, 40.810149], [-73.695402, 40.809605], [-73.695498, 40.809061], [-73.695594, 40.808517], [-73.695688, 40.807972], [-73.69578, 40.807428], [-73.695858, 40.806882], [-73.695882, 40.806334], [-73.695833, 40.805787], [-73.695714, 40.805246], [-73.695564, 40.804709], [-73.695408, 40.804173], [-73.695251, 40.803637], [-73.695095, 40.803101], [-73.694943, 40.802565], [-73.694825, 40.802024], [-73.694793, 40.801476], [-73.694855, 40.80093], [-73.695023, 40.800397], [-73.695288, 40.799888], [-73.695643, 40.799411], [-73.696086, 40.798979], [-73.696602, 40.798596], [-73.697166, 40.798253], [-73.697746, 40.797926], [-73.698327, 40.797599], [-73.698908, 40.797273], [-73.699488, 40.796946], [-73.700068, 40.796619], [-73.700648, 40.796292], [-73.701229, 40.795965], [-73.701809, 40.795638], [-73.702391, 40.795313], [-73.702982, 40.794998], [-73.703589, 40.7947], [-73.704208, 40.794418], [-73.704841, 40.794153], [-73.705485, 40.793905], [-73.70614, 40.793674], [-73.706805, 40.79346], [-73.707477, 40.793258], [-73.70815, 40.79306], [-73.708824, 40.792862], [-73.709498, 40.792663], [-73.710171, 40.792465], [-73.710845, 40.792267], [-73.71152, 40.792073], [-73.712202, 40.791891], [-73.712886, 40.791716], [-73.713571, 40.791541], [-73.714255, 40.791366], [-73.71494, 40.79119], [-73.715622, 40.791009], [-73.716294, 40.79081], [-73.716949, 40.790579], [-73.71758, 40.790312], [-73.718199, 40.790029], [-73.718816, 40.789744], [-73.719435, 40.789462], [-73.720059, 40.789185], [-73.72069, 40.788917], [-73.721327, 40.788659], [-73.721973, 40.788413], [-73.722629, 40.788184], [-73.723295, 40.787972], [-73.723971, 40.787778], [-73.724654, 40.787601], [-73.725341, 40.787431], [-73.726028, 40.787261], [-73.726707, 40.787074], [-73.727372, 40.786862], [-73.728025, 40.786628], [-73.728651, 40.786354], [-73.72924, 40.786038], [-73.72978, 40.785675], [-73.730269, 40.785271], [-73.730697, 40.78483], [-73.731074, 40.784362], [-73.731431, 40.783884], [-73.731785, 40.783406], [-73.73214, 40.782928], [-73.732495, 40.78245], [-73.73285, 40.781972], [-73.733205, 40.781494], [-73.733564, 40.781018], [-73.733948, 40.780553], [-73.734373, 40.780109], [-73.734839, 40.77969], [-73.735331, 40.779289], [-73.73583, 40.778892], [-73.736329, 40.778495], [-73.736827, 40.778098], [-73.737326, 40.777701], [-73.737825, 40.777304], [-73.738323, 40.776907], [-73.738822, 40.77651], [-73.739321, 40.776113], [-73.73982, 40.775716], [-73.740319, 40.775319], [-73.740817, 40.774922], [-73.741316, 40.774525], [-73.741815, 40.774128], [-73.742314, 40.773732], [-73.742812, 40.773334], [-73.743311, 40.772937], [-73.74381, 40.77254], [-73.74431, 40.772144], [-73.744809, 40.771747], [-73.745307, 40.77135], [-73.745805, 40.770953], [-73.746303, 40.770555], [-73.746802, 40.770158], [-73.747301, 40.769761], [-73.747799, 40.769364], [-73.748298, 40.768968], [-73.748797, 40.76857], [-73.749296, 40.768173], [-73.749796, 40.767778], [-73.750296, 40.767381], [-73.750798, 40.766987], [-73.751322, 40.76661], [-73.751879, 40.766261], [-73.752465, 40.76594], [-73.753074, 40.765646], [-73.753694, 40.765364], [-73.754322, 40.765095], [-73.754982, 40.764873], [-73.755673, 40.764718], [-73.756384, 40.764624], [-73.757099, 40.764552], [-73.757815, 40.764481], [-73.758531, 40.764411], [-73.759248, 40.764341], [-73.759964, 40.76427], [-73.76068, 40.7642], [-73.761396, 40.76413], [-73.762112, 40.764061], [-73.762828, 40.76399], [-73.763544, 40.763919], [-73.76426, 40.763849], [-73.764976, 40.76378], [-73.765692, 40.76371], [-73.766408, 40.76364], [-73.767124, 40.763569], [-73.76784, 40.763498], [-73.768556, 40.763428], [-73.769272, 40.763356], [-73.769988, 40.763286], [-73.770704, 40.763216], [-73.77142, 40.763145], [-73.772136, 40.763074], [-73.772852, 40.763004], [-73.773568, 40.762934], [-73.774284, 40.762864], [-73.775, 40.762793], [-73.775716, 40.762722], [-73.776432, 40.762652], [-73.777148, 40.762582], [-73.777864, 40.762511], [-73.77858, 40.762441], [-73.779296, 40.76237], [-73.780012, 40.762299], [-73.780728, 40.76223], [-73.781445, 40.762166], [-73.782163, 40.762109], [-73.782881, 40.762052], [-73.783599, 40.761994], [-73.784317, 40.761937], [-73.785035, 40.761878], [-73.785753, 40.76182], [-73.786471, 40.761762], [-73.787189, 40.761705], [-73.787907, 40.761648], [-73.788625, 40.761588], [-73.789342, 40.761529], [-73.790061, 40.761474], [-73.790779, 40.761416], [-73.791497, 40.761358], [-73.792214, 40.7613], [-73.792932, 40.761241], [-73.793651, 40.761188], [-73.79437, 40.761147], [-73.795092, 40.761138], [-73.795812, 40.76117], [-73.796531, 40.761221], [-73.797249, 40.761281], [-73.797966, 40.761342], [-73.798684, 40.761403], [-73.799401, 40.761464], [-73.800119, 40.761525], [-73.800836, 40.761585], [-73.801554, 40.761646], [-73.802271, 40.76171], [-73.802988, 40.761775], [-73.803704, 40.761842], [-73.804421, 40.761908], [-73.805138, 40.761974], [-73.805854, 40.762041], [-73.806571, 40.762107], [-73.807288, 40.762174], [-73.808004, 40.762241], [-73.808721, 40.762307], [-73.809437, 40.762373], [-73.810154, 40.762441], [-73.810869, 40.762516], [-73.811583, 40.762596], [-73.812299, 40.762669], [-73.813016, 40.762731], [-73.813737, 40.762759], [-73.814458, 40.762759], [-73.815178, 40.762716], [-73.81589, 40.76263], [-73.81659, 40.762497], [-73.817276, 40.762326], [-73.817956, 40.762143], [-73.818637, 40.761961], [-73.819319, 40.761779], [-73.82, 40.761598], [-73.82068, 40.761414], [-73.821357, 40.761223], [-73.82203, 40.761025], [-73.822701, 40.760821], [-73.823372, 40.760618], [-73.824044, 40.760418], [-73.82472, 40.760225], [-73.825402, 40.760045], [-73.826087, 40.759873], [-73.826774, 40.759703], [-73.82746, 40.759534], [-73.828143, 40.759355], [-73.828799, 40.759128], [-73.829416, 40.758844], [-73.830024, 40.758548], [-73.830631, 40.758251], [-73.831242, 40.757959], [-73.831859, 40.757673], [-73.832477, 40.757389], [-73.833095, 40.757106], [-73.833705, 40.756812], [-73.834298, 40.7565], [-73.834872, 40.756167], [-73.835441, 40.755829], [-73.836009, 40.75549], [-73.836588, 40.755163], [-73.837193, 40.754863], [-73.837825, 40.7546], [-73.838476, 40.754361], [-73.839131, 40.754131], [-73.839789, 40.753905], [-73.840453, 40.75369], [-73.841122, 40.753485], [-73.841791, 40.753279], [-73.842452, 40.753058], [-73.843108, 40.752829], [-73.843764, 40.752599], [-73.844419, 40.752369], [-73.845074, 40.752139], [-73.845727, 40.751905], [-73.84637, 40.751655], [-73.847011, 40.751403], [-73.847655, 40.751155], [-73.848306, 40.750917], [-73.848962, 40.750688], [-73.849617, 40.750458], [-73.850273, 40.750228], [-73.850928, 40.749997], [-73.851585, 40.74977], [-73.852242, 40.749543], [-73.852906, 40.749328], [-73.853577, 40.749125], [-73.854249, 40.748925], [-73.854921, 40.748724], [-73.855593, 40.748524], [-73.856265, 40.748324], [-73.856936, 40.748123], [-73.857608, 40.747921], [-73.85828, 40.747721], [-73.858952, 40.747521], [-73.859624, 40.747321], [-73.860296, 40.747121], [-73.860968, 40.74692], [-73.86164, 40.746719], [-73.862312, 40.746518], [-73.862984, 40.746318], [-73.863655, 40.746117], [-73.864327, 40.745916], [-73.864999, 40.745715], [-73.865668, 40.74551], [-73.866337, 40.745304], [-73.867007, 40.745099], [-73.867679, 40.744898], [-73.868351, 40.744698], [-73.869023, 40.744498], [-73.869694, 40.744297], [-73.870366, 40.744096], [-73.871038, 40.743895], [-73.871709, 40.743694], [-73.872381, 40.743494], [-73.873053, 40.743294], [-73.873726, 40.743093], [-73.874397, 40.742893], [-73.875069, 40.742692], [-73.875741, 40.742491], [-73.876413, 40.742291], [-73.877085, 40.742091], [-73.877757, 40.741891], [-73.878429, 40.74169], [-73.879101, 40.741489], [-73.879772, 40.741289], [-73.880444, 40.741089], [-73.881117, 40.740889], [-73.881789, 40.740689], [-73.88246, 40.740487], [-73.883132, 40.740286], [-73.883803, 40.740085], [-73.884475, 40.739885], [-73.885147, 40.739685], [-73.885819, 40.739484], [-73.886491, 40.739283], [-73.887162, 40.739082], [-73.887834, 40.738881], [-73.888505, 40.738679], [-73.889177, 40.73848], [-73.889849, 40.73828], [-73.890524, 40.738086], [-73.891223, 40.737953], [-73.891941, 40.737913], [-73.892657, 40.737968], [-73.893348, 40.73812], [-73.893995, 40.73836], [-73.894587, 40.738673], [-73.895148, 40.739018], [-73.895684, 40.739385], [-73.896195, 40.739773], [-73.896678, 40.74018], [-73.897141, 40.740602], [-73.897601, 40.741025], [-73.898061, 40.741448], [-73.898521, 40.74187], [-73.89898, 40.742294], [-73.89944, 40.742717], [-73.899899, 40.743141], [-73.900358, 40.743564], [-73.900815, 40.743989], [-73.901272, 40.744414], [-73.901719, 40.744845], [-73.902163, 40.745278], [-73.902617, 40.745705], [-73.903473, 40.746484]]}}, {"type": "Feature", "properties": {"name": "Main Line \u2192 Mineola", "color": "#A626AA"}, "geometry": {"type": "LineString", "coordinates": [[-73.625013, 40.744136], [-73.625073, 40.744122], [-73.625761, 40.743957], [-73.62645, 40.743794], [-73.627139, 40.743629], [-73.627827, 40.743465], [-73.628516, 40.743301], [-73.629205, 40.743136], [-73.629894, 40.742972], [-73.630582, 40.742807], [-73.63127, 40.742642], [-73.631959, 40.742478], [-73.632648, 40.742314], [-73.633337, 40.74215], [-73.634025, 40.741985], [-73.634714, 40.741821], [-73.635402, 40.741656], [-73.636091, 40.741492], [-73.63678, 40.741328], [-73.637468, 40.741164], [-73.638157, 40.741], [-73.638846, 40.740835], [-73.639534, 40.74067], [-73.640223, 40.740506], [-73.640911, 40.740341], [-73.6416, 40.740177], [-73.642289, 40.740013], [-73.642977, 40.739847], [-73.643665, 40.739681], [-73.644351, 40.739512], [-73.645034, 40.739333], [-73.645716, 40.739155], [-73.646401, 40.738982], [-73.647088, 40.738814], [-73.647776, 40.738647], [-73.648463, 40.738479], [-73.64915, 40.738311], [-73.649837, 40.738143], [-73.650524, 40.737974], [-73.65121, 40.737806], [-73.651898, 40.737638], [-73.652586, 40.737473], [-73.653274, 40.737308], [-73.653963, 40.737143], [-73.654651, 40.736979], [-73.65534, 40.736815], [-73.656028, 40.73665], [-73.656717, 40.736486], [-73.657409, 40.73633], [-73.658104, 40.736183], [-73.658801, 40.736039], [-73.659496, 40.735893], [-73.660188, 40.735738], [-73.660877, 40.735574], [-73.661565, 40.735409], [-73.662254, 40.735243], [-73.662942, 40.735078], [-73.66363, 40.734914], [-73.664319, 40.734749], [-73.665007, 40.734584], [-73.665695, 40.734419], [-73.666384, 40.734254], [-73.667072, 40.734089], [-73.66776, 40.733924], [-73.668449, 40.733759], [-73.669137, 40.733594], [-73.669826, 40.733431], [-73.670514, 40.733265], [-73.671203, 40.733101], [-73.67189, 40.732934], [-73.672579, 40.73277], [-73.673267, 40.732606], [-73.673956, 40.732442], [-73.674644, 40.732277], [-73.675332, 40.732111], [-73.676021, 40.731947], [-73.676709, 40.731782], [-73.677398, 40.731617], [-73.678086, 40.731453], [-73.678774, 40.731287], [-73.679462, 40.731122], [-73.680151, 40.730958], [-73.680839, 40.730794], [-73.681528, 40.730629], [-73.682216, 40.730464], [-73.682904, 40.730299], [-73.683593, 40.730135], [-73.684281, 40.72997], [-73.684969, 40.729805], [-73.685658, 40.72964], [-73.686346, 40.729475], [-73.687034, 40.72931], [-73.687722, 40.729145], [-73.688411, 40.72898], [-73.689099, 40.728815], [-73.689788, 40.728651], [-73.690477, 40.728488], [-73.691166, 40.728325], [-73.691855, 40.728162], [-73.692544, 40.728], [-73.693233, 40.727837], [-73.693923, 40.727676], [-73.694612, 40.727514], [-73.695302, 40.727352], [-73.695991, 40.72719], [-73.696681, 40.727028], [-73.69737, 40.726866], [-73.69806, 40.726705], [-73.698749, 40.726542], [-73.699439, 40.72638], [-73.700128, 40.726218], [-73.700817, 40.726054], [-73.701505, 40.72589], [-73.702194, 40.725725], [-73.702882, 40.725561], [-73.70357, 40.725397], [-73.704259, 40.725232], [-73.704947, 40.725068], [-73.705636, 40.724903], [-73.706324, 40.724738], [-73.707012, 40.724573], [-73.7077, 40.724408], [-73.708389, 40.724244], [-73.709077, 40.724079], [-73.709765, 40.723913], [-73.710453, 40.723747], [-73.711141, 40.723582], [-73.711828, 40.723416], [-73.712516, 40.72325], [-73.713204, 40.723084], [-73.713892, 40.722918], [-73.71458, 40.722752], [-73.715268, 40.722587], [-73.715956, 40.722422], [-73.716644, 40.722256], [-73.717332, 40.722091], [-73.71802, 40.721926], [-73.718708, 40.721762], [-73.719397, 40.721598], [-73.720086, 40.721435], [-73.720767, 40.721255], [-73.721452, 40.721082], [-73.72214, 40.720917], [-73.722826, 40.720747], [-73.723512, 40.720577], [-73.724199, 40.72041], [-73.724887, 40.720244], [-73.725575, 40.720078], [-73.726263, 40.719912], [-73.726951, 40.719747], [-73.727639, 40.719582], [-73.728328, 40.719418], [-73.729016, 40.719254], [-73.729705, 40.71909], [-73.730392, 40.718923], [-73.73108, 40.718757], [-73.731768, 40.718593], [-73.732456, 40.718428], [-73.733144, 40.718262], [-73.733832, 40.718097], [-73.734521, 40.717933], [-73.735209, 40.717768], [-73.735896, 40.717602], [-73.736584, 40.717437], [-73.737273, 40.717272], [-73.737961, 40.717107], [-73.738649, 40.716941], [-73.739337, 40.716776], [-73.740025, 40.716611], [-73.740713, 40.716446], [-73.741401, 40.716281], [-73.742089, 40.716116], [-73.742777, 40.71595], [-73.743465, 40.715785], [-73.744153, 40.71562], [-73.744841, 40.715455], [-73.745529, 40.71529], [-73.746217, 40.715125], [-73.746905, 40.71496], [-73.747593, 40.714795], [-73.748281, 40.71463], [-73.74897, 40.714465], [-73.749658, 40.7143], [-73.750346, 40.714135], [-73.751033, 40.713969], [-73.751721, 40.713804], [-73.75241, 40.713639], [-73.753097, 40.713473], [-73.753785, 40.713307], [-73.754473, 40.713142], [-73.755161, 40.712977], [-73.755849, 40.712812], [-73.756537, 40.712646], [-73.757225, 40.712481], [-73.757913, 40.712316], [-73.758601, 40.71215], [-73.759289, 40.711986], [-73.759977, 40.711821], [-73.760665, 40.711655], [-73.761353, 40.711489], [-73.76204, 40.711324], [-73.762729, 40.711159], [-73.763417, 40.710994], [-73.764104, 40.710829], [-73.764792, 40.710663], [-73.76548, 40.710498], [-73.766168, 40.710332], [-73.766856, 40.710167], [-73.767544, 40.710001], [-73.768232, 40.709836], [-73.76892, 40.709671], [-73.769607, 40.709506], [-73.770295, 40.70934], [-73.770983, 40.709175], [-73.771671, 40.709009], [-73.772359, 40.708844], [-73.773047, 40.708679], [-73.773735, 40.708514], [-73.774423, 40.708349], [-73.775111, 40.708183], [-73.775798, 40.708016], [-73.776486, 40.70785], [-73.777173, 40.707684], [-73.777861, 40.707518], [-73.778549, 40.707354], [-73.779237, 40.707188], [-73.779925, 40.707024], [-73.780614, 40.70686], [-73.781302, 40.706697], [-73.781991, 40.706533], [-73.782679, 40.70637], [-73.783368, 40.706206], [-73.784057, 40.706043], [-73.784745, 40.705879], [-73.785434, 40.705715], [-73.786121, 40.70555], [-73.786809, 40.705385], [-73.787497, 40.705218], [-73.788183, 40.70505], [-73.78887, 40.704882], [-73.789558, 40.704716], [-73.790245, 40.704549], [-73.790933, 40.704384], [-73.791621, 40.704219], [-73.792309, 40.704053], [-73.792997, 40.703888], [-73.793685, 40.703724], [-73.794372, 40.703557], [-73.79506, 40.703392], [-73.795746, 40.703222], [-73.796428, 40.703043], [-73.797114, 40.702873], [-73.797802, 40.70271], [-73.798491, 40.702547], [-73.79918, 40.702384], [-73.799869, 40.702221], [-73.800557, 40.702056], [-73.801237, 40.701875], [-73.801906, 40.70167], [-73.802574, 40.701462], [-73.803245, 40.701261], [-73.80392, 40.701068], [-73.804595, 40.700875], [-73.805272, 40.700685], [-73.80595, 40.700497], [-73.806627, 40.700307], [-73.807303, 40.700117], [-73.80798, 40.699927], [-73.808657, 40.699737], [-73.809334, 40.699547]]}}, {"type": "Feature", "properties": {"name": "Main Line \u2192 Mineola", "color": "#A626AA"}, "geometry": {"type": "LineString", "coordinates": [[-73.808758, 40.699614], [-73.808657, 40.699737]]}}, {"type": "Feature", "properties": {"name": "Main Line \u2192 Mineola", "color": "#A626AA"}, "geometry": {"type": "LineString", "coordinates": [[-73.94662, 40.742487], [-73.945978, 40.742737], [-73.945345, 40.743], [-73.944728, 40.743285], [-73.944098, 40.743552], [-73.943457, 40.743805], [-73.942817, 40.744059], [-73.942176, 40.744311], [-73.94153, 40.744556], [-73.940883, 40.744799], [-73.940235, 40.74504], [-73.939582, 40.745275], [-73.93893, 40.74551], [-73.938276, 40.745743], [-73.93762, 40.745972], [-73.936961, 40.746195], [-73.9363, 40.746416], [-73.935636, 40.74663], [-73.934968, 40.746839], [-73.934295, 40.747036], [-73.933612, 40.747214], [-73.932922, 40.747374], [-73.932227, 40.747524], [-73.931526, 40.747655], [-73.930823, 40.747778], [-73.930123, 40.747911], [-73.929422, 40.748043], [-73.92872, 40.748169], [-73.928018, 40.748299], [-73.927317, 40.748428], [-73.926617, 40.748562], [-73.925918, 40.7487], [-73.925221, 40.748842], [-73.924517, 40.748964], [-73.923812, 40.749079], [-73.923101, 40.749174], [-73.922388, 40.749259], [-73.921674, 40.749341], [-73.920963, 40.749436], [-73.920257, 40.749547], [-73.919557, 40.749683], [-73.918857, 40.749817], [-73.918157, 40.749948], [-73.917455, 40.750078], [-73.916753, 40.750204], [-73.916051, 40.750332], [-73.915348, 40.750458], [-73.914641, 40.750567], [-73.913927, 40.750643], [-73.913207, 40.750686], [-73.912486, 40.750697], [-73.911765, 40.750675], [-73.91105, 40.750602], [-73.910347, 40.750482], [-73.909662, 40.750309], [-73.909, 40.750092], [-73.908371, 40.749824], [-73.907773, 40.749517], [-73.907191, 40.749192], [-73.906631, 40.748846], [-73.906106, 40.74847], [-73.905597, 40.748081], [-73.905127, 40.747665], [-73.904669, 40.74724], [-73.904208, 40.746818], [-73.90375, 40.746394], [-73.903305, 40.745979], [-73.903005, 40.746066]]}}, {"type": "Feature", "properties": {"name": "Hempstead", "color": "#CE8E00"}, "geometry": {"type": "LineString", "coordinates": [[-73.707012, 40.724573], [-73.706004, 40.724637], [-73.70532, 40.72481], [-73.704628, 40.724967], [-73.703927, 40.725095], [-73.703214, 40.72517], [-73.702494, 40.725154], [-73.701786, 40.725056], [-73.701095, 40.724899], [-73.700411, 40.724725], [-73.699725, 40.724554], [-73.69903, 40.724406], [-73.698325, 40.724293], [-73.697611, 40.724212], [-73.696895, 40.724146], [-73.696178, 40.724081], [-73.695462, 40.724017], [-73.694745, 40.723952], [-73.694029, 40.723888], [-73.693312, 40.723825], [-73.692595, 40.723761], [-73.691879, 40.723697], [-73.691162, 40.723632], [-73.690446, 40.723568], [-73.689729, 40.723503], [-73.689012, 40.72344], [-73.688295, 40.723378], [-73.687579, 40.723314], [-73.686862, 40.723249], [-73.686146, 40.723185], [-73.685429, 40.723123], [-73.68471, 40.723073], [-73.68399, 40.723047], [-73.683268, 40.72304], [-73.682547, 40.723038], [-73.681825, 40.723036], [-73.681104, 40.723033], [-73.680382, 40.72303], [-73.679661, 40.723028], [-73.678939, 40.723026], [-73.678218, 40.723024], [-73.677496, 40.723021], [-73.676775, 40.723019], [-73.676053, 40.723017], [-73.675332, 40.723015], [-73.67461, 40.723013], [-73.673889, 40.723011], [-73.673167, 40.723009], [-73.672445, 40.723007], [-73.671724, 40.723004], [-73.671002, 40.723001], [-73.670281, 40.723], [-73.669559, 40.722997], [-73.668838, 40.722994], [-73.668116, 40.722992], [-73.667395, 40.722989], [-73.666673, 40.722987], [-73.665952, 40.722984], [-73.66523, 40.722981], [-73.664509, 40.722978], [-73.663787, 40.722975], [-73.663066, 40.722972], [-73.662344, 40.72297], [-73.661623, 40.722967], [-73.660901, 40.722965], [-73.660179, 40.722963], [-73.659458, 40.72296], [-73.658736, 40.722957], [-73.658015, 40.722954], [-73.657293, 40.722952], [-73.656572, 40.722949], [-73.65585, 40.722947], [-73.655129, 40.722944], [-73.654407, 40.722942], [-73.653686, 40.72294], [-73.652964, 40.722937], [-73.652243, 40.722934], [-73.651521, 40.722932], [-73.6508, 40.72293], [-73.650078, 40.722928], [-73.649356, 40.722925], [-73.648635, 40.722923], [-73.647913, 40.722921], [-73.647192, 40.722919], [-73.64647, 40.722916], [-73.645749, 40.722913], [-73.645027, 40.72291], [-73.644306, 40.722907], [-73.643584, 40.722905], [-73.642863, 40.722902], [-73.642142, 40.722916], [-73.641424, 40.722966], [-73.640713, 40.723058], [-73.640007, 40.723172], [-73.639306, 40.723302], [-73.638609, 40.723446], [-73.637916, 40.723597], [-73.637224, 40.723752], [-73.636532, 40.723907], [-73.635839, 40.724062], [-73.635147, 40.724216], [-73.63445, 40.724358], [-73.633744, 40.724472], [-73.633028, 40.724496], [-73.632337, 40.724356], [-73.631732, 40.724065], [-73.631274, 40.723647], [-73.630981, 40.723148], [-73.630707, 40.722641], [-73.630357, 40.722161], [-73.629943, 40.721712], [-73.629475, 40.721295], [-73.628982, 40.720894], [-73.628487, 40.720495], [-73.627998, 40.720091], [-73.627549, 40.719662], [-73.627162, 40.7192], [-73.626845, 40.718708], [-73.626604, 40.718191], [-73.626426, 40.717659], [-73.626276, 40.717122], [-73.626133, 40.716584], [-73.625987, 40.716047], [-73.625836, 40.71551], [-73.625681, 40.714974], [-73.62553, 40.714437], [-73.625375, 40.713901], [-73.625246, 40.713453]]}}, {"type": "Feature", "properties": {"name": "Babylon \u2192 Rockville Centre", "color": "#00985F"}, "geometry": {"type": "LineString", "coordinates": [[-73.80929, 40.699465], [-73.8091, 40.699518], [-73.808758, 40.699614], [-73.807998, 40.699379], [-73.807326, 40.699579], [-73.806656, 40.699782], [-73.805988, 40.699989], [-73.805321, 40.700198], [-73.804653, 40.700405], [-73.803986, 40.700613], [-73.80332, 40.700824], [-73.80291, 40.700974], [-73.802671, 40.701062], [-73.802046, 40.701336], [-73.801417, 40.701604], [-73.800754, 40.701817], [-73.800067, 40.701985], [-73.799379, 40.70215], [-73.79869, 40.702313], [-73.798001, 40.702475], [-73.797312, 40.702638], [-73.796625, 40.702804], [-73.795947, 40.70299], [-73.795271, 40.703182], [-73.794586, 40.703354], [-73.793898, 40.70352], [-73.793211, 40.703686], [-73.792523, 40.703851], [-73.791835, 40.704017], [-73.791147, 40.704182], [-73.79046, 40.704348], [-73.789772, 40.704513], [-73.789084, 40.704678], [-73.788394, 40.704839], [-73.787697, 40.70498], [-73.787006, 40.705136], [-73.786318, 40.7053], [-73.78563, 40.705467], [-73.784943, 40.705634], [-73.784257, 40.705804], [-73.783568, 40.70596], [-73.782852, 40.706003], [-73.782132, 40.705981], [-73.781419, 40.705902], [-73.780722, 40.705764], [-73.78005, 40.705566], [-73.77941, 40.705313], [-73.778811, 40.705009], [-73.77826, 40.704655], [-73.777762, 40.704259], [-73.777297, 40.70384], [-73.776838, 40.703416], [-73.776379, 40.702992], [-73.775921, 40.702568], [-73.775463, 40.702145], [-73.775009, 40.701718], [-73.774576, 40.701279], [-73.774146, 40.700838], [-73.773722, 40.700394], [-73.773298, 40.69995], [-73.772874, 40.699506], [-73.772451, 40.699061], [-73.772029, 40.698616], [-73.771606, 40.698172], [-73.771183, 40.697727], [-73.77076, 40.697282], [-73.770336, 40.696838], [-73.769913, 40.696394], [-73.769489, 40.695949], [-73.769065, 40.695505], [-73.768643, 40.69506], [-73.768219, 40.694616], [-73.767796, 40.694171], [-73.767372, 40.693727], [-73.766951, 40.693282], [-73.766541, 40.69283], [-73.766165, 40.692362], [-73.765833, 40.691875], [-73.765543, 40.691365], [-73.765281, 40.690854], [-73.765028, 40.69034], [-73.7648, 40.689819], [-73.764566, 40.6893], [-73.764311, 40.688786], [-73.764052, 40.688274], [-73.763794, 40.687761], [-73.763536, 40.687249], [-73.763271, 40.686738], [-73.76299, 40.686233], [-73.762684, 40.685736], [-73.762355, 40.685247], [-73.76201, 40.684765], [-73.761666, 40.684283], [-73.76132, 40.683802], [-73.760972, 40.68332], [-73.760625, 40.682839], [-73.760278, 40.682358], [-73.759932, 40.681877], [-73.759585, 40.681395], [-73.759238, 40.680914], [-73.758892, 40.680433], [-73.758545, 40.679951], [-73.758199, 40.67947], [-73.757852, 40.678988], [-73.757506, 40.678507], [-73.757159, 40.678026], [-73.756812, 40.677544], [-73.756465, 40.677063], [-73.756118, 40.676582], [-73.755772, 40.6761], [-73.755425, 40.675619], [-73.755078, 40.675138], [-73.754731, 40.674657], [-73.754385, 40.674175], [-73.754039, 40.673694], [-73.753692, 40.673212], [-73.753345, 40.672731], [-73.752997, 40.67225], [-73.75265, 40.671769], [-73.752304, 40.671288], [-73.751958, 40.670806], [-73.751612, 40.670324], [-73.751265, 40.669843], [-73.750913, 40.669364], [-73.750533, 40.668898], [-73.750089, 40.668466], [-73.749585, 40.668075], [-73.749036, 40.66772], [-73.748455, 40.667394], [-73.747846, 40.667102], [-73.747211, 40.666842], [-73.746554, 40.666616], [-73.74588, 40.666423], [-73.745188, 40.66627], [-73.744485, 40.66615], [-73.743772, 40.666067], [-73.743054, 40.666022], [-73.742334, 40.666009], [-73.741613, 40.666009], [-73.740892, 40.66601], [-73.740171, 40.666011], [-73.73945, 40.666011], [-73.738729, 40.666012], [-73.738008, 40.666013], [-73.737287, 40.666015], [-73.736566, 40.666016], [-73.735845, 40.666018], [-73.735124, 40.66602], [-73.734404, 40.666021], [-73.733683, 40.666021], [-73.732962, 40.666022], [-73.732241, 40.666023], [-73.73152, 40.666024], [-73.730799, 40.666024], [-73.730078, 40.666025], [-73.729357, 40.666027], [-73.728636, 40.666028], [-73.727915, 40.66603], [-73.727194, 40.666031], [-73.726473, 40.666032], [-73.725752, 40.666033], [-73.725032, 40.666034], [-73.724311, 40.666036], [-73.72359, 40.666037], [-73.722869, 40.666033], [-73.722149, 40.666011], [-73.721431, 40.665961], [-73.720718, 40.665883], [-73.720011, 40.665776], [-73.719312, 40.665642], [-73.718623, 40.66548], [-73.717943, 40.665298], [-73.717264, 40.665113], [-73.716587, 40.664925], [-73.71591, 40.664737], [-73.715233, 40.664549], [-73.714555, 40.66436], [-73.713878, 40.664172], [-73.713201, 40.663984], [-73.712524, 40.663795], [-73.711847, 40.663607], [-73.71117, 40.663418], [-73.710492, 40.663231], [-73.709815, 40.663043], [-73.709138, 40.662854], [-73.708461, 40.662665], [-73.707784, 40.662477], [-73.707107, 40.662289], [-73.70643, 40.6621], [-73.705753, 40.661912], [-73.705075, 40.661724], [-73.704725, 40.661627], [-73.704567, 40.661501], [-73.70389, 40.661312], [-73.703212, 40.661125], [-73.702535, 40.660938], [-73.701858, 40.66075], [-73.70118, 40.660562], [-73.700501, 40.660379], [-73.699813, 40.660213], [-73.699123, 40.660056], [-73.69844, 40.659882], [-73.697763, 40.659694], [-73.697086, 40.659505], [-73.696409, 40.659317], [-73.695731, 40.65913], [-73.69505, 40.65895], [-73.694362, 40.658786], [-73.693667, 40.658642], [-73.692965, 40.658515], [-73.692259, 40.658408], [-73.691549, 40.658314], [-73.690837, 40.658227], [-73.690125, 40.658141], [-73.689413, 40.658055], [-73.688701, 40.657969], [-73.687989, 40.657884], [-73.687277, 40.657798], [-73.686565, 40.657712], [-73.685853, 40.657625], [-73.685141, 40.657539], [-73.68443, 40.657452], [-73.683718, 40.657365], [-73.683007, 40.657273], [-73.682297, 40.657177], [-73.681589, 40.657076], [-73.680881, 40.656973], [-73.680175, 40.656862], [-73.679471, 40.656744], [-73.678768, 40.656624], [-73.678065, 40.656503], [-73.677362, 40.656381], [-73.676659, 40.65626], [-73.675956, 40.656139], [-73.675253, 40.656018], [-73.67455, 40.655896], [-73.673846, 40.655776], [-73.673139, 40.655672], [-73.672424, 40.655603], [-73.671705, 40.655575], [-73.670984, 40.655588], [-73.670267, 40.655641], [-73.669557, 40.655734], [-73.668851, 40.655843], [-73.668145, 40.655955], [-73.66744, 40.656067], [-73.666734, 40.656178], [-73.666028, 40.65629], [-73.665322, 40.6564], [-73.664616, 40.656511], [-73.66391, 40.656623], [-73.663204, 40.656734], [-73.662498, 40.656846], [-73.661793, 40.656957], [-73.661087, 40.657069], [-73.660381, 40.65718], [-73.659675, 40.65729], [-73.658969, 40.657401], [-73.658263, 40.657513], [-73.657557, 40.657624], [-73.656851, 40.657735], [-73.656145, 40.657846], [-73.65544, 40.657957], [-73.654734, 40.658068], [-73.654026, 40.658174], [-73.653316, 40.658265], [-73.652601, 40.658336], [-73.651884, 40.65839], [-73.651164, 40.658423], [-73.650444, 40.658438], [-73.649723, 40.658433], [-73.649002, 40.658419], [-73.648282, 40.658403], [-73.647561, 40.658388], [-73.646841, 40.658364], [-73.646121, 40.658333], [-73.645402, 40.6583], [-73.644684, 40.658254], [-73.643965, 40.658208], [-73.643247, 40.658167], [-73.642527, 40.65813], [-73.641808, 40.658098], [-73.641088, 40.658066], [-73.640369, 40.658033], [-73.639649, 40.658002], [-73.638929, 40.657971], [-73.63821, 40.657939], [-73.63749, 40.657908], [-73.63677, 40.657877], [-73.636051, 40.657845], [-73.635331, 40.657812], [-73.634611, 40.657782], [-73.633892, 40.657751], [-73.633172, 40.657718], [-73.632453, 40.657686], [-73.631733, 40.657656], [-73.631013, 40.657626], [-73.630293, 40.657598], [-73.629573, 40.657571], [-73.628853, 40.657545], [-73.628133, 40.657519], [-73.627413, 40.657493], [-73.626693, 40.657467], [-73.625973, 40.657441], [-73.625253, 40.657416], [-73.625013, 40.657407]]}}, {"type": "Feature", "properties": {"name": "Babylon \u2192 Rockville Centre", "color": "#00985F"}, "geometry": {"type": "LineString", "coordinates": [[-73.809334, 40.699547], [-73.8091, 40.699518], [-73.807998, 40.699379]]}}, {"type": "Feature", "properties": {"name": "Babylon \u2192 Rockville Centre", "color": "#00985F"}, "geometry": {"type": "LineString", "coordinates": [[-73.809334, 40.699547], [-73.808221, 40.699764], [-73.807545, 40.699954], [-73.80687, 40.700147], [-73.80621, 40.700367], [-73.805536, 40.700562], [-73.804858, 40.70075], [-73.804175, 40.700924], [-73.803464, 40.701003], [-73.80291, 40.700974], [-73.802747, 40.700966], [-73.802055, 40.700823], [-73.801421, 40.700566], [-73.80084, 40.700241], [-73.800273, 40.699901], [-73.799709, 40.699559], [-73.799145, 40.699217], [-73.798582, 40.698874], [-73.79802, 40.69853], [-73.797473, 40.698172], [-73.796972, 40.697778], [-73.796529, 40.697346], [-73.796146, 40.696881], [-73.79579, 40.696404], [-73.795439, 40.695924], [-73.795088, 40.695444], [-73.794738, 40.694965], [-73.794387, 40.694485], [-73.794036, 40.694006], [-73.793681, 40.693528], [-73.793306, 40.693059], [-73.792903, 40.692604], [-73.79246, 40.692171], [-73.791976, 40.691765], [-73.791457, 40.691384], [-73.79091, 40.691026], [-73.790353, 40.690678], [-73.78979, 40.690335], [-73.789226, 40.689993], [-73.788662, 40.68965], [-73.788099, 40.689308], [-73.787535, 40.688965], [-73.786971, 40.688623], [-73.786407, 40.688281], [-73.785843, 40.687938], [-73.78528, 40.687596], [-73.784716, 40.687254], [-73.784152, 40.686912], [-73.783589, 40.686569], [-73.783026, 40.686226], [-73.782462, 40.685883], [-73.781899, 40.685541], [-73.781335, 40.685199], [-73.780771, 40.684856], [-73.780207, 40.684514], [-73.779644, 40.684171], [-73.77908, 40.683829], [-73.778517, 40.683486], [-73.777953, 40.683144], [-73.777389, 40.682802], [-73.776826, 40.682459], [-73.776262, 40.682117], [-73.775699, 40.681774], [-73.775136, 40.681431], [-73.774574, 40.681087], [-73.774012, 40.680743], [-73.773453, 40.680396], [-73.772894, 40.680049], [-73.772336, 40.679702], [-73.771778, 40.679354], [-73.771219, 40.679007], [-73.770661, 40.67866], [-73.770103, 40.678312], [-73.769544, 40.677965], [-73.768986, 40.677617], [-73.768428, 40.67727], [-73.76787, 40.676922], [-73.767312, 40.676575], [-73.766753, 40.676228], [-73.766195, 40.67588], [-73.765637, 40.675533], [-73.765079, 40.675185], [-73.76452, 40.674838], [-73.763961, 40.674492], [-73.763393, 40.674153], [-73.762813, 40.673828], [-73.762224, 40.673511], [-73.761634, 40.673195], [-73.761044, 40.672879], [-73.760456, 40.672562], [-73.759866, 40.672246], [-73.759276, 40.671931], [-73.758686, 40.671616], [-73.758095, 40.671301], [-73.757505, 40.670985], [-73.756917, 40.670668], [-73.756325, 40.670354], [-73.755723, 40.670052], [-73.755104, 40.669772], [-73.754465, 40.669518], [-73.753814, 40.669282], [-73.753162, 40.669048], [-73.752509, 40.668814], [-73.751861, 40.668575], [-73.751216, 40.668329], [-73.750575, 40.668078], [-73.749936, 40.667824], [-73.749297, 40.66757], [-73.748658, 40.667316], [-73.748018, 40.667062], [-73.747376, 40.666813], [-73.746721, 40.666583], [-73.74605, 40.666383], [-73.745362, 40.666221], [-73.744661, 40.666095], [-73.743951, 40.666002], [-73.743233, 40.66595], [-73.742513, 40.66593], [-73.741792, 40.665928], [-73.741071, 40.665929], [-73.74035, 40.665931], [-73.739629, 40.665931], [-73.738908, 40.665932], [-73.738188, 40.66593], [-73.737467, 40.665932], [-73.736746, 40.665934], [-73.736025, 40.665936], [-73.735304, 40.665937], [-73.734583, 40.665938], [-73.733862, 40.665938], [-73.733141, 40.665937], [-73.73242, 40.665939], [-73.731699, 40.665942], [-73.730978, 40.665943], [-73.730257, 40.665943], [-73.729537, 40.665946], [-73.728816, 40.665947], [-73.728095, 40.665948], [-73.727374, 40.66595], [-73.726653, 40.665951], [-73.725932, 40.665952], [-73.725211, 40.665953], [-73.72449, 40.665955], [-73.723769, 40.665956], [-73.723048, 40.665954], [-73.722328, 40.665939], [-73.721609, 40.665897], [-73.720895, 40.665824], [-73.720186, 40.665724], [-73.719486, 40.665595], [-73.718795, 40.665439], [-73.718114, 40.665259], [-73.717435, 40.665074], [-73.716758, 40.664886], [-73.716081, 40.664697], [-73.715404, 40.664509], [-73.714726, 40.664321], [-73.714049, 40.664133], [-73.713372, 40.663945], [-73.712695, 40.663757], [-73.712017, 40.663569], [-73.71134, 40.663381], [-73.710663, 40.663193], [-73.709985, 40.663005], [-73.709309, 40.662816], [-73.708631, 40.662628], [-73.707954, 40.662441], [-73.707277, 40.662251], [-73.7066, 40.662063], [-73.705922, 40.661875], [-73.705245, 40.661688], [-73.704567, 40.661501]]}}, {"type": "Feature", "properties": {"name": "West Hempstead", "color": "#00A1DE"}, "geometry": {"type": "LineString", "coordinates": [[-73.808758, 40.699614], [-73.808221, 40.699764]]}}, {"type": "Feature", "properties": {"name": "West Hempstead", "color": "#00A1DE"}, "geometry": {"type": "LineString", "coordinates": [[-73.705245, 40.661688], [-73.704377, 40.661531], [-73.7037, 40.661343], [-73.703023, 40.661155], [-73.702346, 40.660966], [-73.701669, 40.660778], [-73.700991, 40.66059], [-73.700314, 40.660402], [-73.699637, 40.660213], [-73.69896, 40.660025], [-73.698281, 40.659842], [-73.697583, 40.659719], [-73.696866, 40.659744], [-73.69617, 40.659878], [-73.695524, 40.660117], [-73.694935, 40.660433], [-73.69436, 40.660765], [-73.693786, 40.661097], [-73.693211, 40.661428], [-73.692636, 40.661759], [-73.692061, 40.66209], [-73.691486, 40.662421], [-73.690912, 40.662753], [-73.69034, 40.663087], [-73.689767, 40.66342], [-73.689193, 40.663752], [-73.688621, 40.664086], [-73.688048, 40.66442], [-73.687476, 40.664753], [-73.686903, 40.665087], [-73.686328, 40.665418], [-73.685751, 40.665747], [-73.685177, 40.666079], [-73.684602, 40.666411], [-73.684028, 40.666742], [-73.683452, 40.667072], [-73.682877, 40.667404], [-73.682301, 40.667734], [-73.681726, 40.668065], [-73.681152, 40.668397], [-73.680577, 40.668728], [-73.680001, 40.669058], [-73.679426, 40.66939], [-73.678851, 40.669721], [-73.678276, 40.670052], [-73.677701, 40.670383], [-73.677126, 40.670714], [-73.67655, 40.671045], [-73.675975, 40.671376], [-73.675399, 40.671706], [-73.674825, 40.672038], [-73.67425, 40.672369], [-73.673674, 40.6727], [-73.673099, 40.673031], [-73.672524, 40.673362], [-73.671949, 40.673693], [-73.671374, 40.674024], [-73.670798, 40.674355], [-73.670223, 40.674686], [-73.669649, 40.675017], [-73.669074, 40.675349], [-73.668499, 40.67568], [-73.667923, 40.676011], [-73.667348, 40.676341], [-73.666773, 40.676673], [-73.666198, 40.677004], [-73.665622, 40.677335], [-73.665047, 40.677665], [-73.664472, 40.677997], [-73.663897, 40.678328], [-73.663322, 40.67866], [-73.662748, 40.678991], [-73.662173, 40.679322], [-73.661598, 40.679654], [-73.661022, 40.679985], [-73.660447, 40.680315], [-73.659872, 40.680646], [-73.659296, 40.680977], [-73.658721, 40.681308], [-73.658146, 40.681639], [-73.657571, 40.681971], [-73.656996, 40.682302], [-73.656421, 40.682633], [-73.655845, 40.682964], [-73.65527, 40.683295], [-73.654695, 40.683626], [-73.654123, 40.68396], [-73.65358, 40.684321], [-73.653089, 40.684722], [-73.652659, 40.685162], [-73.652286, 40.685631], [-73.651957, 40.68612], [-73.651635, 40.686611], [-73.651314, 40.687102], [-73.650992, 40.687593], [-73.650671, 40.688085], [-73.65035, 40.688577], [-73.650029, 40.689068], [-73.649707, 40.689559], [-73.649386, 40.690051], [-73.649064, 40.690542], [-73.648742, 40.691033], [-73.648419, 40.691524], [-73.648098, 40.692016], [-73.647776, 40.692507], [-73.647454, 40.692998], [-73.647132, 40.693489], [-73.646811, 40.693981], [-73.646489, 40.694472], [-73.646168, 40.694964], [-73.645848, 40.695456], [-73.645526, 40.695947], [-73.645203, 40.696438], [-73.644882, 40.696929], [-73.64456, 40.69742], [-73.644238, 40.697912], [-73.643917, 40.698403], [-73.643595, 40.698894], [-73.643274, 40.699386], [-73.642953, 40.699877], [-73.64263, 40.700368], [-73.642307, 40.700859], [-73.641987, 40.701351], [-73.641713, 40.701768]]}}, {"type": "Feature", "properties": {"name": "West Hempstead", "color": "#00A1DE"}, "geometry": {"type": "LineString", "coordinates": [[-73.704725, 40.661627], [-73.704377, 40.661531]]}}, {"type": "Feature", "properties": {"name": "Long Beach", "color": "#FF6319"}, "geometry": {"type": "LineString", "coordinates": [[-73.676659, 40.65626], [-73.675723, 40.655966], [-73.67502, 40.655845], [-73.674317, 40.655724], [-73.67361, 40.655618], [-73.672897, 40.655539], [-73.672183, 40.655465], [-73.671485, 40.655333], [-73.670829, 40.655109], [-73.670232, 40.654804], [-73.669714, 40.654424], [-73.669272, 40.653991], [-73.668854, 40.653544], [-73.668434, 40.653098], [-73.668013, 40.652652], [-73.667594, 40.652206], [-73.667175, 40.651759], [-73.666755, 40.651313], [-73.666336, 40.650866], [-73.665916, 40.65042], [-73.665497, 40.649973], [-73.665077, 40.649527], [-73.664658, 40.649081], [-73.664238, 40.648635], [-73.663817, 40.648189], [-73.663397, 40.647743], [-73.662977, 40.647297], [-73.662557, 40.64685], [-73.662138, 40.646404], [-73.661718, 40.645958], [-73.661298, 40.645512], [-73.660877, 40.645066], [-73.660457, 40.64462], [-73.660037, 40.644174], [-73.659617, 40.643728], [-73.659198, 40.643281], [-73.658778, 40.642835], [-73.658357, 40.642389], [-73.657937, 40.641943], [-73.657518, 40.641497], [-73.657099, 40.64105], [-73.656695, 40.640596], [-73.656338, 40.640119], [-73.656054, 40.639616], [-73.655838, 40.639093], [-73.655675, 40.638558], [-73.655529, 40.63802], [-73.655385, 40.637483], [-73.65524, 40.636945], [-73.655096, 40.636407], [-73.654951, 40.635869], [-73.654806, 40.635331], [-73.654662, 40.634794], [-73.654518, 40.634256], [-73.654374, 40.633718], [-73.65423, 40.63318], [-73.654084, 40.632642], [-73.653939, 40.632105], [-73.653794, 40.631567], [-73.653648, 40.631029], [-73.653502, 40.630492], [-73.653357, 40.629954], [-73.653213, 40.629416], [-73.653069, 40.628878], [-73.652924, 40.628341], [-73.652779, 40.627803], [-73.652634, 40.627265], [-73.65249, 40.626727], [-73.652345, 40.626189], [-73.652201, 40.625652], [-73.652056, 40.625114], [-73.651911, 40.624576], [-73.651767, 40.624038], [-73.651622, 40.623501], [-73.651476, 40.622963], [-73.651333, 40.622425], [-73.651189, 40.621887], [-73.651043, 40.62135], [-73.650898, 40.620812], [-73.650753, 40.620274], [-73.650608, 40.619736], [-73.650463, 40.619199], [-73.650318, 40.618661], [-73.650174, 40.618123], [-73.650029, 40.617585], [-73.649884, 40.617048], [-73.649739, 40.61651], [-73.649594, 40.615972], [-73.64945, 40.615434], [-73.649305, 40.614897], [-73.64916, 40.614359], [-73.649015, 40.613821], [-73.64887, 40.613283], [-73.648726, 40.612746], [-73.648582, 40.612208], [-73.648439, 40.61167], [-73.64833, 40.611127], [-73.648295, 40.61058], [-73.648334, 40.610032], [-73.648448, 40.609491], [-73.648637, 40.608962], [-73.648898, 40.60845], [-73.649225, 40.607962], [-73.649592, 40.60749], [-73.649966, 40.60702], [-73.65034, 40.606551], [-73.650715, 40.606083], [-73.651091, 40.605614], [-73.651466, 40.605146], [-73.65184, 40.604677], [-73.652214, 40.604208], [-73.652589, 40.603739], [-73.652963, 40.60327], [-73.65334, 40.602802], [-73.653727, 40.602339], [-73.654133, 40.601885], [-73.654557, 40.601442], [-73.655002, 40.60101], [-73.655464, 40.600589], [-73.655937, 40.600175], [-73.656411, 40.599762], [-73.656885, 40.599349], [-73.65736, 40.598936], [-73.657836, 40.598524], [-73.658311, 40.598112], [-73.658787, 40.597699], [-73.659271, 40.597293], [-73.659776, 40.596902], [-73.660292, 40.596519], [-73.660789, 40.596122], [-73.661267, 40.595711], [-73.661742, 40.595299], [-73.662213, 40.594884], [-73.662667, 40.594458], [-73.663096, 40.594016], [-73.663513, 40.593569], [-73.663922, 40.593117], [-73.664271, 40.592639], [-73.664475, 40.592115], [-73.66454, 40.59157], [-73.664535, 40.591021], [-73.664525, 40.590472], [-73.66452, 40.590182]]}}, {"type": "Feature", "properties": {"name": "Far Rockaway", "color": "#6E3219"}, "geometry": {"type": "LineString", "coordinates": [[-73.750453, 40.60926], [-73.750081, 40.609568], [-73.749551, 40.609939], [-73.74899, 40.610282], [-73.748396, 40.610592], [-73.747782, 40.610878], [-73.747142, 40.611129], [-73.746497, 40.611374], [-73.745853, 40.61162], [-73.74521, 40.611867], [-73.744566, 40.612114], [-73.743923, 40.61236], [-73.74328, 40.612608], [-73.742637, 40.612856], [-73.741993, 40.613101], [-73.741348, 40.613346], [-73.740704, 40.613592], [-73.74006, 40.613838], [-73.739417, 40.614086], [-73.738776, 40.614335], [-73.738134, 40.614584], [-73.737498, 40.614842], [-73.736891, 40.615137], [-73.736313, 40.615464], [-73.73574, 40.615797], [-73.735167, 40.61613], [-73.734596, 40.616464], [-73.734025, 40.616799], [-73.733453, 40.617133], [-73.732882, 40.617467], [-73.73231, 40.617801], [-73.731749, 40.618146], [-73.7312, 40.618501], [-73.730673, 40.618875], [-73.730152, 40.619254], [-73.729633, 40.619634], [-73.729113, 40.620014], [-73.728592, 40.620394], [-73.728072, 40.620774], [-73.727552, 40.621153], [-73.727032, 40.621533], [-73.72651, 40.621912], [-73.725984, 40.622287], [-73.725447, 40.622653], [-73.724898, 40.623008], [-73.724352, 40.623367], [-73.723826, 40.623742], [-73.723302, 40.624118], [-73.72278, 40.624496], [-73.722259, 40.624876], [-73.721739, 40.625256], [-73.721219, 40.625636], [-73.7207, 40.626017], [-73.720184, 40.6264], [-73.719669, 40.626783], [-73.719155, 40.627168], [-73.718645, 40.627556], [-73.718134, 40.627943], [-73.717624, 40.628331], [-73.717114, 40.628719], [-73.716604, 40.629106], [-73.716094, 40.629494], [-73.715584, 40.629882], [-73.715074, 40.630269], [-73.714563, 40.630657], [-73.714053, 40.631045], [-73.713544, 40.631433], [-73.713034, 40.631821], [-73.712519, 40.632204], [-73.711978, 40.632567], [-73.711419, 40.632914], [-73.710858, 40.633258], [-73.710295, 40.6336], [-73.709731, 40.633942], [-73.709168, 40.634285], [-73.708604, 40.634627], [-73.708041, 40.634969], [-73.707477, 40.635311], [-73.706914, 40.635653], [-73.70635, 40.635995], [-73.705787, 40.636338], [-73.705224, 40.63668], [-73.704661, 40.637023], [-73.704098, 40.637365], [-73.703535, 40.637708], [-73.702988, 40.638064], [-73.702525, 40.638483], [-73.702186, 40.638965], [-73.701979, 40.639488], [-73.701917, 40.640034], [-73.701905, 40.640583], [-73.701898, 40.641132], [-73.701891, 40.64168], [-73.701885, 40.642229], [-73.701879, 40.642778], [-73.701873, 40.643327], [-73.701866, 40.643876], [-73.70186, 40.644425], [-73.701854, 40.644974], [-73.701849, 40.645523], [-73.701844, 40.646072], [-73.701839, 40.646621], [-73.701833, 40.64717], [-73.701828, 40.647719], [-73.701823, 40.648268], [-73.701817, 40.648817], [-73.70181, 40.649366], [-73.701803, 40.649915], [-73.701798, 40.650463], [-73.701793, 40.651012], [-73.701786, 40.651561], [-73.70178, 40.65211], [-73.701774, 40.652659], [-73.701768, 40.653208], [-73.701762, 40.653757], [-73.701756, 40.654306], [-73.701749, 40.654855], [-73.701743, 40.655404], [-73.701736, 40.655953], [-73.701731, 40.656502], [-73.701725, 40.657051], [-73.701719, 40.6576], [-73.701714, 40.658149], [-73.701709, 40.658698], [-73.701708, 40.659246], [-73.701788, 40.659789], [-73.702057, 40.660294], [-73.702492, 40.660727], [-73.703069, 40.661049], [-73.703729, 40.661267], [-73.704406, 40.661456], [-73.705245, 40.661688]]}}, {"type": "Feature", "properties": {"name": "Far Rockaway", "color": "#6E3219"}, "geometry": {"type": "LineString", "coordinates": [[-73.704725, 40.661627], [-73.704406, 40.661456]]}}, {"type": "Feature", "properties": {"name": "Belmont Park", "color": "#A626AA"}, "geometry": {"type": "LineString", "coordinates": [[-73.73646, 40.717458], [-73.728297, 40.713688]]}}, {"type": "Feature", "properties": {"name": "Long Island City", "color": "#4D5357"}, "geometry": {"type": "LineString", "coordinates": [[-73.957639, 40.741343], [-73.94679, 40.74239]]}}, {"type": "Feature", "properties": {"name": "East Side Access", "color": "#4D5357"}, "geometry": {"type": "LineString", "coordinates": [[-73.977, 40.7542], [-73.9762, 40.7535], [-73.9748, 40.752], [-73.9725, 40.7505], [-73.9695, 40.7495], [-73.9655, 40.7488], [-73.961, 40.7482], [-73.956, 40.7478], [-73.951, 40.7475], [-73.946, 40.7472], [-73.941, 40.747], [-73.936, 40.7472], [-73.931, 40.7478], [-73.927, 40.7485], [-73.926453, 40.748547], [-73.926365, 40.748556], [-73.926071, 40.74859], [-73.92581, 40.748627], [-73.925372, 40.748694], [-73.924996, 40.748766], [-73.923873, 40.748979], [-73.922778, 40.749186], [-73.920723, 40.749571], [-73.920656, 40.749586], [-73.920086, 40.749691], [-73.919945, 40.749719], [-73.919475, 40.749809], [-73.918144, 40.75002], [-73.917376, 40.750166], [-73.916494, 40.750306], [-73.915702, 40.750425], [-73.915511, 40.750457], [-73.915152, 40.75052], [-73.914736, 40.750583], [-73.914578, 40.750604], [-73.914326, 40.750633], [-73.914, 40.750664], [-73.913628, 40.750691], [-73.913225, 40.750713], [-73.912769, 40.750722], [-73.912349, 40.750722], [-73.911857, 40.750705], [-73.911599, 40.75069], [-73.91134, 40.750668], [-73.911048, 40.750634], [-73.91078, 40.750596], [-73.910531, 40.750552], [-73.910281, 40.750501], [-73.90997, 40.750429], [-73.909689, 40.750353], [-73.909443, 40.750276], [-73.909197, 40.750194], [-73.908974, 40.750113], [-73.908776, 40.750033], [-73.908539, 40.749931], [-73.90833, 40.749833], [-73.908098, 40.749723], [-73.907807, 40.749574], [-73.907481, 40.749397], [-73.907159, 40.74921], [-73.906822, 40.749001], [-73.906621, 40.748872], [-73.906428, 40.748741], [-73.906185, 40.748572], [-73.905989, 40.748426], [-73.905545, 40.748073], [-73.905134, 40.747728], [-73.904719, 40.747348], [-73.904292, 40.746954], [-73.902749, 40.745533], [-73.901946, 40.744776], [-73.901797, 40.744645], [-73.901497, 40.744379], [-73.901034, 40.743933], [-73.900925, 40.743833], [-73.900341, 40.743306], [-73.899602, 40.742624], [-73.898835, 40.741912], [-73.898413, 40.741536], [-73.898376, 40.741503], [-73.898121, 40.74127], [-73.897759, 40.740938], [-73.896926, 40.740175], [-73.896713, 40.73999], [-73.896691, 40.739971], [-73.896495, 40.739801], [-73.896011, 40.739418], [-73.895726, 40.739206], [-73.895668, 40.739168], [-73.895383, 40.738972], [-73.894978, 40.73871], [-73.894428, 40.738401], [-73.894353, 40.738361], [-73.894001, 40.738179], [-73.893116, 40.73777], [-73.892419, 40.737473], [-73.892258, 40.737404], [-73.891432, 40.737052], [-73.889955, 40.736431], [-73.889627, 40.736294], [-73.887822, 40.735527], [-73.887109, 40.735239], [-73.886617, 40.73504], [-73.883903, 40.733891], [-73.882515, 40.733365], [-73.881327, 40.732929], [-73.880526, 40.732638], [-73.878885, 40.732038], [-73.877686, 40.7316], [-73.877476, 40.731523], [-73.875339, 40.730741], [-73.87494, 40.730595], [-73.871683, 40.729404], [-73.87127, 40.729252], [-73.868804, 40.728344], [-73.864616, 40.726814], [-73.864402, 40.726736], [-73.863995, 40.726586], [-73.863079, 40.726253], [-73.862133, 40.72591], [-73.861595, 40.725711], [-73.859981, 40.725121], [-73.859385, 40.724901], [-73.85878, 40.724682], [-73.857885, 40.72435], [-73.856183, 40.723724], [-73.852735, 40.722461], [-73.852381, 40.722334], [-73.849991, 40.721455], [-73.847643, 40.720601], [-73.845247, 40.719719], [-73.844973, 40.719619], [-73.842949, 40.718841], [-73.84229, 40.71856], [-73.841593, 40.718229], [-73.84101, 40.717929], [-73.84078, 40.717807], [-73.840557, 40.717684], [-73.839719, 40.717181], [-73.838957, 40.716681], [-73.838088, 40.716034], [-73.837348, 40.715423], [-73.836066, 40.714269], [-73.835183, 40.713473], [-73.834863, 40.713194], [-73.834271, 40.712666], [-73.833729, 40.712163], [-73.833233, 40.711724], [-73.832189, 40.710786], [-73.830422, 40.709214], [-73.830036, 40.708852], [-73.829571, 40.708428], [-73.826171, 40.705368], [-73.826075, 40.705279], [-73.825083, 40.704388], [-73.824606, 40.703962], [-73.824038, 40.703441], [-73.823763, 40.703197], [-73.823487, 40.702946], [-73.823025, 40.702526], [-73.82276, 40.702286], [-73.82231, 40.701922], [-73.822167, 40.701807], [-73.82202, 40.701677], [-73.821774, 40.701468], [-73.821771, 40.701466], [-73.821641, 40.701352], [-73.821496, 40.701224], [-73.821339, 40.701092], [-73.821175, 40.700955], [-73.821023, 40.700836], [-73.820873, 40.700715], [-73.820714, 40.700593], [-73.820566, 40.700481], [-73.82039, 40.700354], [-73.820244, 40.700246], [-73.820089, 40.700138], [-73.819932, 40.70003], [-73.819811, 40.699947], [-73.819667, 40.699856], [-73.819504, 40.699757], [-73.819345, 40.699661], [-73.819193, 40.699574], [-73.819027, 40.699483], [-73.818845, 40.699387], [-73.818671, 40.6993], [-73.818464, 40.699201], [-73.818268, 40.699111], [-73.818086, 40.699033], [-73.817904, 40.698958], [-73.81773, 40.698889], [-73.817562, 40.698827], [-73.817426, 40.698778], [-73.817261, 40.698723], [-73.817134, 40.698682], [-73.817004, 40.698643], [-73.816878, 40.698609], [-73.816747, 40.698575], [-73.816615, 40.698544], [-73.816481, 40.698517], [-73.816339, 40.69849], [-73.816197, 40.698464], [-73.816191, 40.698463], [-73.816044, 40.698441], [-73.815906, 40.698422], [-73.815789, 40.69841], [-73.815662, 40.698399], [-73.815528, 40.698388], [-73.815407, 40.698381], [-73.815283, 40.698376], [-73.815168, 40.698374], [-73.815042, 40.698372], [-73.814805, 40.698376], [-73.81477, 40.698376], [-73.814664, 40.698381], [-73.81455, 40.698389], [-73.814416, 40.698399], [-73.814273, 40.698413], [-73.814149, 40.698427], [-73.814005, 40.698447], [-73.813948, 40.698456], [-73.813713, 40.698509], [-73.813609, 40.698538], [-73.813397, 40.698598], [-73.813237, 40.698642], [-73.813085, 40.698687], [-73.812892, 40.69874], [-73.812818, 40.698757], [-73.812549, 40.698822], [-73.812412, 40.698849], [-73.812314, 40.69887], [-73.812205, 40.698897], [-73.81193, 40.69897], [-73.811242, 40.699167], [-73.811129, 40.699199], [-73.808628, 40.699897]]}}]}