{"type": "FeatureCollection", "features": [{"type": "Feature", "properties": {"name": "Penn Station", "mode": "LIRR"}, "geometry": {"type": "Point", "coordinates": [-73.993584, 40.750588]}}, {"type": "Feature", "properties": {"name": "Atlantic Terminal", "mode": "LIRR"}, "geometry": {"type": "Point", "coordinates": [-73.975671, 40.683596]}}, {"type": "Feature", "properties": {"name": "Nostrand Avenue", "mode": "LIRR"}, "geometry": {"type": "Point", "coordinates": [-73.948221, 40.678388]}}, {"type": "Feature", "properties": {"name": "East New York", "mode": "LIRR"}, "geometry": {"type": "Point", "coordinates": [-73.902809, 40.675812]}}, {"type": "Feature", "properties": {"name": "Hempstead", "mode": "LIRR"}, "geometry": {"type": "Point", "coordinates": [-73.625032, 40.713297]}}, {"type": "Feature", "properties": {"name": "Hempstead Gardens", "mode": "LIRR"}, "geometry": {"type": "Point", "coordinates": [-73.646209, 40.694914]}}, {"type": "Feature", "properties": {"name": "Hewlett", "mode": "LIRR"}, "geometry": {"type": "Point", "coordinates": [-73.705139, 40.636764]}}, {"type": "Feature", "properties": {"name": "Island Park", "mode": "LIRR"}, "geometry": {"type": "Point", "coordinates": [-73.654742, 40.601299]}}, {"type": "Feature", "properties": {"name": "Inwood", "mode": "LIRR"}, "geometry": {"type": "Point", "coordinates": [-73.744184, 40.612288]}}, {"type": "Feature", "properties": {"name": "Long Beach", "mode": "LIRR"}, "geometry": {"type": "Point", "coordinates": [-73.664818, 40.590182]}}, {"type": "Feature", "properties": {"name": "Lawrence", "mode": "LIRR"}, "geometry": {"type": "Point", "coordinates": [-73.7359, 40.615735]}}, {"type": "Feature", "properties": {"name": "Lakeview", "mode": "LIRR"}, "geometry": {"type": "Point", "coordinates": [-73.652138, 40.685856]}}, {"type": "Feature", "properties": {"name": "Lynbrook", "mode": "LIRR"}, "geometry": {"type": "Point", "coordinates": [-73.676071, 40.656058]}}, {"type": "Feature", "properties": {"name": "Merillon Avenue", "mode": "LIRR"}, "geometry": {"type": "Point", "coordinates": [-73.662521, 40.735169]}}, {"type": "Feature", "properties": {"name": "Manhasset", "mode": "LIRR"}, "geometry": {"type": "Point", "coordinates": [-73.699899, 40.796724]}}, {"type": "Feature", "properties": {"name": "Mineola", "mode": "LIRR"}, "geometry": {"type": "Point", "coordinates": [-73.640863, 40.740347]}}, {"type": "Feature", "properties": {"name": "Malverne", "mode": "LIRR"}, "geometry": {"type": "Point", "coordinates": [-73.668864, 40.675478]}}, {"type": "Feature", "properties": {"name": "Nassau Boulevard", "mode": "LIRR"}, "geometry": {"type": "Point", "coordinates": [-73.662698, 40.722962]}}, {"type": "Feature", "properties": {"name": "New Hyde Park", "mode": "LIRR"}, "geometry": {"type": "Point", "coordinates": [-73.680959, 40.730757]}}, {"type": "Feature", "properties": {"name": "Oceanside", "mode": "LIRR"}, "geometry": {"type": "Point", "coordinates": [-73.654666, 40.634721]}}, {"type": "Feature", "properties": {"name": "Plandome", "mode": "LIRR"}, "geometry": {"type": "Point", "coordinates": [-73.695214, 40.810699]}}, {"type": "Feature", "properties": {"name": "Port Washington", "mode": "LIRR"}, "geometry": {"type": "Point", "coordinates": [-73.687401, 40.829035]}}, {"type": "Feature", "properties": {"name": "Rockville Centre", "mode": "LIRR"}, "geometry": {"type": "Point", "coordinates": [-73.646549, 40.658318]}}, {"type": "Feature", "properties": {"name": "Stewart Manor", "mode": "LIRR"}, "geometry": {"type": "Point", "coordinates": [-73.68102, 40.723028]}}, {"type": "Feature", "properties": {"name": "Valley Stream", "mode": "LIRR"}, "geometry": {"type": "Point", "coordinates": [-73.704759, 40.661518]}}, {"type": "Feature", "properties": {"name": "West Hempstead", "mode": "LIRR"}, "geometry": {"type": "Point", "coordinates": [-73.641644, 40.701961]}}, {"type": "Feature", "properties": {"name": "Woodmere", "mode": "LIRR"}, "geometry": {"type": "Point", "coordinates": [-73.713715, 40.631336]}}, {"type": "Feature", "properties": {"name": "Westwood", "mode": "LIRR"}, "geometry": {"type": "Point", "coordinates": [-73.681209, 40.668372]}}, {"type": "Feature", "properties": {"name": "Bellerose", "mode": "LIRR"}, "geometry": {"type": "Point", "coordinates": [-73.716653, 40.722204]}}, {"type": "Feature", "properties": {"name": "Centre Avenue", "mode": "LIRR"}, "geometry": {"type": "Point", "coordinates": [-73.663967, 40.648318]}}, {"type": "Feature", "properties": {"name": "Cedarhurst", "mode": "LIRR"}, "geometry": {"type": "Point", "coordinates": [-73.726183, 40.622175]}}, {"type": "Feature", "properties": {"name": "Country Life Press", "mode": "LIRR"}, "geometry": {"type": "Point", "coordinates": [-73.629674, 40.721457]}}, {"type": "Feature", "properties": {"name": "East Rockaway", "mode": "LIRR"}, "geometry": {"type": "Point", "coordinates": [-73.658216, 40.642211]}}, {"type": "Feature", "properties": {"name": "Floral Park", "mode": "LIRR"}, "geometry": {"type": "Point", "coordinates": [-73.706397, 40.724637]}}, {"type": "Feature", "properties": {"name": "Gibson", "mode": "LIRR"}, "geometry": {"type": "Point", "coordinates": [-73.701835, 40.649252]}}, {"type": "Feature", "properties": {"name": "Garden City", "mode": "LIRR"}, "geometry": {"type": "Point", "coordinates": [-73.640361, 40.723102]}}, {"type": "Feature", "properties": {"name": "Great Neck", "mode": "LIRR"}, "geometry": {"type": "Point", "coordinates": [-73.7261, 40.787216]}}, {"type": "Feature", "properties": {"name": "Hollis", "mode": "LIRR"}, "geometry": {"type": "Point", "coordinates": [-73.766753, 40.710182]}}, {"type": "Feature", "properties": {"name": "Hunterspoint Avenue", "mode": "LIRR"}, "geometry": {"type": "Point", "coordinates": [-73.94679, 40.74239]}}, {"type": "Feature", "properties": {"name": "Jamaica", "mode": "LIRR"}, "geometry": {"type": "Point", "coordinates": [-73.80853, 40.699608]}}, {"type": "Feature", "properties": {"name": "Kew Gardens", "mode": "LIRR"}, "geometry": {"type": "Point", "coordinates": [-73.830888, 40.709649]}}, {"type": "Feature", "properties": {"name": "Long Island City", "mode": "LIRR"}, "geometry": {"type": "Point", "coordinates": [-73.957639, 40.741343]}}, {"type": "Feature", "properties": {"name": "Locust Manor", "mode": "LIRR"}, "geometry": {"type": "Point", "coordinates": [-73.765043, 40.675139]}}, {"type": "Feature", "properties": {"name": "Little Neck", "mode": "LIRR"}, "geometry": {"type": "Point", "coordinates": [-73.740647, 40.775044]}}, {"type": "Feature", "properties": {"name": "Laurelton", "mode": "LIRR"}, "geometry": {"type": "Point", "coordinates": [-73.751747, 40.668483]}}, {"type": "Feature", "properties": {"name": "Murray Hill", "mode": "LIRR"}, "geometry": {"type": "Point", "coordinates": [-73.814539, 40.762709]}}, {"type": "Feature", "properties": {"name": "Queens Village", "mode": "LIRR"}, "geometry": {"type": "Point", "coordinates": [-73.73646, 40.717458]}}, {"type": "Feature", "properties": {"name": "Rosedale", "mode": "LIRR"}, "geometry": {"type": "Point", "coordinates": [-73.735548, 40.665949]}}, {"type": "Feature", "properties": {"name": "St. Albans", "mode": "LIRR"}, "geometry": {"type": "Point", "coordinates": [-73.765509, 40.691183]}}, {"type": "Feature", "properties": {"name": "Mets-Willets Point", "mode": "LIRR"}, "geometry": {"type": "Point", "coordinates": [-73.843701, 40.752398]}}, {"type": "Feature", "properties": {"name": "Woodside", "mode": "LIRR"}, "geometry": {"type": "Point", "coordinates": [-73.902975, 40.745851]}}, {"type": "Feature", "properties": {"name": "Auburndale", "mode": "LIRR"}, "geometry": {"type": "Point", "coordinates": [-73.789959, 40.761443]}}, {"type": "Feature", "properties": {"name": "Broadway", "mode": "LIRR"}, "geometry": {"type": "Point", "coordinates": [-73.801766, 40.761653]}}, {"type": "Feature", "properties": {"name": "Belmont Park", "mode": "LIRR"}, "geometry": {"type": "Point", "coordinates": [-73.728297, 40.713688]}}, {"type": "Feature", "properties": {"name": "Bayside", "mode": "LIRR"}, "geometry": {"type": "Point", "coordinates": [-73.77125, 40.763152]}}, {"type": "Feature", "properties": {"name": "Douglaston", "mode": "LIRR"}, "geometry": {"type": "Point", "coordinates": [-73.749413, 40.768069]}}, {"type": "Feature", "properties": {"name": "Forest Hills", "mode": "LIRR"}, "geometry": {"type": "Point", "coordinates": [-73.844814, 40.719576]}}, {"type": "Feature", "properties": {"name": "Flushing Main Street", "mode": "LIRR"}, "geometry": {"type": "Point", "coordinates": [-73.831347, 40.757895]}}, {"type": "Feature", "properties": {"name": "Far Rockaway", "mode": "LIRR"}, "geometry": {"type": "Point", "coordinates": [-73.750541, 40.609143]}}, {"type": "Feature", "properties": {"name": "Grand Central Madison", "mode": "LIRR"}, "geometry": {"type": "Point", "coordinates": [-73.9772, 40.7527]}}]}