{"type": "FeatureCollection", "features": [{"type": "Feature", "properties": {"name": "Grand Central", "mode": "Metro-North"}, "geometry": {"type": "Point", "coordinates": [-73.977119, 40.753044]}}, {"type": "Feature", "properties": {"name": "Harlem-125th St.", "mode": "Metro-North"}, "geometry": {"type": "Point", "coordinates": [-73.939141, 40.805151]}}, {"type": "Feature", "properties": {"name": "Marble Hill", "mode": "Metro-North"}, "geometry": {"type": "Point", "coordinates": [-73.910938, 40.874339]}}, {"type": "Feature", "properties": {"name": "Yankees-E153 St.", "mode": "Metro-North"}, "geometry": {"type": "Point", "coordinates": [-73.929941, 40.82527]}}, {"type": "Feature", "properties": {"name": "Morris Heights", "mode": "Metro-North"}, "geometry": {"type": "Point", "coordinates": [-73.91961, 40.854276]}}, {"type": "Feature", "properties": {"name": "University Heights", "mode": "Metro-North"}, "geometry": {"type": "Point", "coordinates": [-73.91312, 40.862248]}}, {"type": "Feature", "properties": {"name": "Spuyten Duyvil", "mode": "Metro-North"}, "geometry": {"type": "Point", "coordinates": [-73.921465, 40.878234]}}, {"type": "Feature", "properties": {"name": "Riverdale", "mode": "Metro-North"}, "geometry": {"type": "Point", "coordinates": [-73.914102, 40.903974]}}, {"type": "Feature", "properties": {"name": "Melrose", "mode": "Metro-North"}, "geometry": {"type": "Point", "coordinates": [-73.915222, 40.825747]}}, {"type": "Feature", "properties": {"name": "Tremont", "mode": "Metro-North"}, "geometry": {"type": "Point", "coordinates": [-73.899545, 40.847298]}}, {"type": "Feature", "properties": {"name": "Fordham", "mode": "Metro-North"}, "geometry": {"type": "Point", "coordinates": [-73.890592, 40.861509]}}, {"type": "Feature", "properties": {"name": "Botanical Garden", "mode": "Metro-North"}, "geometry": {"type": "Point", "coordinates": [-73.883113, 40.866561]}}, {"type": "Feature", "properties": {"name": "Williams Bridge", "mode": "Metro-North"}, "geometry": {"type": "Point", "coordinates": [-73.871009, 40.878545]}}, {"type": "Feature", "properties": {"name": "Woodlawn", "mode": "Metro-North"}, "geometry": {"type": "Point", "coordinates": [-73.862837, 40.89531]}}, {"type": "Feature", "properties": {"name": "Wakefield", "mode": "Metro-North"}, "geometry": {"type": "Point", "coordinates": [-73.8557, 40.905949]}}, {"type": "Feature", "properties": {"name": "Ludlow", "mode": "Metro-North"}, "geometry": {"type": "Point", "coordinates": [-73.90458, 40.924959]}}, {"type": "Feature", "properties": {"name": "Yonkers", "mode": "Metro-North"}, "geometry": {"type": "Point", "coordinates": [-73.902607, 40.935753]}}, {"type": "Feature", "properties": {"name": "Glenwood", "mode": "Metro-North"}, "geometry": {"type": "Point", "coordinates": [-73.89901, 40.95048]}}, {"type": "Feature", "properties": {"name": "Greystone", "mode": "Metro-North"}, "geometry": {"type": "Point", "coordinates": [-73.889205, 40.972749]}}, {"type": "Feature", "properties": {"name": "Hastings-on-Hudson", "mode": "Metro-North"}, "geometry": {"type": "Point", "coordinates": [-73.884513, 40.994109]}}, {"type": "Feature", "properties": {"name": "Dobbs Ferry", "mode": "Metro-North"}, "geometry": {"type": "Point", "coordinates": [-73.8795, 41.012463]}}, {"type": "Feature", "properties": {"name": "Ardsley-on-Hudson", "mode": "Metro-North"}, "geometry": {"type": "Point", "coordinates": [-73.876633, 41.026202]}}, {"type": "Feature", "properties": {"name": "Irvington", "mode": "Metro-North"}, "geometry": {"type": "Point", "coordinates": [-73.873065, 41.039989]}}, {"type": "Feature", "properties": {"name": "Mt Vernon West", "mode": "Metro-North"}, "geometry": {"type": "Point", "coordinates": [-73.851137, 40.912148]}}, {"type": "Feature", "properties": {"name": "Fleetwood", "mode": "Metro-North"}, "geometry": {"type": "Point", "coordinates": [-73.839755, 40.927161]}}, {"type": "Feature", "properties": {"name": "Bronxville", "mode": "Metro-North"}, "geometry": {"type": "Point", "coordinates": [-73.835199, 40.939779]}}, {"type": "Feature", "properties": {"name": "Tuckahoe", "mode": "Metro-North"}, "geometry": {"type": "Point", "coordinates": [-73.83014, 40.949361]}}, {"type": "Feature", "properties": {"name": "Crestwood", "mode": "Metro-North"}, "geometry": {"type": "Point", "coordinates": [-73.820778, 40.959174]}}, {"type": "Feature", "properties": {"name": "Scarsdale", "mode": "Metro-North"}, "geometry": {"type": "Point", "coordinates": [-73.808586, 40.989158]}}, {"type": "Feature", "properties": {"name": "Hartsdale", "mode": "Metro-North"}, "geometry": {"type": "Point", "coordinates": [-73.796364, 41.010293]}}, {"type": "Feature", "properties": {"name": "White Plains", "mode": "Metro-North"}, "geometry": {"type": "Point", "coordinates": [-73.775204, 41.032589]}}, {"type": "Feature", "properties": {"name": "Mt Vernon East", "mode": "Metro-North"}, "geometry": {"type": "Point", "coordinates": [-73.832189, 40.912137]}}, {"type": "Feature", "properties": {"name": "Pelham", "mode": "Metro-North"}, "geometry": {"type": "Point", "coordinates": [-73.810244, 40.910312]}}, {"type": "Feature", "properties": {"name": "New Rochelle", "mode": "Metro-North"}, "geometry": {"type": "Point", "coordinates": [-73.783793, 40.911594]}}, {"type": "Feature", "properties": {"name": "Larchmont", "mode": "Metro-North"}, "geometry": {"type": "Point", "coordinates": [-73.759788, 40.93339]}}, {"type": "Feature", "properties": {"name": "Mamaroneck", "mode": "Metro-North"}, "geometry": {"type": "Point", "coordinates": [-73.736125, 40.954061]}}, {"type": "Feature", "properties": {"name": "Harrison", "mode": "Metro-North"}, "geometry": {"type": "Point", "coordinates": [-73.712965, 40.969439]}}, {"type": "Feature", "properties": {"name": "Rye", "mode": "Metro-North"}, "geometry": {"type": "Point", "coordinates": [-73.682565, 40.985978]}}, {"type": "Feature", "properties": {"name": "Port Chester", "mode": "Metro-North"}, "geometry": {"type": "Point", "coordinates": [-73.664684, 41.000719]}}]}