{"type": "FeatureCollection", "features": [{"type": "Feature", "properties": {"name": "Hudson Line", "color": "#009B3A"}, "geometry": {"type": "LineString", "coordinates": [[-73.873021, 41.039993], [-73.87304, 41.03989], [-73.87309, 41.03962], [-73.87315, 41.03935], [-73.8732, 41.03908], [-73.87325, 41.03881], [-73.87331, 41.03854], [-73.87337, 41.03827], [-73.87344, 41.03799], [-73.8735, 41.03772], [-73.87358, 41.03746], [-73.87367, 41.03719], [-73.87376, 41.03692], [-73.87386, 41.03666], [-73.87395, 41.0364], [-73.87406, 41.03613], [-73.87416, 41.03587], [-73.87427, 41.03561], [-73.87437, 41.03534], [-73.87447, 41.03508], [-73.87458, 41.03482], [-73.87468, 41.03455], [-73.87479, 41.03429], [-73.87489, 41.03403], [-73.87499, 41.03376], [-73.8751, 41.0335], [-73.8752, 41.03324], [-73.87531, 41.03297], [-73.8754, 41.03271], [-73.87551, 41.03245], [-73.87561, 41.03218], [-73.87572, 41.03192], [-73.87582, 41.03166], [-73.87592, 41.03139], [-73.87601, 41.03113], [-73.87611, 41.03086], [-73.87618, 41.0306], [-73.87626, 41.03033], [-73.87633, 41.03006], [-73.87639, 41.02979], [-73.87644, 41.02952], [-73.8765, 41.02924], [-73.87653, 41.02897], [-73.87656, 41.0287], [-73.87659, 41.02842], [-73.87661, 41.02815], [-73.87663, 41.02788], [-73.87663, 41.0276], [-73.87664, 41.02733], [-73.87665, 41.02705], [-73.87666, 41.02678], [-73.87667, 41.0265], [-73.87668, 41.02623], [-73.87669, 41.02596], [-73.87672, 41.02568], [-73.87675, 41.02541], [-73.87679, 41.02514], [-73.87682, 41.02486], [-73.87687, 41.02459], [-73.87692, 41.02432], [-73.87698, 41.02405], [-73.87702, 41.02377], [-73.87708, 41.0235], [-73.87713, 41.02323], [-73.87718, 41.02296], [-73.87723, 41.02269], [-73.87728, 41.02242], [-73.87733, 41.02214], [-73.87739, 41.02187], [-73.87743, 41.0216], [-73.87749, 41.02133], [-73.87754, 41.02106], [-73.87759, 41.02079], [-73.87764, 41.02051], [-73.87769, 41.02024], [-73.87775, 41.01997], [-73.8778, 41.0197], [-73.87785, 41.01943], [-73.8779, 41.01915], [-73.87795, 41.01888], [-73.87801, 41.01861], [-73.87806, 41.01834], [-73.87811, 41.01807], [-73.87816, 41.0178], [-73.87821, 41.01752], [-73.87826, 41.01725], [-73.87831, 41.01698], [-73.87836, 41.01671], [-73.87842, 41.01644], [-73.87846, 41.01617], [-73.87852, 41.01589], [-73.87857, 41.01562], [-73.87862, 41.01535], [-73.87868, 41.01508], [-73.87873, 41.01481], [-73.87879, 41.01454], [-73.87885, 41.01427], [-73.87892, 41.014], [-73.879, 41.01373], [-73.87907, 41.01346], [-73.87916, 41.01319], [-73.87924, 41.01292], [-73.87933, 41.01266], [-73.87943, 41.0124], [-73.87953, 41.01213], [-73.87964, 41.01187], [-73.87975, 41.01161], [-73.87987, 41.01135], [-73.87999, 41.01109], [-73.88011, 41.01083], [-73.88024, 41.01057], [-73.88038, 41.01032], [-73.88052, 41.01007], [-73.88066, 41.00982], [-73.88081, 41.00956], [-73.88095, 41.00931], [-73.8811, 41.00906], [-73.88125, 41.00881], [-73.88139, 41.00856], [-73.88154, 41.00831], [-73.88169, 41.00806], [-73.88184, 41.0078], [-73.88197, 41.00755], [-73.88211, 41.0073], [-73.88225, 41.00705], [-73.88237, 41.00679], [-73.88249, 41.00653], [-73.88261, 41.00627], [-73.88272, 41.00601], [-73.88282, 41.00574], [-73.88293, 41.00548], [-73.88302, 41.00521], [-73.8831, 41.00495], [-73.88319, 41.00468], [-73.88326, 41.00441], [-73.88334, 41.00414], [-73.8834, 41.00387], [-73.88346, 41.0036], [-73.88351, 41.00333], [-73.88357, 41.00306], [-73.88361, 41.00279], [-73.88364, 41.00251], [-73.88367, 41.00224], [-73.88371, 41.00197], [-73.88374, 41.00169], [-73.88377, 41.00142], [-73.8838, 41.00114], [-73.88382, 41.00087], [-73.88385, 41.0006], [-73.88388, 41.00032], [-73.88391, 41.00005], [-73.88393, 40.99978], [-73.88396, 40.9995], [-73.884, 40.99923], [-73.88402, 40.99895], [-73.88405, 40.99868], [-73.88408, 40.99841], [-73.88411, 40.99813], [-73.88413, 40.99786], [-73.88416, 40.99759], [-73.88419, 40.99731], [-73.88422, 40.99704], [-73.88425, 40.99677], [-73.88427, 40.99649], [-73.88429, 40.99622], [-73.88432, 40.99594], [-73.88433, 40.99567], [-73.88435, 40.9954], [-73.88436, 40.99512], [-73.88438, 40.99485], [-73.88439, 40.99457], [-73.88441, 40.9943], [-73.88443, 40.99403], [-73.88445, 40.99375], [-73.88446, 40.99348], [-73.88448, 40.9932], [-73.88449, 40.99293], [-73.88451, 40.99265], [-73.88452, 40.99238], [-73.88454, 40.9921], [-73.88456, 40.99183], [-73.88457, 40.99156], [-73.88459, 40.99128], [-73.88461, 40.99101], [-73.88462, 40.99073], [-73.88464, 40.99046], [-73.88465, 40.99018], [-73.88467, 40.98991], [-73.88469, 40.98964], [-73.8847, 40.98936], [-73.88472, 40.98909], [-73.88474, 40.98882], [-73.88475, 40.98854], [-73.88477, 40.98827], [-73.88478, 40.98799], [-73.8848, 40.98772], [-73.88481, 40.98744], [-73.88483, 40.98717], [-73.88486, 40.98689], [-73.88489, 40.98662], [-73.88493, 40.98635], [-73.88499, 40.98608], [-73.88505, 40.98581], [-73.88512, 40.98554], [-73.88521, 40.98527], [-73.88529, 40.985], [-73.88538, 40.98474], [-73.88546, 40.98447], [-73.88555, 40.9842], [-73.88564, 40.98394], [-73.88572, 40.98367], [-73.8858, 40.9834], [-73.88589, 40.98314], [-73.88598, 40.98287], [-73.88606, 40.9826], [-73.88615, 40.98234], [-73.88624, 40.98207], [-73.88632, 40.9818], [-73.88641, 40.98154], [-73.88649, 40.98127], [-73.88658, 40.981], [-73.88667, 40.98074], [-73.88675, 40.98047], [-73.88683, 40.9802], [-73.88692, 40.97993], [-73.88701, 40.97967], [-73.88709, 40.9794], [-73.88718, 40.97914], [-73.88727, 40.97887], [-73.88735, 40.9786], [-73.88744, 40.97834], [-73.88753, 40.97807], [-73.88761, 40.9778], [-73.8877, 40.97754], [-73.88779, 40.97727], [-73.88787, 40.977], [-73.88795, 40.97673], [-73.88805, 40.97647], [-73.88813, 40.9762], [-73.88821, 40.97594], [-73.8883, 40.97567], [-73.88839, 40.9754], [-73.88847, 40.97514], [-73.88856, 40.97487], [-73.88864, 40.9746], [-73.88873, 40.97433], [-73.88882, 40.97407], [-73.8889, 40.9738], [-73.88898, 40.97353], [-73.88908, 40.97327], [-73.88916, 40.973], [-73.88924, 40.97274], [-73.88933, 40.97247], [-73.88942, 40.9722], [-73.8895, 40.97194], [-73.88959, 40.97167], [-73.88967, 40.9714], [-73.88976, 40.97113], [-73.88984, 40.97087], [-73.88992, 40.9706], [-73.89, 40.97033], [-73.89007, 40.97006], [-73.89014, 40.96979], [-73.8902, 40.96952], [-73.89026, 40.96925], [-73.89031, 40.96898], [-73.89037, 40.96871], [-73.89043, 40.96844], [-73.89049, 40.96817], [-73.89055, 40.9679], [-73.89061, 40.96762], [-73.89066, 40.96735], [-73.89072, 40.96708], [-73.89078, 40.96681], [-73.89084, 40.96654], [-73.8909, 40.96627], [-73.89095, 40.966], [-73.89101, 40.96573], [-73.89108, 40.96546], [-73.89113, 40.96519], [-73.89119, 40.96492], [-73.89126, 40.96465], [-73.89133, 40.96438], [-73.89142, 40.96411], [-73.89152, 40.96384], [-73.89162, 40.96358], [-73.89173, 40.96332], [-73.89185, 40.96306], [-73.89198, 40.96281], [-73.89212, 40.96255], [-73.89227, 40.9623], [-73.89243, 40.96206], [-73.89259, 40.96181], [-73.89277, 40.96157], [-73.89295, 40.96133], [-73.89314, 40.9611], [-73.89333, 40.96087], [-73.89352, 40.96063], [-73.8937, 40.9604], [-73.89389, 40.96016], [-73.89408, 40.95993], [-73.89427, 40.95969], [-73.89446, 40.95946], [-73.89465, 40.95922], [-73.89484, 40.95899], [-73.89503, 40.95876], [-73.89522, 40.95852], [-73.8954, 40.95829], [-73.89558, 40.95805], [-73.89576, 40.95781], [-73.89594, 40.95757], [-73.8961, 40.95732], [-73.89626, 40.95708], [-73.89642, 40.95683], [-73.89658, 40.95658], [-73.89672, 40.95633], [-73.89687, 40.95608], [-73.897, 40.95583], [-73.89713, 40.95557], [-73.89725, 40.95531], [-73.89738, 40.95506], [-73.89749, 40.9548], [-73.89761, 40.95453], [-73.89771, 40.95427], [-73.8978, 40.95401], [-73.8979, 40.95374], [-73.89799, 40.95347], [-73.89807, 40.95321], [-73.89816, 40.95294], [-73.89824, 40.95267], [-73.89832, 40.9524], [-73.8984, 40.95214], [-73.89848, 40.95187], [-73.89857, 40.9516], [-73.89865, 40.95134], [-73.89874, 40.95107], [-73.89882, 40.9508], [-73.8989, 40.95053], [-73.89898, 40.95027], [-73.89906, 40.95], [-73.89915, 40.94973], [-73.89923, 40.94946], [-73.89931, 40.9492], [-73.89939, 40.94893], [-73.89946, 40.94866], [-73.89953, 40.94839], [-73.89959, 40.94812], [-73.89964, 40.94785], [-73.89968, 40.94757], [-73.89972, 40.9473], [-73.89975, 40.94703], [-73.89977, 40.94675], [-73.89978, 40.94648], [-73.89979, 40.94621], [-73.89979, 40.94593], [-73.89978, 40.94566], [-73.89977, 40.94538], [-73.89974, 40.94511], [-73.89972, 40.94484], [-73.89969, 40.94456], [-73.89966, 40.94429], [-73.89963, 40.94401], [-73.8996, 40.94374], [-73.89957, 40.94347], [-73.89954, 40.94319], [-73.89951, 40.94292], [-73.89948, 40.94265], [-73.89947, 40.94237], [-73.89945, 40.9421], [-73.89946, 40.94182], [-73.89948, 40.94155], [-73.8995, 40.94127], [-73.89954, 40.941], [-73.89959, 40.94073], [-73.89965, 40.94046], [-73.89973, 40.94019], [-73.89982, 40.93993], [-73.89992, 40.93966], [-73.90003, 40.9394], [-73.90016, 40.93914], [-73.9003, 40.93889], [-73.90044, 40.93864], [-73.9006, 40.93839], [-73.90076, 40.93814], [-73.90092, 40.9379], [-73.90109, 40.93766], [-73.90127, 40.93742], [-73.90144, 40.93718], [-73.90161, 40.93693], [-73.90179, 40.93669], [-73.90195, 40.93645], [-73.90213, 40.93621], [-73.90231, 40.93597], [-73.90247, 40.93573], [-73.90263, 40.93548], [-73.90279, 40.93523], [-73.90293, 40.93498], [-73.90306, 40.93472], [-73.90318, 40.93446], [-73.90328, 40.9342], [-73.90337, 40.93393], [-73.90345, 40.93367], [-73.90352, 40.9334], [-73.90356, 40.93312], [-73.9036, 40.93285], [-73.90363, 40.93258], [-73.90365, 40.9323], [-73.90367, 40.93203], [-73.90369, 40.93176], [-73.90371, 40.93148], [-73.90372, 40.93121], [-73.90375, 40.93093], [-73.90376, 40.93066], [-73.90379, 40.93038], [-73.9038, 40.93011], [-73.90382, 40.92984], [-73.90385, 40.92956], [-73.90386, 40.92929], [-73.90388, 40.92901], [-73.9039, 40.92874], [-73.90392, 40.92846], [-73.90394, 40.92819], [-73.90396, 40.92792], [-73.90398, 40.92764], [-73.904, 40.92737], [-73.90402, 40.92709], [-73.90405, 40.92682], [-73.90408, 40.92655], [-73.90412, 40.92627], [-73.90417, 40.926], [-73.90423, 40.92573], [-73.9043, 40.92546], [-73.90437, 40.92519], [-73.90447, 40.92493], [-73.90458, 40.92467], [-73.9047, 40.92441], [-73.90483, 40.92415], [-73.90498, 40.9239], [-73.90514, 40.92365], [-73.9053, 40.92341], [-73.90548, 40.92317], [-73.90566, 40.92294], [-73.90585, 40.9227], [-73.90604, 40.92247], [-73.90623, 40.92223], [-73.90642, 40.922], [-73.90661, 40.92176], [-73.9068, 40.92153], [-73.90698, 40.9213], [-73.90717, 40.92106], [-73.90736, 40.92082], [-73.90753, 40.92059], [-73.90771, 40.92035], [-73.90788, 40.9201], [-73.90804, 40.91985], [-73.90819, 40.91961], [-73.90833, 40.91935], [-73.90848, 40.9191], [-73.90861, 40.91885], [-73.90874, 40.91859], [-73.90886, 40.91833], [-73.90897, 40.91807], [-73.90909, 40.91781], [-73.90919, 40.91755], [-73.90931, 40.91729], [-73.90942, 40.91703], [-73.90953, 40.91676], [-73.90964, 40.9165], [-73.90975, 40.91624], [-73.90987, 40.91598], [-73.90997, 40.91572], [-73.91009, 40.91546], [-73.91019, 40.9152], [-73.91031, 40.91494], [-73.91042, 40.91467], [-73.91053, 40.91441], [-73.91064, 40.91415], [-73.91074, 40.91389], [-73.91084, 40.91362], [-73.91093, 40.91336], [-73.91102, 40.91309], [-73.91109, 40.91282], [-73.91116, 40.91255], [-73.91123, 40.91228], [-73.9113, 40.91201], [-73.91137, 40.91174], [-73.91144, 40.91148], [-73.91151, 40.91121], [-73.91158, 40.91093], [-73.91164, 40.91067], [-73.91171, 40.9104], [-73.91179, 40.91013], [-73.91186, 40.90986], [-73.91193, 40.90959], [-73.91199, 40.90932], [-73.91206, 40.90905], [-73.91214, 40.90878], [-73.91222, 40.90851], [-73.9123, 40.90825], [-73.91239, 40.90798], [-73.91249, 40.90771], [-73.91259, 40.90745], [-73.91269, 40.90719], [-73.91279, 40.90693], [-73.91289, 40.90666], [-73.91299, 40.90639], [-73.91309, 40.90613], [-73.91319, 40.90587], [-73.91328, 40.90561], [-73.91338, 40.90534], [-73.91348, 40.90508], [-73.91358, 40.90481], [-73.91368, 40.90455], [-73.91378, 40.90429], [-73.91388, 40.90402], [-73.91398, 40.90376], [-73.91408, 40.90349], [-73.91418, 40.90323], [-73.91428, 40.90297], [-73.91438, 40.9027], [-73.91448, 40.90244], [-73.91458, 40.90217], [-73.91468, 40.90191], [-73.91478, 40.90165], [-73.91488, 40.90138], [-73.91498, 40.90112], [-73.91508, 40.90085], [-73.91518, 40.90059], [-73.91528, 40.90033], [-73.91537, 40.90006], [-73.91547, 40.8998], [-73.91557, 40.89953], [-73.91567, 40.89927], [-73.91578, 40.89901], [-73.91588, 40.89874], [-73.91598, 40.89848], [-73.91608, 40.89821], [-73.91618, 40.89795], [-73.91628, 40.89769], [-73.91637, 40.89742], [-73.91647, 40.89716], [-73.91657, 40.8969], [-73.91667, 40.89663], [-73.91677, 40.89637], [-73.91687, 40.8961], [-73.91697, 40.89584], [-73.91707, 40.89558], [-73.91717, 40.89531], [-73.91727, 40.89505], [-73.91737, 40.89478], [-73.91747, 40.89452], [-73.91757, 40.89426], [-73.91767, 40.89399], [-73.91777, 40.89373], [-73.91787, 40.89346], [-73.91797, 40.8932], [-73.91807, 40.89294], [-73.91817, 40.89267], [-73.91827, 40.89241], [-73.91837, 40.89214], [-73.91846, 40.89188], [-73.91856, 40.89162], [-73.91866, 40.89135], [-73.91876, 40.89109], [-73.91886, 40.89082], [-73.91896, 40.89056], [-73.91907, 40.8903], [-73.91917, 40.89003], [-73.91927, 40.88977], [-73.91936, 40.8895], [-73.91946, 40.88924], [-73.91956, 40.88898], [-73.91966, 40.88871], [-73.91977, 40.88845], [-73.91988, 40.88819], [-73.91999, 40.88793], [-73.9201, 40.88767], [-73.92023, 40.88741], [-73.92034, 40.88715], [-73.92046, 40.88689], [-73.92058, 40.88663], [-73.9207, 40.88637], [-73.92081, 40.88611], [-73.92094, 40.88585], [-73.92105, 40.88559], [-73.92117, 40.88533], [-73.92129, 40.88507], [-73.92141, 40.88482], [-73.92152, 40.88456], [-73.92165, 40.8843], [-73.92176, 40.88404], [-73.92188, 40.88378], [-73.922, 40.88352], [-73.92212, 40.88326], [-73.92224, 40.883], [-73.92236, 40.88274], [-73.92248, 40.88248], [-73.92259, 40.88222], [-73.92271, 40.88196], [-73.92283, 40.8817], [-73.92294, 40.88144], [-73.92303, 40.88117], [-73.92309, 40.8809], [-73.9231, 40.88063], [-73.92309, 40.88036], [-73.92303, 40.88008], [-73.92292, 40.87982], [-73.92278, 40.87957], [-73.9226, 40.87933], [-73.92239, 40.87911], [-73.92216, 40.87889], [-73.92194, 40.87868], [-73.92171, 40.87847], [-73.92148, 40.87825], [-73.92124, 40.87804], [-73.92101, 40.87783], [-73.92078, 40.87762], [-73.92056, 40.87741], [-73.92033, 40.8772], [-73.9201, 40.87698], [-73.91986, 40.87677], [-73.91962, 40.87658], [-73.91934, 40.8764], [-73.91904, 40.87624], [-73.91872, 40.87612], [-73.91837, 40.87603], [-73.91802, 40.87597], [-73.91766, 40.87594], [-73.9173, 40.87594], [-73.91694, 40.87594], [-73.91658, 40.87593], [-73.91621, 40.87591], [-73.91586, 40.87585], [-73.91552, 40.87577], [-73.91518, 40.87568], [-73.91484, 40.87558], [-73.91451, 40.87548], [-73.91416, 40.87538], [-73.91383, 40.87529], [-73.91349, 40.87519], [-73.91315, 40.87509], [-73.91281, 40.87499], [-73.91248, 40.87489], [-73.91214, 40.87479], [-73.9118, 40.87469], [-73.91148, 40.87458], [-73.91116, 40.87444], [-73.91085, 40.87429], [-73.91057, 40.87413], [-73.91029, 40.87395], [-73.91003, 40.87376], [-73.90979, 40.87356], [-73.90956, 40.87334], [-73.90936, 40.87312], [-73.90916, 40.87289], [-73.90898, 40.87265], [-73.90883, 40.8724], [-73.90868, 40.87215], [-73.90856, 40.87189], [-73.90846, 40.87162], [-73.90838, 40.87136], [-73.90831, 40.87109], [-73.90826, 40.87082], [-73.90824, 40.87054], [-73.90823, 40.87027], [-73.90825, 40.86999], [-73.90829, 40.86972], [-73.90834, 40.86945], [-73.90842, 40.86918], [-73.90851, 40.86892], [-73.90862, 40.86865], [-73.90873, 40.86839], [-73.90885, 40.86813], [-73.90897, 40.86787], [-73.9091, 40.86761], [-73.90921, 40.86736], [-73.90933, 40.8671], [-73.90945, 40.86684], [-73.90957, 40.86658], [-73.90969, 40.86632], [-73.90981, 40.86606], [-73.90993, 40.8658], [-73.91005, 40.86554], [-73.91017, 40.86528], [-73.91029, 40.86502], [-73.91042, 40.86477], [-73.91056, 40.86452], [-73.91072, 40.86427], [-73.9109, 40.86403], [-73.91109, 40.8638], [-73.91131, 40.86358], [-73.91154, 40.86337], [-73.91177, 40.86316], [-73.91203, 40.86296], [-73.91228, 40.86276], [-73.91253, 40.86256], [-73.91278, 40.86237], [-73.91303, 40.86217], [-73.91328, 40.86197], [-73.91353, 40.86177], [-73.91378, 40.86158], [-73.91403, 40.86138], [-73.91428, 40.86118], [-73.91454, 40.86098], [-73.91479, 40.86079], [-73.91504, 40.86059], [-73.91529, 40.86039], [-73.91554, 40.8602], [-73.91579, 40.86], [-73.91604, 40.85979], [-73.91627, 40.85958], [-73.91649, 40.85937], [-73.91669, 40.85914], [-73.91688, 40.8589], [-73.91705, 40.85866], [-73.9172, 40.85841], [-73.91734, 40.85816], [-73.91745, 40.8579], [-73.91756, 40.85764], [-73.91766, 40.85737], [-73.91777, 40.85711], [-73.91788, 40.85685], [-73.91799, 40.85659], [-73.91811, 40.85633], [-73.91825, 40.85608], [-73.9184, 40.85582], [-73.91855, 40.85558], [-73.91872, 40.85534], [-73.9189, 40.85509], [-73.91909, 40.85486], [-73.91928, 40.85463], [-73.91949, 40.8544], [-73.91969, 40.85418], [-73.9199, 40.85395], [-73.92011, 40.85373], [-73.92032, 40.85351], [-73.92053, 40.85328], [-73.92074, 40.85306], [-73.92095, 40.85284], [-73.92117, 40.85261], [-73.92137, 40.85239], [-73.92159, 40.85217], [-73.92179, 40.85194], [-73.922, 40.85172], [-73.92221, 40.8515], [-73.92242, 40.85127], [-73.92264, 40.85105], [-73.92284, 40.85083], [-73.92306, 40.85061], [-73.92326, 40.85038], [-73.92348, 40.85015], [-73.92369, 40.84993], [-73.9239, 40.84971], [-73.92411, 40.84949], [-73.92432, 40.84926], [-73.92453, 40.84904], [-73.92474, 40.84882], [-73.92495, 40.84859], [-73.92516, 40.84837], [-73.92537, 40.84815], [-73.92558, 40.84792], [-73.92579, 40.8477], [-73.92598, 40.84747], [-73.92617, 40.84723], [-73.92634, 40.84699], [-73.92649, 40.84674], [-73.92664, 40.84649], [-73.92678, 40.84624], [-73.92693, 40.84599], [-73.92706, 40.84573], [-73.92721, 40.84548], [-73.92735, 40.84523], [-73.92749, 40.84497], [-73.92764, 40.84472], [-73.92777, 40.84447], [-73.92792, 40.84422], [-73.92805, 40.84396], [-73.9282, 40.84371], [-73.92834, 40.84346], [-73.92848, 40.84321], [-73.92862, 40.84295], [-73.92876, 40.8427], [-73.9289, 40.84245], [-73.92904, 40.84219], [-73.92918, 40.84194], [-73.9293, 40.84168], [-73.92941, 40.84142], [-73.92952, 40.84116], [-73.92963, 40.8409], [-73.92974, 40.84064], [-73.92985, 40.84037], [-73.92995, 40.84011], [-73.93006, 40.83985], [-73.93018, 40.83959], [-73.93028, 40.83932], [-73.93038, 40.83906], [-73.93049, 40.8388], [-73.93059, 40.83854], [-73.93068, 40.83827], [-73.93077, 40.83801], [-73.93085, 40.83774], [-73.93093, 40.83747], [-73.93102, 40.8372], [-73.93109, 40.83693], [-73.93116, 40.83667], [-73.93124, 40.8364], [-73.93131, 40.83613], [-73.93139, 40.83586], [-73.93147, 40.83559], [-73.93154, 40.83532], [-73.93162, 40.83505], [-73.93169, 40.83479], [-73.93177, 40.83451], [-73.93185, 40.83425], [-73.93192, 40.83398], [-73.93199, 40.83371], [-73.93207, 40.83344], [-73.93214, 40.83318], [-73.93222, 40.8329], [-73.93229, 40.83263], [-73.93236, 40.83237], [-73.93242, 40.8321], [-73.93249, 40.83183], [-73.93254, 40.83155], [-73.9326, 40.83128], [-73.93266, 40.83101], [-73.93271, 40.83074], [-73.93275, 40.83047], [-73.93276, 40.83019], [-73.93275, 40.82992], [-73.93271, 40.82965], [-73.93264, 40.82938], [-73.93254, 40.82911], [-73.93242, 40.82886], [-73.93227, 40.82861], [-73.9321, 40.82836], [-73.93192, 40.82812], [-73.93175, 40.82788], [-73.93157, 40.82764], [-73.9314, 40.8274], [-73.93121, 40.82716], [-73.93104, 40.82693], [-73.93086, 40.82669], [-73.93069, 40.82645], [-73.93051, 40.82621], [-73.93033, 40.82597], [-73.93015, 40.82573], [-73.92998, 40.82549], [-73.9298, 40.82525], [-73.92963, 40.82501], [-73.92944, 40.82477], [-73.92927, 40.82453], [-73.92909, 40.82429], [-73.92892, 40.82405], [-73.92874, 40.82381], [-73.92856, 40.82357], [-73.92838, 40.82333], [-73.92821, 40.8231], [-73.92803, 40.82286], [-73.92786, 40.82262], [-73.92768, 40.82238], [-73.9275, 40.82214], [-73.92732, 40.8219], [-73.92715, 40.82166], [-73.92697, 40.82142], [-73.9268, 40.82118], [-73.92662, 40.82094], [-73.92644, 40.8207], [-73.92626, 40.82046], [-73.92609, 40.82022], [-73.92592, 40.81998], [-73.92578, 40.81973], [-73.92564, 40.81947], [-73.92557, 40.8192], [-73.92554, 40.81893], [-73.92556, 40.81866], [-73.9256, 40.81838], [-73.92569, 40.81812], [-73.92582, 40.81786], [-73.92596, 40.81761], [-73.92612, 40.81736], [-73.92627, 40.81711], [-73.92644, 40.81687], [-73.92661, 40.81663], [-73.92677, 40.81638], [-73.92694, 40.81614], [-73.92712, 40.8159], [-73.92729, 40.81566], [-73.92747, 40.81542], [-73.92764, 40.81518], [-73.92781, 40.81494], [-73.92797, 40.81469], [-73.92812, 40.81444], [-73.92828, 40.8142], [-73.92846, 40.81395], [-73.92863, 40.81372], [-73.92883, 40.81348], [-73.92905, 40.81327], [-73.92929, 40.81306], [-73.92955, 40.81287], [-73.92982, 40.81269], [-73.93011, 40.81253], [-73.93041, 40.81238], [-73.93073, 40.81224], [-73.93105, 40.81212], [-73.93137, 40.81199], [-73.93169, 40.81187], [-73.93202, 40.81174], [-73.93234, 40.81162], [-73.93266, 40.8115], [-73.93298, 40.81137], [-73.9333, 40.81125], [-73.93363, 40.81112], [-73.93395, 40.811], [-73.93427, 40.81087], [-73.93458, 40.81073], [-73.93486, 40.81055], [-73.93511, 40.81036], [-73.93533, 40.81014], [-73.93552, 40.80991], [-73.93571, 40.80967], [-73.93588, 40.80943], [-73.93606, 40.80919], [-73.93623, 40.80895], [-73.93641, 40.80871], [-73.93658, 40.80847], [-73.93675, 40.80823], [-73.93693, 40.80799], [-73.9371, 40.80775], [-73.93728, 40.80751], [-73.93745, 40.80727], [-73.93763, 40.80703], [-73.93781, 40.80679], [-73.93798, 40.80655], [-73.93816, 40.80631], [-73.93833, 40.80607], [-73.93851, 40.80583], [-73.93868, 40.80559], [-73.93886, 40.80535], [-73.93903, 40.80511], [-73.93921, 40.80487], [-73.93938, 40.80463], [-73.93956, 40.80439], [-73.93974, 40.80415], [-73.93991, 40.80391], [-73.94009, 40.80367], [-73.94026, 40.80343], [-73.94044, 40.80319], [-73.94061, 40.80295], [-73.94079, 40.80271], [-73.94096, 40.80247], [-73.94114, 40.80223], [-73.94131, 40.80199], [-73.94149, 40.80175], [-73.94167, 40.80151], [-73.94184, 40.80127], [-73.94202, 40.80103], [-73.94219, 40.80079], [-73.94237, 40.80055], [-73.94254, 40.80031], [-73.94272, 40.80007], [-73.94289, 40.79983], [-73.94307, 40.79959], [-73.94324, 40.79935], [-73.94342, 40.79911], [-73.9436, 40.79887], [-73.94377, 40.79863], [-73.94395, 40.79839], [-73.94412, 40.79815], [-73.94429, 40.7979], [-73.94447, 40.79766], [-73.94464, 40.79742], [-73.94482, 40.79719], [-73.94499, 40.79695], [-73.94517, 40.79671], [-73.94534, 40.79647], [-73.94552, 40.79623], [-73.94569, 40.79599], [-73.94587, 40.79574], [-73.94604, 40.7955], [-73.94622, 40.79526], [-73.94639, 40.79502], [-73.94656, 40.79478], [-73.94674, 40.79454], [-73.94691, 40.7943], [-73.94709, 40.79406], [-73.94727, 40.79382], [-73.94744, 40.79358], [-73.94762, 40.79334], [-73.94779, 40.7931], [-73.94797, 40.79286], [-73.94814, 40.79262], [-73.94832, 40.79238], [-73.94849, 40.79214], [-73.94867, 40.7919], [-73.94884, 40.79166], [-73.94902, 40.79142], [-73.9492, 40.79118], [-73.94937, 40.79094], [-73.94955, 40.7907], [-73.94972, 40.79046], [-73.9499, 40.79022], [-73.95007, 40.78998], [-73.95025, 40.78974], [-73.95042, 40.7895], [-73.9506, 40.78926], [-73.95078, 40.78902], [-73.95095, 40.78878], [-73.95113, 40.78854], [-73.9513, 40.7883], [-73.95148, 40.78806], [-73.95165, 40.78782], [-73.95183, 40.78758], [-73.952, 40.78734], [-73.95218, 40.7871], [-73.95235, 40.78686], [-73.95253, 40.78662], [-73.95271, 40.78638], [-73.95287, 40.78614], [-73.95305, 40.7859], [-73.95322, 40.78566], [-73.9534, 40.78542], [-73.95358, 40.78518], [-73.95375, 40.78494], [-73.95393, 40.7847], [-73.9541, 40.78446], [-73.95428, 40.78422], [-73.95445, 40.78398], [-73.95463, 40.78374], [-73.9548, 40.7835], [-73.95498, 40.78326], [-73.95515, 40.78302], [-73.95533, 40.78278], [-73.95551, 40.78254], [-73.95568, 40.7823], [-73.95586, 40.78206], [-73.95603, 40.78182], [-73.95621, 40.78158], [-73.95638, 40.78134], [-73.95656, 40.7811], [-73.95673, 40.78086], [-73.95691, 40.78062], [-73.95708, 40.78038], [-73.95726, 40.78014], [-73.95744, 40.7799], [-73.95761, 40.77966], [-73.95778, 40.77942], [-73.95795, 40.77918], [-73.95813, 40.77894], [-73.95831, 40.7787], [-73.95848, 40.77846], [-73.95866, 40.77822], [-73.95883, 40.77798], [-73.95901, 40.77774], [-73.95918, 40.7775], [-73.95936, 40.77726], [-73.95953, 40.77702], [-73.95971, 40.77678], [-73.95988, 40.77654], [-73.96006, 40.7763], [-73.96024, 40.77606], [-73.96041, 40.77582], [-73.96059, 40.77558], [-73.96076, 40.77534], [-73.96094, 40.7751], [-73.96111, 40.77486], [-73.96129, 40.77462], [-73.96146, 40.77438], [-73.96164, 40.77414], [-73.96181, 40.7739], [-73.96199, 40.77365], [-73.96217, 40.77341], [-73.96234, 40.77317], [-73.96252, 40.77293], [-73.96268, 40.77269], [-73.96286, 40.77246], [-73.96304, 40.77222], [-73.96321, 40.77198], [-73.96339, 40.77174], [-73.96356, 40.7715], [-73.96374, 40.77126], [-73.96391, 40.77102], [-73.96409, 40.77077], [-73.96426, 40.77053], [-73.96444, 40.77029], [-73.96461, 40.77005], [-73.96479, 40.76981], [-73.96497, 40.76957], [-73.96514, 40.76933], [-73.96532, 40.76909], [-73.96549, 40.76885], [-73.96567, 40.76861], [-73.96584, 40.76837], [-73.96602, 40.76813], [-73.96619, 40.76789], [-73.96636, 40.76765], [-73.96654, 40.76741], [-73.96671, 40.76717], [-73.96689, 40.76693], [-73.96706, 40.76669], [-73.96724, 40.76645], [-73.96741, 40.76621], [-73.96759, 40.76597], [-73.96777, 40.76573], [-73.96794, 40.76549], [-73.96812, 40.76525], [-73.96829, 40.76501], [-73.96847, 40.76477], [-73.96864, 40.76453], [-73.96882, 40.76429], [-73.96899, 40.76405], [-73.96917, 40.76381], [-73.96935, 40.76357], [-73.96952, 40.76333], [-73.9697, 40.76309], [-73.96987, 40.76285], [-73.97004, 40.76261], [-73.97021, 40.76237], [-73.97039, 40.76213], [-73.97057, 40.76189], [-73.97074, 40.76165], [-73.97092, 40.76141], [-73.97111, 40.76118], [-73.97129, 40.76094], [-73.97147, 40.7607], [-73.97166, 40.76047], [-73.97185, 40.76023], [-73.97203, 40.75999], [-73.97221, 40.75976], [-73.9724, 40.75952], [-73.97258, 40.75929], [-73.97276, 40.75905], [-73.97295, 40.75882], [-73.97314, 40.75858], [-73.97332, 40.75834], [-73.9735, 40.75811], [-73.97369, 40.75787], [-73.97387, 40.75763], [-73.97406, 40.7574], [-73.97424, 40.75716], [-73.97443, 40.75693], [-73.97461, 40.75669], [-73.97479, 40.75645], [-73.97498, 40.75622], [-73.97517, 40.75598], [-73.97535, 40.75574], [-73.97553, 40.75551], [-73.97572, 40.75528], [-73.9759, 40.75504], [-73.97608, 40.7548], [-73.97627, 40.75457], [-73.97646, 40.75433], [-73.97664, 40.75409], [-73.97682, 40.75386], [-73.97701, 40.75362], [-73.97719, 40.75339], [-73.97738, 40.75315]]}}, {"type": "Feature", "properties": {"name": "Harlem Line", "color": "#0039A6"}, "geometry": {"type": "LineString", "coordinates": [[-73.92596, 40.81761], [-73.92564, 40.81781], [-73.92545, 40.81804], [-73.92525, 40.81827], [-73.92505, 40.8185], [-73.92484, 40.81872], [-73.92463, 40.81895], [-73.92442, 40.81917], [-73.92419, 40.81939], [-73.92397, 40.8196], [-73.92374, 40.81982], [-73.92352, 40.82003], [-73.92328, 40.82023], [-73.92304, 40.82044], [-73.9228, 40.82064], [-73.92255, 40.82084], [-73.9223, 40.82104], [-73.92204, 40.82124], [-73.92178, 40.82142], [-73.92152, 40.82161], [-73.92125, 40.82179], [-73.92097, 40.82197], [-73.9207, 40.82215], [-73.92043, 40.82233], [-73.92015, 40.82251], [-73.91987, 40.82268], [-73.91959, 40.82286], [-73.91932, 40.82304], [-73.91904, 40.82321], [-73.91876, 40.82339], [-73.91849, 40.82357], [-73.91821, 40.82374], [-73.91794, 40.82392], [-73.91766, 40.8241], [-73.91738, 40.82428], [-73.91711, 40.82445], [-73.91683, 40.82463], [-73.91656, 40.82481], [-73.91628, 40.82498], [-73.916, 40.82516], [-73.91573, 40.82534], [-73.91544, 40.82551], [-73.91517, 40.82569], [-73.91489, 40.82587], [-73.91462, 40.82604], [-73.91434, 40.82622], [-73.91406, 40.8264], [-73.91379, 40.82657], [-73.91351, 40.82675], [-73.91323, 40.82693], [-73.91296, 40.8271], [-73.91268, 40.82728], [-73.91241, 40.82745], [-73.91212, 40.82763], [-73.91186, 40.82781], [-73.91158, 40.82799], [-73.91132, 40.82818], [-73.91106, 40.82837], [-73.9108, 40.82856], [-73.91055, 40.82876], [-73.91032, 40.82897], [-73.91009, 40.82918], [-73.90987, 40.8294], [-73.90966, 40.82962], [-73.90946, 40.82985], [-73.90927, 40.83009], [-73.9091, 40.83033], [-73.90893, 40.83057], [-73.90877, 40.83082], [-73.90862, 40.83107], [-73.90848, 40.83132], [-73.90833, 40.83157], [-73.9082, 40.83183], [-73.90805, 40.83208], [-73.90791, 40.83233], [-73.90777, 40.83258], [-73.90762, 40.83284], [-73.90749, 40.83309], [-73.90734, 40.83334], [-73.9072, 40.83359], [-73.90706, 40.83385], [-73.90691, 40.8341], [-73.90678, 40.83435], [-73.90663, 40.8346], [-73.90649, 40.83485], [-73.90635, 40.83511], [-73.9062, 40.83536], [-73.90607, 40.83561], [-73.90592, 40.83587], [-73.90578, 40.83612], [-73.90564, 40.83637], [-73.90549, 40.83662], [-73.90536, 40.83688], [-73.90521, 40.83713], [-73.90507, 40.83738], [-73.90493, 40.83763], [-73.90479, 40.83789], [-73.90465, 40.83814], [-73.9045, 40.83839], [-73.90436, 40.83864], [-73.90422, 40.83889], [-73.90408, 40.83915], [-73.90393, 40.8394], [-73.90379, 40.83965], [-73.90365, 40.8399], [-73.90351, 40.84016], [-73.90337, 40.84041], [-73.90322, 40.84066], [-73.90308, 40.84092], [-73.90294, 40.84117], [-73.9028, 40.84142], [-73.90266, 40.84167], [-73.90251, 40.84193], [-73.90237, 40.84218], [-73.90223, 40.84243], [-73.90208, 40.84268], [-73.90195, 40.84293], [-73.9018, 40.84319], [-73.90166, 40.84344], [-73.90152, 40.84369], [-73.90137, 40.84394], [-73.90124, 40.8442], [-73.90109, 40.84445], [-73.90095, 40.8447], [-73.90081, 40.84496], [-73.90067, 40.84521], [-73.90053, 40.84546], [-73.90038, 40.84571], [-73.90024, 40.84596], [-73.9001, 40.84622], [-73.89996, 40.84647], [-73.89981, 40.84672], [-73.89967, 40.84697], [-73.89953, 40.84723], [-73.89938, 40.84748], [-73.89925, 40.84773], [-73.8991, 40.84798], [-73.89896, 40.84824], [-73.89882, 40.84849], [-73.89867, 40.84874], [-73.89853, 40.84899], [-73.89839, 40.84924], [-73.89825, 40.8495], [-73.8981, 40.84975], [-73.89796, 40.85], [-73.89782, 40.85025], [-73.89767, 40.85051], [-73.89753, 40.85076], [-73.89739, 40.85101], [-73.89725, 40.85126], [-73.8971, 40.85152], [-73.89697, 40.85177], [-73.89682, 40.85202], [-73.89668, 40.85227], [-73.89653, 40.85252], [-73.89639, 40.85278], [-73.89625, 40.85303], [-73.8961, 40.85328], [-73.89597, 40.85353], [-73.89582, 40.85379], [-73.89568, 40.85404], [-73.89553, 40.85429], [-73.89539, 40.85454], [-73.89525, 40.85479], [-73.8951, 40.85505], [-73.89495, 40.85529], [-73.89479, 40.85554], [-73.89463, 40.85579], [-73.89446, 40.85603], [-73.89429, 40.85627], [-73.89411, 40.85651], [-73.89394, 40.85675], [-73.89376, 40.85699], [-73.89359, 40.85723], [-73.89342, 40.85747], [-73.89324, 40.85771], [-73.89307, 40.85795], [-73.89289, 40.85819], [-73.89272, 40.85844], [-73.89254, 40.85868], [-73.89237, 40.85892], [-73.8922, 40.85916], [-73.89202, 40.8594], [-73.89185, 40.85964], [-73.89167, 40.85988], [-73.89149, 40.86012], [-73.89132, 40.86036], [-73.89114, 40.8606], [-73.89097, 40.86084], [-73.89079, 40.86108], [-73.89062, 40.86132], [-73.89044, 40.86156], [-73.89026, 40.8618], [-73.89008, 40.86203], [-73.88988, 40.86226], [-73.88968, 40.86249], [-73.88947, 40.86271], [-73.88924, 40.86293], [-73.88901, 40.86314], [-73.88876, 40.86334], [-73.8885, 40.86353], [-73.88824, 40.86372], [-73.88796, 40.8639], [-73.88768, 40.86406], [-73.88739, 40.86423], [-73.88709, 40.86439], [-73.8868, 40.86455], [-73.88651, 40.86471], [-73.88622, 40.86487], [-73.88592, 40.86503], [-73.88563, 40.86519], [-73.88533, 40.86535], [-73.88504, 40.86551], [-73.88474, 40.86567], [-73.88445, 40.86583], [-73.88416, 40.86599], [-73.88387, 40.86615], [-73.88357, 40.86631], [-73.88327, 40.86647], [-73.88298, 40.86663], [-73.88268, 40.86679], [-73.88239, 40.86695], [-73.8821, 40.86711], [-73.88181, 40.86727], [-73.88151, 40.86743], [-73.88122, 40.86758], [-73.88092, 40.86774], [-73.88063, 40.8679], [-73.88033, 40.86806], [-73.88004, 40.86823], [-73.87975, 40.86839], [-73.87945, 40.86855], [-73.87916, 40.86871], [-73.87886, 40.86887], [-73.87857, 40.86903], [-73.87827, 40.86918], [-73.87798, 40.86934], [-73.87769, 40.8695], [-73.8774, 40.86967], [-73.87711, 40.86983], [-73.87682, 40.87], [-73.87656, 40.87019], [-73.8763, 40.87038], [-73.87606, 40.87059], [-73.87583, 40.8708], [-73.87563, 40.87103], [-73.87543, 40.87125], [-73.87524, 40.87149], [-73.87506, 40.87173], [-73.87489, 40.87197], [-73.87471, 40.87221], [-73.87453, 40.87245], [-73.87435, 40.87268], [-73.87418, 40.87292], [-73.874, 40.87317], [-73.87382, 40.8734], [-73.87364, 40.87364], [-73.87347, 40.87388], [-73.87329, 40.87412], [-73.87312, 40.87436], [-73.87293, 40.8746], [-73.87276, 40.87484], [-73.87259, 40.87508], [-73.87243, 40.87533], [-73.87228, 40.87558], [-73.87213, 40.87583], [-73.87199, 40.87608], [-73.87187, 40.87634], [-73.87175, 40.8766], [-73.87164, 40.87686], [-73.87152, 40.87712], [-73.87141, 40.87738], [-73.8713, 40.87764], [-73.87119, 40.8779], [-73.87107, 40.87817], [-73.87096, 40.87843], [-73.87085, 40.87868], [-73.87074, 40.87895], [-73.87062, 40.87921], [-73.87051, 40.87947], [-73.8704, 40.87973], [-73.87029, 40.87999], [-73.87018, 40.88025], [-73.87006, 40.88051], [-73.86995, 40.88078], [-73.86983, 40.88103], [-73.86973, 40.8813], [-73.86961, 40.88156], [-73.8695, 40.88182], [-73.86939, 40.88208], [-73.86928, 40.88234], [-73.86916, 40.8826], [-73.86905, 40.88286], [-73.86894, 40.88313], [-73.86883, 40.88338], [-73.86871, 40.88364], [-73.8686, 40.88391], [-73.86849, 40.88417], [-73.86838, 40.88443], [-73.86826, 40.88469], [-73.86816, 40.88495], [-73.86804, 40.88521], [-73.86793, 40.88547], [-73.86781, 40.88573], [-73.86771, 40.88599], [-73.86759, 40.88626], [-73.86748, 40.88652], [-73.86737, 40.88678], [-73.86726, 40.88704], [-73.86714, 40.8873], [-73.86703, 40.88756], [-73.86692, 40.88782], [-73.86681, 40.88808], [-73.86669, 40.88834], [-73.86658, 40.8886], [-73.86647, 40.88887], [-73.86636, 40.88913], [-73.86624, 40.88939], [-73.86613, 40.88965], [-73.86601, 40.88991], [-73.86589, 40.89017], [-73.86577, 40.89042], [-73.86564, 40.89068], [-73.8655, 40.89093], [-73.86536, 40.89119], [-73.86522, 40.89144], [-73.86507, 40.89169], [-73.86492, 40.89194], [-73.86477, 40.89219], [-73.86462, 40.89244], [-73.86446, 40.89268], [-73.8643, 40.89293], [-73.86414, 40.89318], [-73.86397, 40.89342], [-73.86381, 40.89367], [-73.86365, 40.89391], [-73.86348, 40.89416], [-73.86332, 40.8944], [-73.86316, 40.89465], [-73.86299, 40.89489], [-73.86283, 40.89514], [-73.86267, 40.89538], [-73.8625, 40.89563], [-73.86234, 40.89587], [-73.86218, 40.89612], [-73.86201, 40.89636], [-73.86185, 40.89661], [-73.86137, 40.89734], [-73.86133, 40.8974], [-73.8612, 40.89759], [-73.86088, 40.89808], [-73.86071, 40.89832], [-73.86055, 40.89857], [-73.86038, 40.89882], [-73.86022, 40.89906], [-73.86006, 40.8993], [-73.85989, 40.89955], [-73.85973, 40.8998], [-73.85957, 40.90004], [-73.85941, 40.90028], [-73.85925, 40.90053], [-73.85909, 40.90078], [-73.85892, 40.90102], [-73.85876, 40.90126], [-73.85859, 40.90151], [-73.85843, 40.90176], [-73.85827, 40.902], [-73.8581, 40.90224], [-73.85794, 40.90249], [-73.85778, 40.90274], [-73.85761, 40.90298], [-73.85745, 40.90322], [-73.85729, 40.90347], [-73.85712, 40.90372], [-73.85696, 40.90396], [-73.8568, 40.90421], [-73.85664, 40.90445], [-73.85648, 40.9047], [-73.85631, 40.90494], [-73.85615, 40.90519], [-73.85599, 40.90543], [-73.85582, 40.90568], [-73.85566, 40.90592], [-73.85549, 40.90617], [-73.85533, 40.90641], [-73.85517, 40.90666], [-73.855, 40.9069], [-73.85484, 40.90715], [-73.85468, 40.90739], [-73.85452, 40.90763], [-73.85435, 40.90788], [-73.85419, 40.90813], [-73.85402, 40.90837], [-73.85386, 40.90862], [-73.85368, 40.90886], [-73.85351, 40.9091], [-73.85332, 40.90933], [-73.85313, 40.90956], [-73.85294, 40.9098], [-73.85275, 40.91003], [-73.85255, 40.91026], [-73.85236, 40.9105], [-73.85217, 40.91072], [-73.85197, 40.91096], [-73.85178, 40.91119], [-73.85159, 40.91142], [-73.85139, 40.91166], [-73.8512, 40.91188], [-73.85101, 40.91212], [-73.85081, 40.91235], [-73.85062, 40.91258], [-73.85042, 40.91281], [-73.85023, 40.91304], [-73.85004, 40.91328], [-73.84984, 40.91351], [-73.84965, 40.91374], [-73.84945, 40.91397], [-73.84926, 40.9142], [-73.84906, 40.91443], [-73.84887, 40.91467], [-73.84867, 40.9149], [-73.84848, 40.91513], [-73.84828, 40.91536], [-73.84809, 40.91559], [-73.8479, 40.91582], [-73.8477, 40.91606], [-73.84751, 40.91629], [-73.84731, 40.91652], [-73.84712, 40.91675], [-73.84692, 40.91698], [-73.84673, 40.91721], [-73.84653, 40.91745], [-73.84634, 40.91768], [-73.84615, 40.91791], [-73.84595, 40.91814], [-73.84576, 40.91837], [-73.84557, 40.91861], [-73.84538, 40.91883], [-73.84518, 40.91907], [-73.84499, 40.9193], [-73.84479, 40.91953], [-73.8446, 40.91976], [-73.8444, 40.91999], [-73.84421, 40.92023], [-73.84402, 40.92046], [-73.84384, 40.9207], [-73.84367, 40.92094], [-73.8435, 40.92118], [-73.84333, 40.92143], [-73.84318, 40.92167], [-73.84302, 40.92192], [-73.84286, 40.92217], [-73.84271, 40.92242], [-73.84255, 40.92267], [-73.8424, 40.92292], [-73.84225, 40.92316], [-73.84209, 40.92341], [-73.84193, 40.92366], [-73.84178, 40.92391], [-73.84163, 40.92416], [-73.84148, 40.9244], [-73.84132, 40.92465], [-73.84116, 40.9249], [-73.84101, 40.92515], [-73.84085, 40.9254], [-73.8407, 40.92564], [-73.84055, 40.9259], [-73.84039, 40.92614], [-73.84023, 40.92639], [-73.84008, 40.92664], [-73.83993, 40.92689], [-73.83977, 40.92714], [-73.83961, 40.92738], [-73.83946, 40.92763], [-73.83931, 40.92788], [-73.83915, 40.92813], [-73.839, 40.92838], [-73.83884, 40.92862], [-73.83869, 40.92887], [-73.83853, 40.92912], [-73.83838, 40.92937], [-73.83823, 40.92962], [-73.83807, 40.92987], [-73.83791, 40.93011], [-73.83776, 40.93036], [-73.83761, 40.93061], [-73.83745, 40.93086], [-73.8373, 40.93111], [-73.83714, 40.93135], [-73.83699, 40.9316], [-73.83683, 40.93185], [-73.83668, 40.9321], [-73.83652, 40.93235], [-73.83637, 40.9326], [-73.83624, 40.93285], [-73.83611, 40.93311], [-73.83601, 40.93337], [-73.83592, 40.93364], [-73.83586, 40.93391], [-73.83582, 40.93418], [-73.83578, 40.93446], [-73.83574, 40.93473], [-73.83571, 40.935], [-73.83567, 40.93528], [-73.83564, 40.93555], [-73.83561, 40.93582], [-73.83557, 40.9361], [-73.83554, 40.93637], [-73.8355, 40.93664], [-73.83546, 40.93692], [-73.83543, 40.93719], [-73.8354, 40.93746], [-73.83537, 40.93773], [-73.83533, 40.93801], [-73.8353, 40.93828], [-73.83526, 40.93855], [-73.83523, 40.93883], [-73.83519, 40.9391], [-73.83514, 40.93937], [-73.83511, 40.93965], [-73.83506, 40.93992], [-73.83502, 40.94019], [-73.83498, 40.94046], [-73.83495, 40.94074], [-73.83492, 40.94101], [-73.83488, 40.94128], [-73.83485, 40.94156], [-73.83482, 40.94183], [-73.83478, 40.9421], [-73.83475, 40.94238], [-73.83472, 40.94265], [-73.83469, 40.94292], [-73.83466, 40.9432], [-73.83464, 40.94347], [-73.83461, 40.94374], [-73.83457, 40.94402], [-73.83452, 40.94429], [-73.83446, 40.94456], [-73.83437, 40.94483], [-73.83427, 40.94509], [-73.83414, 40.94535], [-73.83401, 40.9456], [-73.83385, 40.94585], [-73.83368, 40.94609], [-73.8335, 40.94633], [-73.83329, 40.94656], [-73.83308, 40.94678], [-73.83285, 40.94699], [-73.8326, 40.9472], [-73.83237, 40.9474], [-73.83212, 40.9476], [-73.83187, 40.9478], [-73.83163, 40.948], [-73.83138, 40.9482], [-73.83113, 40.94841], [-73.83089, 40.9486], [-73.83064, 40.94881], [-73.83039, 40.94901], [-73.83015, 40.94921], [-73.8299, 40.94941], [-73.82965, 40.94961], [-73.82941, 40.94981], [-73.82915, 40.95001], [-73.82891, 40.95021], [-73.82867, 40.95041], [-73.82842, 40.95061], [-73.82817, 40.95082], [-73.82793, 40.95102], [-73.82768, 40.95122], [-73.82743, 40.95142], [-73.82719, 40.95162], [-73.82695, 40.95183], [-73.82672, 40.95204], [-73.8265, 40.95226], [-73.82629, 40.95248], [-73.82608, 40.95271], [-73.82589, 40.95294], [-73.8257, 40.95317], [-73.82551, 40.9534], [-73.82531, 40.95364], [-73.82512, 40.95387], [-73.82493, 40.95411], [-73.82474, 40.95434], [-73.82455, 40.95457], [-73.82436, 40.9548], [-73.82417, 40.95504], [-73.82397, 40.95527], [-73.82378, 40.95551], [-73.82359, 40.95574], [-73.8234, 40.95597], [-73.82321, 40.9562], [-73.82302, 40.95644], [-73.82283, 40.95667], [-73.82264, 40.9569], [-73.82245, 40.95713], [-73.82226, 40.95737], [-73.82206, 40.9576], [-73.82187, 40.95784], [-73.82168, 40.95807], [-73.82149, 40.9583], [-73.8213, 40.95853], [-73.82111, 40.95877], [-73.82092, 40.959], [-73.82072, 40.95924], [-73.82053, 40.95947], [-73.82035, 40.95971], [-73.82018, 40.95995], [-73.82001, 40.96019], [-73.81986, 40.96044], [-73.81973, 40.96069], [-73.8196, 40.96095], [-73.81947, 40.96121], [-73.81937, 40.96147], [-73.81925, 40.96173], [-73.81915, 40.96199], [-73.81904, 40.96225], [-73.81892, 40.96252], [-73.81882, 40.96278], [-73.81871, 40.96304], [-73.8186, 40.9633], [-73.81849, 40.96357], [-73.81838, 40.96383], [-73.81827, 40.96409], [-73.81816, 40.96435], [-73.81805, 40.96461], [-73.81794, 40.96487], [-73.81783, 40.96513], [-73.81773, 40.9654], [-73.81761, 40.96566], [-73.8175, 40.96592], [-73.8174, 40.96618], [-73.81728, 40.96644], [-73.81718, 40.96671], [-73.81707, 40.96696], [-73.81696, 40.96723], [-73.81685, 40.96749], [-73.81674, 40.96775], [-73.81663, 40.96801], [-73.81652, 40.96828], [-73.81641, 40.96854], [-73.8163, 40.9688], [-73.81619, 40.96906], [-73.81609, 40.96932], [-73.81597, 40.96959], [-73.81586, 40.96984], [-73.81576, 40.97011], [-73.81564, 40.97037], [-73.81554, 40.97063], [-73.81543, 40.97089], [-73.81532, 40.97115], [-73.81521, 40.97142], [-73.8151, 40.97168], [-73.81499, 40.97194], [-73.81488, 40.9722], [-73.81477, 40.97246], [-73.81466, 40.97272], [-73.81455, 40.97299], [-73.81445, 40.97325], [-73.81433, 40.97351], [-73.81422, 40.97377], [-73.81412, 40.97403], [-73.814, 40.9743], [-73.8139, 40.97456], [-73.81379, 40.97482], [-73.81367, 40.97508], [-73.81357, 40.97534], [-73.81346, 40.97561], [-73.81335, 40.97586], [-73.81324, 40.97613], [-73.81313, 40.97639], [-73.81302, 40.97665], [-73.81291, 40.97691], [-73.81281, 40.97717], [-73.81269, 40.97744], [-73.81258, 40.9777], [-73.81248, 40.97796], [-73.81236, 40.97822], [-73.81226, 40.97848], [-73.81215, 40.97874], [-73.81203, 40.97901], [-73.81193, 40.97927], [-73.81182, 40.97953], [-73.81171, 40.97979], [-73.8116, 40.98005], [-73.81149, 40.98032], [-73.81138, 40.98058], [-73.81127, 40.98084], [-73.81116, 40.9811], [-73.81105, 40.98136], [-73.81094, 40.98162], [-73.81084, 40.98188], [-73.81072, 40.98215], [-73.81062, 40.98241], [-73.81051, 40.98267], [-73.81039, 40.98293], [-73.81029, 40.98319], [-73.81018, 40.98346], [-73.81007, 40.98372], [-73.80996, 40.98398], [-73.80985, 40.98424], [-73.80975, 40.9845], [-73.80964, 40.98477], [-73.80955, 40.98503], [-73.80946, 40.9853], [-73.80936, 40.98557], [-73.80929, 40.98583], [-73.80922, 40.9861], [-73.80915, 40.98637], [-73.80909, 40.98664], [-73.80903, 40.98691], [-73.80897, 40.98718], [-73.80891, 40.98745], [-73.80885, 40.98772], [-73.8088, 40.988], [-73.80874, 40.98827], [-73.80868, 40.98854], [-73.80862, 40.98881], [-73.80856, 40.98908], [-73.8085, 40.98935], [-73.80845, 40.98962], [-73.80839, 40.98989], [-73.80833, 40.99016], [-73.80827, 40.99043], [-73.80821, 40.9907], [-73.80815, 40.99097], [-73.80809, 40.99125], [-73.80803, 40.99152], [-73.80795, 40.99179], [-73.80786, 40.99205], [-73.80776, 40.99231], [-73.80764, 40.99257], [-73.80751, 40.99283], [-73.80737, 40.99308], [-73.80724, 40.99334], [-73.80709, 40.99359], [-73.80695, 40.99384], [-73.80682, 40.9941], [-73.80667, 40.99435], [-73.80653, 40.9946], [-73.8064, 40.99486], [-73.80625, 40.99511], [-73.80611, 40.99536], [-73.80597, 40.99562], [-73.80583, 40.99587], [-73.80569, 40.99612], [-73.80555, 40.99638], [-73.80541, 40.99663], [-73.80527, 40.99688], [-73.80513, 40.99714], [-73.80499, 40.99739], [-73.80485, 40.99764], [-73.80471, 40.99789], [-73.80457, 40.99815], [-73.80443, 40.9984], [-73.8043, 40.99866], [-73.80417, 40.99891], [-73.80404, 40.99917], [-73.80392, 40.99943], [-73.80379, 40.99968], [-73.80367, 40.99994], [-73.80354, 41.0002], [-73.80341, 41.00046], [-73.80328, 41.00071], [-73.80314, 41.00097], [-73.80299, 41.00122], [-73.80283, 41.00146], [-73.80267, 41.00171], [-73.8025, 41.00195], [-73.80234, 41.0022], [-73.80217, 41.00244], [-73.802, 41.00269], [-73.80183, 41.00293], [-73.80167, 41.00317], [-73.80151, 41.00342], [-73.80134, 41.00366], [-73.80118, 41.0039], [-73.80101, 41.00415], [-73.80084, 41.00439], [-73.80067, 41.00464], [-73.80051, 41.00488], [-73.80035, 41.00513], [-73.80018, 41.00537], [-73.80002, 41.00562], [-73.79985, 41.00586], [-73.79968, 41.0061], [-73.79951, 41.00635], [-73.79935, 41.00659], [-73.79919, 41.00684], [-73.79902, 41.00708], [-73.79885, 41.00732], [-73.79868, 41.00756], [-73.79849, 41.0078], [-73.7983, 41.00803], [-73.7981, 41.00826], [-73.79789, 41.00848], [-73.79768, 41.00871], [-73.79747, 41.00893], [-73.79726, 41.00916], [-73.79705, 41.00938], [-73.79684, 41.00961], [-73.79663, 41.00983], [-73.79642, 41.01005], [-73.79621, 41.01028], [-73.79601, 41.0105], [-73.79579, 41.01072], [-73.79559, 41.01095], [-73.79537, 41.01117], [-73.79517, 41.01139], [-73.79495, 41.01162], [-73.79475, 41.01184], [-73.79454, 41.01207], [-73.79433, 41.01229], [-73.79413, 41.01252], [-73.79392, 41.01275], [-73.79372, 41.01298], [-73.79353, 41.01321], [-73.79333, 41.01344], [-73.79313, 41.01366], [-73.79292, 41.01389], [-73.79272, 41.01412], [-73.7925, 41.01434], [-73.7923, 41.01456], [-73.79208, 41.01479], [-73.79188, 41.01501], [-73.79166, 41.01524], [-73.79146, 41.01546], [-73.79124, 41.01569], [-73.79104, 41.01591], [-73.79082, 41.01613], [-73.79062, 41.01636], [-73.79041, 41.01658], [-73.7902, 41.0168], [-73.78999, 41.01703], [-73.78978, 41.01725], [-73.78957, 41.01748], [-73.78936, 41.0177], [-73.78915, 41.01793], [-73.78894, 41.01815], [-73.78873, 41.01837], [-73.78852, 41.0186], [-73.78831, 41.01882], [-73.7881, 41.01904], [-73.78789, 41.01927], [-73.78768, 41.01949], [-73.78747, 41.01971], [-73.78725, 41.01993], [-73.78703, 41.02015], [-73.7868, 41.02037], [-73.78658, 41.02058], [-73.78636, 41.0208], [-73.78614, 41.02102], [-73.78592, 41.02124], [-73.7857, 41.02145], [-73.78548, 41.02167], [-73.78526, 41.02189], [-73.78503, 41.02211], [-73.78481, 41.02232], [-73.78458, 41.02253], [-73.78434, 41.02274], [-73.7841, 41.02295], [-73.78387, 41.02316], [-73.78365, 41.02337], [-73.78342, 41.02358], [-73.78319, 41.0238], [-73.78297, 41.02401], [-73.78274, 41.02423], [-73.78252, 41.02444], [-73.78229, 41.02466], [-73.78206, 41.02487], [-73.78183, 41.02509], [-73.78159, 41.02529], [-73.78135, 41.02549], [-73.7811, 41.02569], [-73.78084, 41.02589], [-73.78058, 41.02607], [-73.7803, 41.02626], [-73.78003, 41.02644], [-73.77975, 41.02661], [-73.77946, 41.02678], [-73.77918, 41.02695], [-73.7789, 41.02712], [-73.77862, 41.02729], [-73.77834, 41.02747], [-73.77805, 41.02764], [-73.77776, 41.02781], [-73.77748, 41.02798], [-73.7772, 41.02815], [-73.77692, 41.02832], [-73.77665, 41.0285], [-73.77639, 41.0287], [-73.77615, 41.0289], [-73.77593, 41.02912], [-73.77573, 41.02935], [-73.77555, 41.02959], [-73.7754, 41.02984], [-73.77527, 41.03009], [-73.77516, 41.03036], [-73.77508, 41.03062], [-73.77502, 41.0309], [-73.77499, 41.03117], [-73.77498, 41.03144], [-73.77499, 41.03172], [-73.77501, 41.03199], [-73.77503, 41.03227], [-73.77505, 41.03254]]}}, {"type": "Feature", "properties": {"name": "New Haven Line", "color": "#EE0034"}, "geometry": {"type": "LineString", "coordinates": [[-73.86109, 40.89785], [-73.86091, 40.89808], [-73.86073, 40.89832], [-73.86054, 40.89856], [-73.86036, 40.89879], [-73.86018, 40.89903], [-73.86001, 40.89928], [-73.85983, 40.89951], [-73.85965, 40.89975], [-73.85947, 40.89999], [-73.85928, 40.90022], [-73.85908, 40.90045], [-73.85886, 40.90067], [-73.85865, 40.90089], [-73.85844, 40.90112], [-73.85822, 40.90133], [-73.85799, 40.90155], [-73.85778, 40.90177], [-73.85756, 40.90199], [-73.85734, 40.90221], [-73.85712, 40.90243], [-73.8569, 40.90265], [-73.85669, 40.90287], [-73.85649, 40.9031], [-73.85629, 40.90332], [-73.85609, 40.90355], [-73.8559, 40.90379], [-73.8557, 40.90401], [-73.8555, 40.90424], [-73.8553, 40.90448], [-73.8551, 40.90471], [-73.8549, 40.90493], [-73.85471, 40.90516], [-73.85452, 40.9054], [-73.85432, 40.90562], [-73.85412, 40.90585], [-73.85391, 40.90608], [-73.8537, 40.9063], [-73.85348, 40.90652], [-73.85323, 40.90672], [-73.85298, 40.90692], [-73.85272, 40.90711], [-73.85246, 40.9073], [-73.85219, 40.90748], [-73.85191, 40.90766], [-73.85163, 40.90783], [-73.85134, 40.908], [-73.85105, 40.90816], [-73.85075, 40.90831], [-73.85045, 40.90846], [-73.85014, 40.90861], [-73.84982, 40.90874], [-73.84951, 40.90888], [-73.84919, 40.909], [-73.84886, 40.90913], [-73.84853, 40.90924], [-73.8482, 40.90935], [-73.84786, 40.90945], [-73.84753, 40.90954], [-73.84718, 40.90963], [-73.84683, 40.9097], [-73.84648, 40.90977], [-73.84613, 40.90983], [-73.84577, 40.90988], [-73.84542, 40.90993], [-73.84506, 40.90999], [-73.84471, 40.91004], [-73.84435, 40.9101], [-73.844, 40.91015], [-73.84364, 40.9102], [-73.84329, 40.91026], [-73.84293, 40.91031], [-73.84258, 40.91037], [-73.84222, 40.91042], [-73.84187, 40.91047], [-73.84151, 40.91053], [-73.84116, 40.9106], [-73.84082, 40.91068], [-73.84048, 40.91077], [-73.84014, 40.91087], [-73.83981, 40.91098], [-73.83949, 40.9111], [-73.83916, 40.91123], [-73.83884, 40.91136], [-73.83852, 40.91148], [-73.8382, 40.91161], [-73.83787, 40.91172], [-73.83753, 40.91183], [-73.8372, 40.91192], [-73.83685, 40.912], [-73.8365, 40.91207], [-73.83614, 40.91213], [-73.83579, 40.91219], [-73.83543, 40.91222], [-73.83508, 40.91225], [-73.83471, 40.91227], [-73.83435, 40.91228], [-73.83399, 40.91228], [-73.83363, 40.91227], [-73.83327, 40.91224], [-73.83291, 40.9122], [-73.83255, 40.91216], [-73.8322, 40.91211], [-73.83184, 40.91205], [-73.83149, 40.912], [-73.83113, 40.91195], [-73.83078, 40.91189], [-73.83042, 40.91184], [-73.83006, 40.91179], [-73.82971, 40.91173], [-73.82935, 40.91168], [-73.829, 40.91163], [-73.82864, 40.91158], [-73.82829, 40.91154], [-73.82793, 40.91151], [-73.82757, 40.91148], [-73.8272, 40.91147], [-73.82684, 40.91147], [-73.82648, 40.91147], [-73.82612, 40.91149], [-73.82576, 40.91151], [-73.8254, 40.91155], [-73.82504, 40.9116], [-73.82469, 40.91165], [-73.82433, 40.91171], [-73.82398, 40.91177], [-73.82363, 40.91184], [-73.82328, 40.9119], [-73.82293, 40.91196], [-73.82258, 40.91203], [-73.82222, 40.91208], [-73.82186, 40.91212], [-73.8215, 40.91215], [-73.82114, 40.91217], [-73.82078, 40.91219], [-73.82042, 40.9122], [-73.82006, 40.91219], [-73.81969, 40.91218], [-73.81934, 40.91216], [-73.81898, 40.91213], [-73.81862, 40.91209], [-73.81826, 40.91205], [-73.81791, 40.91199], [-73.81755, 40.91193], [-73.81721, 40.91185], [-73.81686, 40.91178], [-73.81651, 40.9117], [-73.81616, 40.91162], [-73.81582, 40.91155], [-73.81547, 40.91147], [-73.81512, 40.91139], [-73.81477, 40.91132], [-73.81442, 40.91124], [-73.81408, 40.91116], [-73.81373, 40.91109], [-73.81339, 40.91101], [-73.81303, 40.91093], [-73.81269, 40.91085], [-73.81234, 40.91078], [-73.812, 40.9107], [-73.81165, 40.91063], [-73.8113, 40.91055], [-73.81095, 40.91047], [-73.81061, 40.91039], [-73.81026, 40.91032], [-73.80991, 40.91024], [-73.80956, 40.91016], [-73.80921, 40.91008], [-73.80887, 40.91001], [-73.80852, 40.90993], [-73.80817, 40.90985], [-73.80782, 40.90978], [-73.80748, 40.9097], [-73.80713, 40.90963], [-73.80679, 40.90955], [-73.80643, 40.90947], [-73.80609, 40.90939], [-73.80574, 40.90932], [-73.8054, 40.90924], [-73.80505, 40.90916], [-73.8047, 40.90909], [-73.80435, 40.90901], [-73.804, 40.90893], [-73.80366, 40.90886], [-73.80331, 40.90878], [-73.80296, 40.9087], [-73.80261, 40.90863], [-73.80227, 40.90855], [-73.80192, 40.90847], [-73.80157, 40.90839], [-73.80122, 40.90832], [-73.80088, 40.90824], [-73.80053, 40.90816], [-73.80019, 40.90808], [-73.79984, 40.90801], [-73.79949, 40.90793], [-73.79914, 40.90786], [-73.7988, 40.90778], [-73.79845, 40.9077], [-73.7981, 40.90762], [-73.79775, 40.90755], [-73.7974, 40.90747], [-73.79706, 40.90739], [-73.79671, 40.90732], [-73.79636, 40.90724], [-73.79601, 40.90717], [-73.79566, 40.9071], [-73.7953, 40.90705], [-73.79495, 40.90701], [-73.79459, 40.90697], [-73.79423, 40.90696], [-73.79387, 40.90694], [-73.7935, 40.90695], [-73.79314, 40.90696], [-73.79279, 40.90699], [-73.79243, 40.90702], [-73.79207, 40.90705], [-73.79171, 40.90709], [-73.79135, 40.90712], [-73.79099, 40.90716], [-73.79063, 40.9072], [-73.79028, 40.90725], [-73.78992, 40.90731], [-73.78957, 40.90738], [-73.78922, 40.90746], [-73.78889, 40.90755], [-73.78855, 40.90766], [-73.78822, 40.90778], [-73.78791, 40.90791], [-73.7876, 40.90805], [-73.78729, 40.9082], [-73.78699, 40.90835], [-73.78671, 40.90852], [-73.78644, 40.9087], [-73.78618, 40.90889], [-73.78593, 40.90909], [-73.78569, 40.9093], [-73.78547, 40.90951], [-73.78526, 40.90974], [-73.78506, 40.90997], [-73.78487, 40.9102], [-73.78469, 40.91044], [-73.78451, 40.91068], [-73.78432, 40.91091], [-73.78414, 40.91115], [-73.78395, 40.91138], [-73.78377, 40.91162], [-73.78358, 40.91186], [-73.7834, 40.91209], [-73.78322, 40.91233], [-73.78304, 40.91257], [-73.78285, 40.9128], [-73.78267, 40.91304], [-73.78249, 40.91328], [-73.7823, 40.91352], [-73.78212, 40.91375], [-73.78194, 40.91399], [-73.78175, 40.91423], [-73.78157, 40.91446], [-73.78138, 40.9147], [-73.7812, 40.91494], [-73.78101, 40.91517], [-73.78083, 40.91541], [-73.78065, 40.91564], [-73.78046, 40.91588], [-73.78028, 40.91611], [-73.7801, 40.91635], [-73.77991, 40.91659], [-73.77973, 40.91683], [-73.77955, 40.91706], [-73.77937, 40.9173], [-73.77917, 40.91754], [-73.77899, 40.91777], [-73.77881, 40.91801], [-73.77863, 40.91825], [-73.77844, 40.91848], [-73.77826, 40.91872], [-73.77808, 40.91896], [-73.77789, 40.91919], [-73.77771, 40.91943], [-73.77753, 40.91967], [-73.77734, 40.9199], [-73.77715, 40.92014], [-73.77695, 40.92036], [-73.77675, 40.92059], [-73.77654, 40.92081], [-73.77631, 40.92103], [-73.77608, 40.92124], [-73.77584, 40.92144], [-73.77559, 40.92165], [-73.77534, 40.92184], [-73.77508, 40.92203], [-73.77482, 40.92222], [-73.77455, 40.92241], [-73.77429, 40.9226], [-73.77402, 40.92279], [-73.77377, 40.92297], [-73.7735, 40.92316], [-73.77324, 40.92335], [-73.77297, 40.92354], [-73.77271, 40.92373], [-73.77245, 40.92392], [-73.77219, 40.92411], [-73.77192, 40.92429], [-73.77166, 40.92448], [-73.77139, 40.92467], [-73.77113, 40.92486], [-73.77087, 40.92505], [-73.7706, 40.92524], [-73.77034, 40.92542], [-73.77007, 40.92561], [-73.76981, 40.9258], [-73.76955, 40.92599], [-73.76929, 40.92618], [-73.76902, 40.92636], [-73.76876, 40.92655], [-73.76849, 40.92674], [-73.76823, 40.92693], [-73.76797, 40.92712], [-73.76771, 40.92731], [-73.76744, 40.92749], [-73.76717, 40.92768], [-73.76691, 40.92787], [-73.76665, 40.92806], [-73.76639, 40.92825], [-73.76612, 40.92844], [-73.76586, 40.92862], [-73.76559, 40.92881], [-73.76534, 40.929], [-73.76507, 40.92919], [-73.76481, 40.92937], [-73.76454, 40.92957], [-73.76428, 40.92975], [-73.76402, 40.92994], [-73.76376, 40.93013], [-73.76349, 40.93032], [-73.76323, 40.93051], [-73.76298, 40.9307], [-73.76272, 40.9309], [-73.76247, 40.9311], [-73.76221, 40.93129], [-73.76196, 40.93149], [-73.76171, 40.93169], [-73.76147, 40.93189], [-73.76122, 40.93209], [-73.76098, 40.9323], [-73.76074, 40.9325], [-73.7605, 40.93271], [-73.76026, 40.93291], [-73.76003, 40.93312], [-73.75979, 40.93333], [-73.75955, 40.93354], [-73.75932, 40.93374], [-73.75908, 40.93395], [-73.75884, 40.93416], [-73.75861, 40.93437], [-73.75836, 40.93457], [-73.75813, 40.93478], [-73.75789, 40.93499], [-73.75765, 40.9352], [-73.75742, 40.9354], [-73.75718, 40.93561], [-73.75694, 40.93582], [-73.75671, 40.93602], [-73.75647, 40.93623], [-73.75623, 40.93644], [-73.75599, 40.93665], [-73.75575, 40.93686], [-73.75552, 40.93706], [-73.75528, 40.93727], [-73.75504, 40.93748], [-73.75481, 40.93768], [-73.75457, 40.93789], [-73.75433, 40.9381], [-73.75409, 40.9383], [-73.75385, 40.93851], [-73.75362, 40.93872], [-73.75338, 40.93893], [-73.75314, 40.93913], [-73.75291, 40.93934], [-73.75267, 40.93955], [-73.75243, 40.93975], [-73.7522, 40.93996], [-73.75195, 40.94017], [-73.75172, 40.94038], [-73.75148, 40.94059], [-73.75124, 40.94079], [-73.75101, 40.941], [-73.75077, 40.94121], [-73.75053, 40.94141], [-73.7503, 40.94162], [-73.75006, 40.94183], [-73.74982, 40.94204], [-73.74958, 40.94224], [-73.74934, 40.94245], [-73.74911, 40.94266], [-73.74887, 40.94286], [-73.74863, 40.94307], [-73.7484, 40.94328], [-73.74816, 40.94349], [-73.74792, 40.9437], [-73.74768, 40.9439], [-73.74744, 40.94411], [-73.74721, 40.94432], [-73.74697, 40.94452], [-73.74673, 40.94473], [-73.7465, 40.94494], [-73.74626, 40.94514], [-73.74603, 40.94535], [-73.74578, 40.94556], [-73.74554, 40.94577], [-73.74531, 40.94598], [-73.74507, 40.94618], [-73.74483, 40.94639], [-73.7446, 40.9466], [-73.74436, 40.9468], [-73.74413, 40.94701], [-73.74389, 40.94722], [-73.74365, 40.94743], [-73.74342, 40.94764], [-73.74318, 40.94784], [-73.74294, 40.94805], [-73.7427, 40.94826], [-73.74246, 40.94846], [-73.74223, 40.94867], [-73.74199, 40.94888], [-73.74175, 40.94909], [-73.74152, 40.9493], [-73.74128, 40.9495], [-73.74104, 40.94971], [-73.74081, 40.94992], [-73.74057, 40.95012], [-73.74033, 40.95033], [-73.7401, 40.95054], [-73.73985, 40.95075], [-73.73962, 40.95095], [-73.73938, 40.95116], [-73.73914, 40.95137], [-73.73891, 40.95158], [-73.73867, 40.95178], [-73.73843, 40.95199], [-73.7382, 40.9522], [-73.73795, 40.9524], [-73.73772, 40.95261], [-73.73748, 40.95282], [-73.73724, 40.95303], [-73.73701, 40.95323], [-73.73677, 40.95344], [-73.73653, 40.95365], [-73.73629, 40.95385], [-73.73605, 40.95406], [-73.73582, 40.95427], [-73.73558, 40.95448], [-73.73534, 40.95468], [-73.7351, 40.95489], [-73.73486, 40.9551], [-73.73463, 40.9553], [-73.73439, 40.95551], [-73.73415, 40.95572], [-73.73392, 40.95592], [-73.73367, 40.95613], [-73.73344, 40.95634], [-73.7332, 40.95655], [-73.73296, 40.95675], [-73.73273, 40.95696], [-73.73249, 40.95717], [-73.73225, 40.95737], [-73.73202, 40.95758], [-73.73178, 40.95779], [-73.73154, 40.958], [-73.7313, 40.95821], [-73.73106, 40.95841], [-73.73083, 40.95862], [-73.73059, 40.95883], [-73.73035, 40.95903], [-73.73012, 40.95924], [-73.72987, 40.95945], [-73.72964, 40.95966], [-73.7294, 40.95986], [-73.72916, 40.96007], [-73.72893, 40.96028], [-73.72869, 40.96048], [-73.72845, 40.96069], [-73.72822, 40.9609], [-73.72797, 40.96111], [-73.72774, 40.96132], [-73.7275, 40.96152], [-73.72726, 40.96173], [-73.72703, 40.96194], [-73.72679, 40.96214], [-73.72655, 40.96235], [-73.72632, 40.96256], [-73.72607, 40.96276], [-73.72584, 40.96297], [-73.7256, 40.96318], [-73.72536, 40.96339], [-73.72513, 40.96359], [-73.72489, 40.9638], [-73.72466, 40.96401], [-73.72442, 40.96422], [-73.72418, 40.96442], [-73.72394, 40.96463], [-73.72369, 40.96483], [-73.72344, 40.96503], [-73.72318, 40.96522], [-73.72292, 40.96541], [-73.72265, 40.96559], [-73.72237, 40.96577], [-73.72209, 40.96594], [-73.72181, 40.96611], [-73.72152, 40.96628], [-73.72124, 40.96645], [-73.72095, 40.96662], [-73.72066, 40.96679], [-73.72038, 40.96695], [-73.72009, 40.96712], [-73.7198, 40.96729], [-73.71951, 40.96745], [-73.71922, 40.96761], [-73.71893, 40.96777], [-73.71862, 40.96792], [-73.71832, 40.96807], [-73.71799, 40.9682], [-73.71767, 40.96833], [-73.71735, 40.96845], [-73.71702, 40.96856], [-73.71668, 40.96866], [-73.71634, 40.96875], [-73.716, 40.96884], [-73.71564, 40.96891], [-73.7153, 40.96899], [-73.71495, 40.96906], [-73.7146, 40.96913], [-73.71425, 40.9692], [-73.7139, 40.96927], [-73.71355, 40.96935], [-73.7132, 40.96942], [-73.71285, 40.96949], [-73.7125, 40.96956], [-73.71215, 40.96963], [-73.7118, 40.9697], [-73.71145, 40.96978], [-73.71111, 40.96984], [-73.71075, 40.96992], [-73.7104, 40.96999], [-73.71005, 40.97006], [-73.7097, 40.97013], [-73.70936, 40.97021], [-73.70901, 40.97029], [-73.70866, 40.97038], [-73.70833, 40.97047], [-73.70799, 40.97057], [-73.70766, 40.97069], [-73.70734, 40.97081], [-73.70702, 40.97094], [-73.7067, 40.97108], [-73.70641, 40.97123], [-73.7061, 40.97139], [-73.70581, 40.97155], [-73.70553, 40.97172], [-73.70525, 40.9719], [-73.70498, 40.97208], [-73.70471, 40.97226], [-73.70444, 40.97244], [-73.70417, 40.97263], [-73.7039, 40.97281], [-73.70363, 40.97299], [-73.70335, 40.97317], [-73.70308, 40.97335], [-73.70281, 40.97353], [-73.70254, 40.97372], [-73.70227, 40.9739], [-73.702, 40.97408], [-73.70173, 40.97426], [-73.70145, 40.97445], [-73.70119, 40.97462], [-73.70091, 40.97481], [-73.70064, 40.97499], [-73.70037, 40.97517], [-73.7001, 40.97535], [-73.69983, 40.97554], [-73.69955, 40.97572], [-73.69929, 40.9759], [-73.69901, 40.97608], [-73.69874, 40.97626], [-73.69847, 40.97644], [-73.6982, 40.97663], [-73.69793, 40.97681], [-73.69765, 40.97699], [-73.69739, 40.97717], [-73.69711, 40.97735], [-73.69685, 40.97754], [-73.69657, 40.97772], [-73.6963, 40.9779], [-73.69603, 40.97808], [-73.69576, 40.97826], [-73.69549, 40.97844], [-73.69521, 40.97863], [-73.69495, 40.97881], [-73.69467, 40.97899], [-73.6944, 40.97917], [-73.69413, 40.97935], [-73.69386, 40.97954], [-73.69359, 40.97972], [-73.69331, 40.9799], [-73.69305, 40.98008], [-73.69277, 40.98026], [-73.6925, 40.98045], [-73.69223, 40.98063], [-73.69196, 40.98081], [-73.69169, 40.98099], [-73.69141, 40.98117], [-73.69115, 40.98135], [-73.69087, 40.98154], [-73.69061, 40.98172], [-73.69033, 40.9819], [-73.69006, 40.98208], [-73.68979, 40.98227], [-73.68951, 40.98244], [-73.68925, 40.98263], [-73.68897, 40.98281], [-73.68871, 40.98299], [-73.68843, 40.98317], [-73.68816, 40.98336], [-73.68789, 40.98354], [-73.68761, 40.98372], [-73.68735, 40.9839], [-73.68707, 40.98409], [-73.68681, 40.98426], [-73.68653, 40.98445], [-73.68626, 40.98463], [-73.68597, 40.9848], [-73.68568, 40.98496], [-73.68538, 40.98512], [-73.68507, 40.98526], [-73.68475, 40.98539], [-73.68443, 40.98551], [-73.6841, 40.98563], [-73.68377, 40.98574], [-73.68343, 40.98584], [-73.68309, 40.98593], [-73.68275, 40.98601], [-73.6824, 40.98609], [-73.68204, 40.98616], [-73.68169, 40.98622], [-73.68134, 40.98627], [-73.68098, 40.98633], [-73.68063, 40.98639], [-73.68027, 40.98645], [-73.67992, 40.98651], [-73.67957, 40.98658], [-73.67922, 40.98666], [-73.67888, 40.98674], [-73.67854, 40.98684], [-73.67821, 40.98695], [-73.67788, 40.98706], [-73.67755, 40.98718], [-73.67723, 40.98731], [-73.67692, 40.98745], [-73.67661, 40.9876], [-73.67632, 40.98775], [-73.67603, 40.98792], [-73.67574, 40.98809], [-73.67546, 40.98826], [-73.67519, 40.98845], [-73.67493, 40.98864], [-73.67469, 40.98884], [-73.67445, 40.98904], [-73.67422, 40.98925], [-73.674, 40.98947], [-73.67378, 40.9897], [-73.67358, 40.98992], [-73.67339, 40.99015], [-73.67319, 40.99039], [-73.673, 40.99062], [-73.67281, 40.99085], [-73.67262, 40.99108], [-73.67242, 40.99131], [-73.67223, 40.99155], [-73.67204, 40.99178], [-73.67184, 40.99201], [-73.67165, 40.99224], [-73.67146, 40.99248], [-73.67126, 40.99271], [-73.67107, 40.99294], [-73.67088, 40.99318], [-73.67068, 40.99341], [-73.67049, 40.99364], [-73.6703, 40.99387], [-73.6701, 40.9941], [-73.66991, 40.99434], [-73.66972, 40.99457], [-73.66953, 40.9948], [-73.66933, 40.99503], [-73.66914, 40.99527], [-73.66895, 40.9955], [-73.66875, 40.99573], [-73.66856, 40.99596], [-73.66837, 40.9962], [-73.66818, 40.99643], [-73.66799, 40.99666], [-73.66779, 40.99689], [-73.6676, 40.99713], [-73.66741, 40.99736], [-73.66722, 40.99759], [-73.66702, 40.99783], [-73.66683, 40.99806], [-73.66664, 40.99829], [-73.66645, 40.99852], [-73.66625, 40.99876], [-73.66606, 40.99899], [-73.66587, 40.99922], [-73.66568, 40.99945], [-73.66548, 40.99968], [-73.66529, 40.99992], [-73.6651, 41.00015], [-73.6649, 41.00038], [-73.66471, 41.00061]]}}]}