{"type":"FeatureCollection","features":[{"type":"Feature","properties":{"name":"Bergen County"},"geometry":{"type":"Polygon","coordinates":[[[-74.272484,41.018312],[-74.26979,41.01632],[-74.269337,41.015974],[-74.269315,41.015957],[-74.269279,41.015929],[-74.269157,41.015833],[-74.268864,41.015621],[-74.2688305,41.0155965],[-74.268786,41.015564],[-74.268709,41.015508],[-74.268517,41.015369],[-74.26834,41.015241],[-74.268326,41.015231],[-74.268317,41.015224],[-74.268308,41.015217],[-74.268272,41.015191],[-74.268255,41.015179],[-74.268178,41.015123],[-74.268139,41.015095],[-74.267862,41.014894],[-74.2679549,41.0147777],[-74.2682909,41.0142323],[-74.268602,41.0137142],[-74.2687308,41.0134956],[-74.2687737,41.0134227],[-74.2686235,41.0132527],[-74.2684603,41.0131302],[-74.2682373,41.0129694],[-74.2679795,41.012843],[-74.2679127,41.0128027],[-74.266682,41.01404],[-74.266676,41.014035],[-74.266671,41.014031],[-74.266661,41.014024],[-74.265995,41.013528],[-74.265907,41.013462],[-74.265831,41.013406],[-74.265819,41.013397],[-74.265662,41.013278],[-74.264188,41.012164],[-74.264076,41.012079],[-74.262838,41.010529],[-74.26158,41.008956],[-74.261537,41.008902],[-74.259323,41.006131],[-74.2535148,40.9988613],[-74.252158,40.997163],[-74.248532,40.992094],[-74.2467499,40.9913891],[-74.2457634,40.9909475],[-74.2418327,40.989098],[-74.2404521,40.988525],[-74.2387602,40.9877403],[-74.237187,40.9870451],[-74.2339028,40.9856662],[-74.232767,40.9851589],[-74.231731,40.984688],[-74.231412,40.984543],[-74.231084,40.984394],[-74.230479,40.984118],[-74.230288,40.984031],[-74.228964,40.983425],[-74.2288778,40.9833856],[-74.228826,40.983362],[-74.2284504,40.9831928],[-74.2266679,40.9823899],[-74.2255729,40.9818966],[-74.224981,40.98163],[-74.224604,40.981592],[-74.224595,40.981591],[-74.2243213,40.9815633],[-74.2232025,40.9814503],[-74.222041,40.981333],[-74.222027,40.981331],[-74.22202,40.98133],[-74.222008,40.981329],[-74.221808,40.981306],[-74.220344,40.9811412],[-74.218486,40.980932],[-74.2155897,40.9806059],[-74.2118533,40.9801853],[-74.211732,40.980156],[-74.208171,40.979874],[-74.207248,40.979801],[-74.207239,40.9798],[-74.205515,40.979666],[-74.20473,40.979605],[-74.204702,40.979603],[-74.204138,40.979559],[-74.204124,40.979558],[-74.20386,40.979537],[-74.203653,40.979513],[-74.203645,40.979512],[-74.20083,40.97929],[-74.200294,40.979249],[-74.1991927,40.9791641],[-74.199134,40.979161],[-74.198997,40.979158],[-74.198904,40.979165],[-74.198882,40.979168],[-74.198688,40.979193],[-74.198285,40.979159],[-74.198078,40.97915],[-74.197349,40.9791],[-74.195744,40.97899],[-74.195571,40.978976],[-74.195564,40.978975],[-74.195472,40.978967],[-74.195441,40.978965],[-74.1950447,40.9789318],[-74.1947915,40.9789105],[-74.194463,40.978883],[-74.193636,40.978822],[-74.193615,40.97882],[-74.193547,40.978815],[-74.19185,40.978689],[-74.191843,40.978688],[-74.191835,40.978688],[-74.191821,40.978687],[-74.191754,40.978682],[-74.191746,40.978681],[-74.191735,40.97868],[-74.191724,40.97868],[-74.191546,40.978666],[-74.191487,40.978662],[-74.191377,40.978652],[-74.187369,40.978301],[-74.186287,40.978208],[-74.185745,40.978167],[-74.185619,40.978158],[-74.185406,40.978142],[-74.185325,40.978136],[-74.185318,40.978135],[-74.185308,40.978134],[-74.185281,40.978132],[-74.18524,40.978129],[-74.184576,40.978079],[-74.1843841,40.9780616],[-74.181319,40.977784],[-74.181301,40.977782],[-74.177055,40.977376],[-74.170988,40.976997],[-74.170464,40.9817],[-74.170462,40.981714],[-74.17021,40.983865],[-74.170089,40.983787],[-74.169721,40.98355],[-74.169673,40.98352],[-74.169606,40.983478],[-74.169549,40.983442],[-74.169415,40.983357],[-74.169002,40.983106],[-74.168748,40.982962],[-74.168547,40.982825],[-74.168419,40.98273],[-74.166198,40.981232],[-74.166049,40.981136],[-74.165284,40.980643],[-74.165273,40.980636],[-74.1646,40.980241],[-74.164356,40.980111],[-74.163711,40.979767],[-74.163432,40.979618],[-74.163424,40.979614],[-74.163211,40.979501],[-74.163058,40.979407],[-74.163051,40.979403],[-74.163016,40.979381],[-74.163009,40.979377],[-74.162983,40.979361],[-74.162304,40.978944],[-74.16229,40.978935],[-74.161141,40.978227],[-74.161116,40.978212],[-74.161022,40.978154],[-74.16094,40.978103],[-74.160934,40.978099],[-74.16091,40.978084],[-74.160119,40.977592],[-74.159947,40.977485],[-74.159778,40.97738],[-74.1583647,40.9765667],[-74.1582282,40.9764881],[-74.156605,40.975554],[-74.156345,40.975404],[-74.155691,40.97501],[-74.151401,40.972452],[-74.151143,40.97231],[-74.150212,40.971801],[-74.149951,40.971658],[-74.149846,40.971601],[-74.149784,40.971567],[-74.149173,40.971185],[-74.149088,40.971137],[-74.149072,40.971128],[-74.14905,40.971115],[-74.148871,40.971014],[-74.148626,40.970876],[-74.148494,40.970801],[-74.148072,40.970556],[-74.147261,40.970088],[-74.147218,40.970063],[-74.146837,40.969842],[-74.146587,40.969697],[-74.146538,40.969667],[-74.144838,40.968548],[-74.144511,40.968356],[-74.144429,40.968307],[-74.141094,40.966374],[-74.141048,40.966348],[-74.141065,40.966314],[-74.141072,40.966301],[-74.141083,40.966243],[-74.141166,40.965798],[-74.1411679,40.9657872],[-74.141174,40.965758],[-74.141209,40.965447],[-74.141247,40.965172],[-74.141302,40.964934],[-74.141356,40.964698],[-74.141431,40.964385],[-74.141575,40.96379],[-74.1416275,40.9635956],[-74.1417108,40.9633764],[-74.142119,40.9623],[-74.1422949,40.9618384],[-74.142385,40.961597],[-74.14265,40.960891],[-74.142722,40.960699],[-74.142725,40.960692],[-74.143066,40.959794],[-74.143068,40.959788],[-74.143235,40.959317],[-74.143318,40.959096],[-74.1434748,40.958669],[-74.143528,40.958518],[-74.143559,40.95843],[-74.143571,40.958397],[-74.1436362,40.9582145],[-74.143775,40.957826],[-74.143779,40.957816],[-74.143842,40.957638],[-74.143845,40.957629],[-74.143939,40.957364],[-74.14398,40.957268],[-74.143983,40.957261],[-74.144135,40.956901],[-74.144207,40.956732],[-74.144209,40.956727],[-74.144341,40.956354],[-74.144429,40.956053],[-74.144433,40.956038],[-74.144659,40.955255],[-74.144663,40.955241],[-74.144775,40.954837],[-74.144912,40.954344],[-74.144919,40.954319],[-74.144961,40.954167],[-74.145147,40.95351],[-74.145153,40.953489],[-74.145337,40.952828],[-74.145381,40.95267],[-74.145527,40.952139],[-74.145589,40.951914],[-74.145594,40.951897],[-74.145691,40.951547],[-74.14573,40.95136],[-74.1464183,40.9485193],[-74.1473195,40.9457122],[-74.1476027,40.9448175],[-74.1477658,40.9441692],[-74.148158,40.942339],[-74.148171,40.942153],[-74.148059,40.94159],[-74.14668,40.941447],[-74.145387,40.941298],[-74.143687,40.940398],[-74.143187,40.939798],[-74.140287,40.935698],[-74.139487,40.934298],[-74.139361,40.933983],[-74.139489,40.933433],[-74.139559,40.933264],[-74.139846,40.932773],[-74.139947,40.932427],[-74.14009,40.932176],[-74.140768,40.931389],[-74.14193,40.930316],[-74.142259,40.929757],[-74.142187,40.928798],[-74.141987,40.927098],[-74.141287,40.925398],[-74.139515,40.923499],[-74.139225,40.923323],[-74.138813,40.923141],[-74.138296,40.922942],[-74.137603,40.922886],[-74.133903,40.922786],[-74.132003,40.922186],[-74.131926,40.922168],[-74.131657,40.922106],[-74.131534,40.922078],[-74.13005,40.921048],[-74.12958,40.920071],[-74.129651,40.919703],[-74.129725,40.919325],[-74.130141,40.918311],[-74.130188,40.918197],[-74.130288,40.91805],[-74.130305,40.918024],[-74.130367,40.91793],[-74.131227,40.916614],[-74.13199,40.915446],[-74.132087,40.915298],[-74.132131,40.915218],[-74.132175,40.915137],[-74.133287,40.913098],[-74.133287,40.912454],[-74.133287,40.912399],[-74.133287,40.911798],[-74.13284,40.910905],[-74.132787,40.910798],[-74.13259,40.910149],[-74.132451,40.909689],[-74.132374,40.909433],[-74.132296,40.909177],[-74.132241,40.908995],[-74.132222,40.908932],[-74.132186,40.908813],[-74.131787,40.907498],[-74.131804,40.907401],[-74.131833,40.907235],[-74.13194,40.906631],[-74.132136,40.905522],[-74.132256,40.904842],[-74.132331,40.904413],[-74.132387,40.904098],[-74.132409,40.90406],[-74.132938,40.903162],[-74.133131,40.902834],[-74.133178,40.902754],[-74.133182,40.902747],[-74.133185,40.902742],[-74.133307,40.902535],[-74.133332,40.902492],[-74.133348,40.902465],[-74.133387,40.902398],[-74.133387,40.902363],[-74.133387,40.902247],[-74.133387,40.902198],[-74.133398,40.902181],[-74.133445,40.902118],[-74.133455,40.902104],[-74.133552,40.901949],[-74.133587,40.901898],[-74.133593,40.901823],[-74.133598,40.901758],[-74.13363,40.901348],[-74.133667,40.900872],[-74.133789,40.899295],[-74.133446,40.898814],[-74.133383,40.898725],[-74.132973,40.898149],[-74.132564,40.897575],[-74.131799,40.896501],[-74.131744,40.896424],[-74.131256,40.895736],[-74.131138,40.89557],[-74.13102,40.895405],[-74.130782,40.895276],[-74.129444,40.894323],[-74.129415,40.894293],[-74.129358,40.894236],[-74.129312,40.894183],[-74.129268,40.894121],[-74.129257,40.894108],[-74.129233,40.894081],[-74.129058,40.893881],[-74.129023,40.89384],[-74.128987,40.893799],[-74.128991,40.893779],[-74.129011,40.893682],[-74.12907,40.893395],[-74.12915,40.893011],[-74.129435,40.891617],[-74.12972,40.890223],[-74.129778,40.889942],[-74.129787,40.889899],[-74.129792,40.889863],[-74.129796,40.889832],[-74.129797,40.889824],[-74.1298,40.8898],[-74.129802,40.889783],[-74.129809,40.889738],[-74.129812,40.889719],[-74.129823,40.889637],[-74.129961,40.888596],[-74.129962,40.888586],[-74.129969,40.888533],[-74.129986,40.888408],[-74.130089,40.887633],[-74.1301779,40.8869315],[-74.130187,40.886376],[-74.130187,40.885999],[-74.129102,40.885275],[-74.126597,40.883606],[-74.126587,40.883599],[-74.126577,40.883594],[-74.126352,40.883476],[-74.124587,40.882559],[-74.1244,40.882462],[-74.12431,40.882415],[-74.123409,40.881946],[-74.122508,40.881478],[-74.121587,40.880999],[-74.121293,40.880839],[-74.120487,40.880399],[-74.120297,40.879828],[-74.120287,40.879799],[-74.120268,40.879766],[-74.120252,40.879739],[-74.119917,40.87917],[-74.119478,40.878235],[-74.1194,40.878157],[-74.119317,40.878075],[-74.119237,40.877987],[-74.119021,40.877751],[-74.118917,40.877637],[-74.11888,40.877618],[-74.118664,40.877502],[-74.118492,40.87741],[-74.118331,40.877269],[-74.11829,40.877233],[-74.118198,40.877153],[-74.117931,40.876922],[-74.117804,40.876812],[-74.11778,40.876791],[-74.116367,40.875564],[-74.115832,40.875099],[-74.115487,40.874799],[-74.11547,40.874782],[-74.11517,40.874482],[-74.114875,40.874187],[-74.11487,40.874182],[-74.114787,40.874099],[-74.114587,40.873299],[-74.114302,40.872162],[-74.114208,40.871786],[-74.114167,40.871621],[-74.113886,40.870499],[-74.11326,40.869872],[-74.113215,40.869826],[-74.113097,40.869707],[-74.113093,40.869703],[-74.113061,40.869671],[-74.112282,40.86889],[-74.112265,40.868845],[-74.112215,40.868715],[-74.111678,40.867309],[-74.111663,40.867271],[-74.110986,40.865499],[-74.110191,40.864804],[-74.110083,40.864749],[-74.110024,40.864719],[-74.107686,40.863599],[-74.10743,40.863215],[-74.107415,40.863192],[-74.107385,40.863148],[-74.107338,40.863077],[-74.107248,40.862942],[-74.107167,40.86282],[-74.107086,40.862699],[-74.107046,40.862233],[-74.107029,40.862032],[-74.107006,40.861766],[-74.10684,40.85993],[-74.106839,40.859925],[-74.106839,40.859919],[-74.106839,40.859914],[-74.106839,40.859909],[-74.106839,40.859901],[-74.106786,40.859299],[-74.106838,40.859082],[-74.107286,40.857199],[-74.107408,40.857101],[-74.107836,40.856759],[-74.107907,40.856702],[-74.108629,40.855973],[-74.108996,40.855699],[-74.109164,40.855574],[-74.10944,40.855425],[-74.109451,40.855423],[-74.109517,40.855408],[-74.10995,40.855316],[-74.110163,40.85527],[-74.111046,40.855466],[-74.111715,40.855881],[-74.111726,40.855903],[-74.112268,40.856987],[-74.112306,40.857064],[-74.112315,40.857081],[-74.112577,40.85839],[-74.112584,40.858422],[-74.112615,40.858581],[-74.11271,40.858654],[-74.112735,40.858673],[-74.112849,40.85876],[-74.112987,40.858867],[-74.113216,40.859044],[-74.113446,40.85922],[-74.113782,40.859478],[-74.113916,40.859581],[-74.11399,40.859592],[-74.114502,40.859665],[-74.114856,40.859716],[-74.115209,40.859766],[-74.115586,40.85982],[-74.115782,40.859848],[-74.115992,40.859877],[-74.116,40.859878],[-74.116011,40.85988],[-74.116413,40.859806],[-74.117249,40.859652],[-74.11794,40.859524],[-74.118012,40.859511],[-74.118061,40.859502],[-74.118068,40.8595],[-74.118085,40.859497],[-74.118389,40.859441],[-74.118716,40.859381],[-74.118826,40.859327],[-74.119412,40.857804],[-74.119861,40.856321],[-74.120069,40.855067],[-74.119684,40.854392],[-74.119657,40.854285],[-74.119655,40.854276],[-74.119636,40.854195],[-74.119579,40.85397],[-74.119576,40.853956],[-74.119487,40.853599],[-74.1194606,40.8533514],[-74.119304,40.851803],[-74.119291,40.851674],[-74.119595,40.850745],[-74.119777,40.850349],[-74.11988,40.850124],[-74.119984,40.849899],[-74.120262,40.849294],[-74.12065,40.848571],[-74.120717,40.848446],[-74.120793,40.848303],[-74.120888,40.848124],[-74.120982,40.847945],[-74.121062,40.847818],[-74.121295,40.847445],[-74.121387,40.847299],[-74.121404,40.847184],[-74.121551,40.846189],[-74.121628,40.84567],[-74.121765,40.844758],[-74.121902,40.843848],[-74.12199,40.843258],[-74.122362,40.842619],[-74.122378,40.842592],[-74.123047,40.841458],[-74.123227,40.841189],[-74.123442,40.840866],[-74.123629,40.840586],[-74.123816,40.840306],[-74.123912,40.840162],[-74.123952,40.840102],[-74.124087,40.839899],[-74.124077,40.839768],[-74.124074,40.83973],[-74.124061,40.83956],[-74.124051,40.839433],[-74.123987,40.838599],[-74.123326,40.837278],[-74.122959,40.836544],[-74.122787,40.836199],[-74.122018,40.834451],[-74.121904,40.834207],[-74.121853,40.834098],[-74.121187,40.8326],[-74.121087,40.831],[-74.1212,40.830652],[-74.121312,40.830305],[-74.12134,40.830219],[-74.122606,40.826343],[-74.122931,40.825592],[-74.123986,40.823102],[-74.12401,40.823046],[-74.124034,40.822989],[-74.124072,40.822892],[-74.124176,40.822629],[-74.124187,40.8226],[-74.12431,40.822375],[-74.124447,40.822169],[-74.124996,40.821762],[-74.125071,40.821706],[-74.126265,40.821005],[-74.126708,40.820831],[-74.126716,40.820828],[-74.126787,40.8208],[-74.126809,40.820794],[-74.127075,40.820726],[-74.12844,40.820374],[-74.129762,40.820032],[-74.129804,40.820021],[-74.1301658,40.8199335],[-74.1302808,40.8198974],[-74.1303978,40.8198664],[-74.1310048,40.8197064],[-74.1316128,40.8195454],[-74.1329808,40.8191844],[-74.1330658,40.8191624],[-74.1340138,40.8189114],[-74.1349518,40.8186634],[-74.1349618,40.8186604],[-74.1350758,40.8186304],[-74.1351898,40.8186004],[-74.1364898,40.8182004],[-74.1372898,40.8173004],[-74.1375188,40.8162844],[-74.1376068,40.8158954],[-74.1376948,40.8155064],[-74.1377078,40.8154494],[-74.1382038,40.8132514],[-74.1383968,40.8123734],[-74.1385908,40.8114954],[-74.1386448,40.8112534],[-74.1386818,40.8110834],[-74.1386978,40.8110114],[-74.1386988,40.8109524],[-74.1387298,40.8094494],[-74.1387768,40.8078674],[-74.1387798,40.8077234],[-74.1387898,40.8074004],[-74.1389228,40.8071884],[-74.1389678,40.8071174],[-74.1389998,40.8070674],[-74.1390218,40.8070324],[-74.1394208,40.8063984],[-74.1398448,40.8057294],[-74.1399008,40.8056404],[-74.139987,40.8055],[-74.13994,40.805472],[-74.13986,40.805424],[-74.139881,40.805291],[-74.139882,40.805282],[-74.140015,40.80444],[-74.139984,40.803923],[-74.13992,40.803561],[-74.139825,40.803147],[-74.139624,40.802733],[-74.1395514,40.8024772],[-74.139455,40.802138],[-74.139254,40.801646],[-74.139024,40.801253],[-74.13898,40.80114],[-74.138929,40.801024],[-74.138794,40.80072],[-74.138632,40.800169],[-74.138578,40.800006],[-74.138575,40.799996],[-74.138503,40.799777],[-74.1384567,40.7993597],[-74.138447,40.799272],[-74.138487,40.7987],[-74.138572,40.798538],[-74.138616,40.79845],[-74.138627,40.798429],[-74.138708,40.798266],[-74.139387,40.7972],[-74.140902,40.795067],[-74.141024,40.794896],[-74.142087,40.7934],[-74.142838,40.792581],[-74.142959,40.792449],[-74.144301,40.790985],[-74.144397,40.790881],[-74.145154,40.790066],[-74.145388,40.7898],[-74.146022,40.78882],[-74.146776,40.787656],[-74.14739,40.786706],[-74.147396,40.786696],[-74.147518,40.786508],[-74.147529,40.786491],[-74.147333,40.786411],[-74.147244,40.786376],[-74.147122,40.786329],[-74.14683,40.786227],[-74.146762,40.786203],[-74.1467,40.786182],[-74.146489,40.786089],[-74.146292,40.78598],[-74.14599,40.785776],[-74.14558,40.785558],[-74.145343,40.785433],[-74.145309,40.785415],[-74.144957,40.785229],[-74.144597,40.785038],[-74.144573,40.785024],[-74.144253,40.784844],[-74.143862,40.784646],[-74.143499,40.784451],[-74.14313,40.784253],[-74.1429663,40.7841649],[-74.142762,40.784055],[-74.142388,40.783853],[-74.142041,40.783667],[-74.141678,40.783472],[-74.141272,40.783254],[-74.141208,40.783219],[-74.140406,40.782788],[-74.1397228,40.7824156],[-74.1394145,40.7822476],[-74.139266,40.782175],[-74.138714,40.781879],[-74.138507,40.781767],[-74.138448,40.781736],[-74.137861,40.781428],[-74.137733,40.781361],[-74.137725,40.781357],[-74.136978,40.780965],[-74.136191,40.780553],[-74.1357943,40.7803448],[-74.135606,40.780246],[-74.13535,40.780119],[-74.134549,40.77972],[-74.133786,40.77934],[-74.132997,40.778948],[-74.1322402,40.778572],[-74.132194,40.778549],[-74.131449,40.778177],[-74.131418,40.778162],[-74.131295,40.778101],[-74.1309028,40.7779056],[-74.130771,40.77784],[-74.130588,40.777732],[-74.13045,40.777637],[-74.130307,40.777522],[-74.13029,40.777506],[-74.13012,40.777341],[-74.129996,40.777192],[-74.12989,40.777035],[-74.129802,40.776871],[-74.129733,40.776703],[-74.129684,40.77653],[-74.129625,40.776203],[-74.1295567,40.7758611],[-74.12943,40.775125],[-74.129425,40.775034],[-74.129434,40.7749],[-74.129468,40.774745],[-74.129705,40.774115],[-74.129726,40.774027],[-74.129731,40.773937],[-74.129716,40.773837],[-74.129681,40.77374],[-74.129627,40.773647],[-74.129545,40.773554],[-74.129443,40.773473],[-74.129364,40.773428],[-74.128928,40.77318],[-74.127853,40.772568],[-74.127518,40.772336],[-74.127404,40.772236],[-74.127327,40.772124],[-74.127293,40.772008],[-74.127193,40.771574],[-74.124651,40.772052],[-74.124387,40.7721],[-74.124203,40.772051],[-74.124193,40.772049],[-74.124126,40.772031],[-74.124105,40.772025],[-74.12387,40.771963],[-74.123702,40.771918],[-74.123455,40.771853],[-74.123089,40.771756],[-74.120987,40.7712],[-74.120844,40.771057],[-74.120087,40.7703],[-74.118187,40.7701],[-74.116787,40.7707],[-74.115787,40.7711],[-74.116164,40.7720856],[-74.114987,40.7723],[-74.1150589,40.7733043],[-74.113787,40.7733],[-74.113788,40.773315],[-74.113872,40.774316],[-74.113782,40.774575],[-74.1132523,40.7752782],[-74.1126407,40.7759119],[-74.110887,40.7768],[-74.11071,40.776876],[-74.110291,40.777056],[-74.109989,40.777185],[-74.109865,40.777238],[-74.109487,40.7774],[-74.108996,40.777337],[-74.108879,40.777322],[-74.107486,40.777142],[-74.106386,40.777],[-74.105334,40.776814],[-74.104686,40.7767],[-74.103086,40.7756],[-74.1025287,40.7755859],[-74.102188,40.7754868],[-74.101746,40.7751708],[-74.1012815,40.7752086],[-74.1010642,40.7751192],[-74.1009172,40.7748803],[-74.1005739,40.7749291],[-74.100452,40.774861],[-74.100349,40.774296],[-74.100333,40.774209],[-74.100282,40.77392],[-74.100256,40.773775],[-74.100215,40.773554],[-74.100186,40.7734],[-74.10014,40.773366],[-74.100003,40.773267],[-74.099086,40.7726],[-74.098781,40.771914],[-74.098751,40.771847],[-74.098716,40.771767],[-74.098686,40.771699],[-74.098655,40.77163],[-74.098624,40.77156],[-74.098508,40.7713],[-74.098473,40.771222],[-74.097929,40.769997],[-74.097914,40.769963],[-74.097886,40.769901],[-74.097923,40.769834],[-74.097975,40.769738],[-74.098096,40.769518],[-74.09815,40.769419],[-74.098231,40.76927],[-74.09827,40.769198],[-74.098327,40.769093],[-74.0984,40.768959],[-74.09842,40.768922],[-74.09846,40.76885],[-74.09848,40.768813],[-74.098544,40.768695],[-74.098606,40.768581],[-74.098812,40.768204],[-74.098878,40.768083],[-74.098979,40.767898],[-74.099047,40.767772],[-74.099086,40.767701],[-74.099082,40.767696],[-74.099066,40.767678],[-74.098986,40.767585],[-74.098618,40.767156],[-74.098514,40.767035],[-74.098474,40.766988],[-74.098369,40.766865],[-74.097917,40.766338],[-74.097803,40.766205],[-74.097286,40.765601],[-74.097221,40.765448],[-74.097145,40.76527],[-74.096775,40.764408],[-74.09669,40.764211],[-74.096649,40.764114],[-74.096562,40.763912],[-74.096094,40.76282],[-74.096086,40.762801],[-74.096002,40.762731],[-74.095917,40.76266],[-74.095845,40.762601],[-74.095609,40.762404],[-74.095486,40.762301],[-74.095396,40.762307],[-74.095149,40.762325],[-74.095097,40.762329],[-74.094812,40.762349],[-74.094548,40.762368],[-74.0941,40.7624],[-74.094086,40.762401],[-74.093929,40.76261],[-74.093896,40.762654],[-74.093734,40.762868],[-74.093721,40.762881],[-74.093604,40.763],[-74.093434,40.763089],[-74.093309,40.763119],[-74.093247,40.76313],[-74.092566,40.762925],[-74.092089,40.762782],[-74.09186,40.762713],[-74.091486,40.762601],[-74.09137,40.76253],[-74.091032,40.762322],[-74.0904474,40.7620284],[-74.0890062,40.7644704],[-74.088373,40.767358],[-74.0883965,40.7687134],[-74.090316,40.775819],[-74.090389,40.776618],[-74.090403,40.776775],[-74.090198,40.778209],[-74.09019,40.778264],[-74.090138,40.778432],[-74.090086,40.7786],[-74.089993,40.778814],[-74.08982,40.779211],[-74.089368,40.779889],[-74.089263,40.780046],[-74.08846,40.780897],[-74.087657,40.781749],[-74.087226,40.782206],[-74.08666,40.782807],[-74.085825,40.783692],[-74.085529,40.784006],[-74.083401,40.786263],[-74.083387,40.786278],[-74.083351,40.786316],[-74.083246,40.786429],[-74.081794,40.787994],[-74.081769,40.788023],[-74.081427,40.788433],[-74.08044,40.789616],[-74.079086,40.791239],[-74.0784431,40.7928814],[-74.077988,40.7939696],[-74.0774411,40.7949244],[-74.0765877,40.7959169],[-74.0753531,40.7966906],[-74.07478,40.796779],[-74.074472,40.796834],[-74.074087,40.796903],[-74.0733895,40.7970522],[-74.0715404,40.7973552],[-74.070837,40.797513],[-74.070082,40.797879],[-74.068927,40.7985283],[-74.0677586,40.8000457],[-74.0665017,40.8016848],[-74.0649594,40.8034555],[-74.0609542,40.8056489],[-74.0606921,40.8057658],[-74.0584369,40.8063061],[-74.050746,40.807015],[-74.049502,40.807166],[-74.048259,40.807317],[-74.045085,40.8077],[-74.044977,40.807702],[-74.044144,40.807722],[-74.04331,40.807746],[-74.040106,40.807818],[-74.036959,40.807893],[-74.036684,40.8079],[-74.036647,40.80794],[-74.036284,40.807957],[-74.036148,40.807963],[-74.0361,40.808001],[-74.035542,40.808442],[-74.034343,40.8095],[-74.032938,40.811454],[-74.032123,40.812857],[-74.0316288,40.812724],[-74.0308793,40.8127544],[-74.0285661,40.8127252],[-74.0280726,40.8128876],[-74.0278795,40.8132773],[-74.0278151,40.8145278],[-74.027343,40.8160706],[-74.0263774,40.8164116],[-74.025841,40.8161355],[-74.0253747,40.815356],[-74.0253046,40.8148364],[-74.0248325,40.814609],[-74.024339,40.814609],[-74.0240386,40.8149013],[-74.0241029,40.8151936],[-74.0244248,40.8156321],[-74.0249612,40.8159894],[-74.0248325,40.8162817],[-74.0239098,40.8163629],[-74.0229657,40.8167526],[-74.0227511,40.8171748],[-74.0230515,40.8179868],[-74.0229442,40.8182629],[-74.0225365,40.8184415],[-74.0217211,40.8183928],[-74.020262,40.8187663],[-74.0199225,40.8195824],[-74.0202668,40.8204039],[-74.0201773,40.8208322],[-74.019704,40.820912],[-74.019256,40.821037],[-74.0189279,40.8220111],[-74.0185668,40.822631],[-74.0180089,40.823248],[-74.016796,40.823569],[-74.0164502,40.8234704],[-74.015118,40.8227377],[-74.0145793,40.8229911],[-74.0139169,40.8230242],[-74.01377,40.823059],[-74.013741,40.823027],[-74.013692,40.822972],[-74.01364,40.822916],[-74.013592,40.82287],[-74.013511,40.822793],[-74.01337,40.822687],[-74.01327,40.822606],[-74.013235,40.822572],[-74.013144,40.822472],[-74.013086,40.822412],[-74.013019,40.822341],[-74.012864,40.8222],[-74.01279,40.822129],[-74.012705,40.822043],[-74.012641,40.821988],[-74.012565,40.821921],[-74.012556,40.821914],[-74.012523,40.821891],[-74.012499,40.82188],[-74.012481,40.821873],[-74.012457,40.821866],[-74.012429,40.821857],[-74.012361,40.821839],[-74.012344,40.821831],[-74.012332,40.821821],[-74.012317,40.821808],[-74.012209,40.821633],[-74.012156,40.821548],[-74.012119,40.821485],[-74.012097,40.821451],[-74.012072,40.821391],[-74.012059,40.821353],[-74.012036,40.821263],[-74.012025,40.821232],[-74.012006,40.821194],[-74.011988,40.821167],[-74.011966,40.821139],[-74.011918,40.821096],[-74.011889,40.821074],[-74.011835,40.821039],[-74.011773,40.821011],[-74.011681,40.820981],[-74.011629,40.820964],[-74.011539,40.820934],[-74.011475,40.820913],[-74.011449,40.8209],[-74.011435,40.820892],[-74.011417,40.820878],[-74.011391,40.820855],[-74.011376,40.820838],[-74.011346,40.820786],[-74.011325,40.820729],[-74.011316,40.820692],[-74.011307,40.820659],[-74.011299,40.820557],[-74.011294,40.820504],[-74.011293,40.820475],[-74.011299,40.820443],[-74.011304,40.820422],[-74.011316,40.820391],[-74.011329,40.820367],[-74.011352,40.820334],[-74.011389,40.820288],[-74.011549,40.820108],[-74.011698,40.819941],[-74.011788,40.819842],[-74.011806,40.819815],[-74.011819,40.819787],[-74.011827,40.819761],[-74.011831,40.819736],[-74.011832,40.819711],[-74.01183,40.819686],[-74.011821,40.819648],[-74.011804,40.819607],[-74.011784,40.819579],[-74.011755,40.819552],[-74.011721,40.819527],[-74.011627,40.819468],[-74.011603,40.819449],[-74.011583,40.819431],[-74.011534,40.819378],[-74.011489,40.819321],[-74.011467,40.819291],[-74.011455,40.819273],[-74.011424,40.819223],[-74.011397,40.819173],[-74.011374,40.819123],[-74.011343,40.81905],[-74.011328,40.81901],[-74.01132,40.818972],[-74.01132,40.818938],[-74.011328,40.818899],[-74.011344,40.818859],[-74.011367,40.81882],[-74.011394,40.818785],[-74.011416,40.818765],[-74.011444,40.818747],[-74.011476,40.81873],[-74.011565,40.818689],[-74.01159,40.818675],[-74.01161,40.818661],[-74.01167,40.818612],[-74.011729,40.818555],[-74.011783,40.8185],[-74.011812,40.818468],[-74.011833,40.818437],[-74.011845,40.818408],[-74.011852,40.818379],[-74.011856,40.818354],[-74.011855,40.818331],[-74.011851,40.818311],[-74.011835,40.81828],[-74.011809,40.818246],[-74.011786,40.818229],[-74.01176,40.818214],[-74.011731,40.818203],[-74.011701,40.818195],[-74.011669,40.818191],[-74.011618,40.818186],[-74.011569,40.818174],[-74.011523,40.818157],[-74.011481,40.818134],[-74.011445,40.818107],[-74.011415,40.818075],[-74.011392,40.818041],[-74.011376,40.818003],[-74.011369,40.817969],[-74.011369,40.817926],[-74.011377,40.817888],[-74.011394,40.817851],[-74.011413,40.817825],[-74.011427,40.817797],[-74.011436,40.817768],[-74.01144,40.817739],[-74.011436,40.81773],[-74.011425,40.817715],[-74.011417,40.817708],[-74.01141,40.8177],[-74.01141,40.817691],[-74.011427,40.817665],[-74.01144,40.817637],[-74.011473,40.817539],[-74.011487,40.817505],[-74.011505,40.817474],[-74.011527,40.81745],[-74.011553,40.817432],[-74.01159,40.817417],[-74.011629,40.817405],[-74.01173,40.817381],[-74.011782,40.817366],[-74.011795,40.817357],[-74.011811,40.817346],[-74.011824,40.817335],[-74.011833,40.817322],[-74.011846,40.817293],[-74.011852,40.817268],[-74.01185,40.817248],[-74.011831,40.8172],[-74.011828,40.817178],[-74.011835,40.81715],[-74.011852,40.81712],[-74.011877,40.81709],[-74.01191,40.81706],[-74.011942,40.817039],[-74.011982,40.817017],[-74.012004,40.817009],[-74.01203,40.817002],[-74.012146,40.816984],[-74.012171,40.816978],[-74.012193,40.816971],[-74.012243,40.816948],[-74.012292,40.816919],[-74.012339,40.816883],[-74.012382,40.816843],[-74.012422,40.816799],[-74.012456,40.816751],[-74.012484,40.816703],[-74.012504,40.816654],[-74.012516,40.816611],[-74.012524,40.816569],[-74.012526,40.816531],[-74.012524,40.816495],[-74.012515,40.816465],[-74.012497,40.816433],[-74.012472,40.8164],[-74.012413,40.816336],[-74.012391,40.816308],[-74.01237,40.816279],[-74.012357,40.816251],[-74.012342,40.816199],[-74.012333,40.816152],[-74.01233,40.816108],[-74.012332,40.816064],[-74.012339,40.81602],[-74.012352,40.815977],[-74.01212,40.815853],[-74.010842,40.815168],[-74.009638,40.81452],[-74.009389,40.814388],[-74.009104,40.814236],[-74.008501,40.813912],[-74.008168,40.813734],[-74.008063,40.813678],[-74.007993,40.81364],[-74.007267,40.813251],[-74.006301,40.812736],[-74.005135,40.812115],[-74.004183,40.811607],[-74.003008,40.810982],[-74.002512,40.810718],[-74.001393,40.810122],[-74.000969,40.809895],[-74.000351,40.809567],[-74.000291,40.809535],[-74.00012,40.809444],[-73.999712,40.809227],[-73.999482,40.809104],[-73.999386,40.809052],[-73.998663,40.808668],[-73.998321,40.808486],[-73.998303,40.808477],[-73.9981446,40.8083976],[-73.997883,40.8084],[-73.997825,40.808364],[-73.9978139,40.8083571],[-73.997348,40.808066],[-73.997278,40.808022],[-73.997219,40.807983],[-73.996483,40.8075],[-73.995723,40.80712],[-73.995683,40.8071],[-73.995221,40.806895],[-73.995053,40.80682],[-73.994949,40.806774],[-73.994783,40.8067],[-73.9945641,40.8065543],[-73.994531,40.806532],[-73.994412,40.806453],[-73.994333,40.80641],[-73.994166,40.806318],[-73.993688,40.806052],[-73.993474,40.805933],[-73.993322,40.805849],[-73.993161,40.805759],[-73.993187,40.805645],[-73.993219,40.805497],[-73.993262,40.805277],[-73.993288,40.805067],[-73.993299,40.804976],[-73.993328,40.804738],[-73.993341,40.804672],[-73.993358,40.804568],[-73.993373,40.804482],[-73.993391,40.80438],[-73.993432,40.804152],[-73.993466,40.803954],[-73.993485,40.803846],[-73.993514,40.803684],[-73.993561,40.803525],[-73.993636,40.803238],[-73.993669,40.803089],[-73.993694,40.802879],[-73.993691,40.802598],[-73.993684,40.802215],[-73.993684,40.802189],[-73.993683,40.802161],[-73.993682,40.802125],[-73.993681,40.802074],[-73.993677,40.802057],[-73.993556,40.801802],[-73.993469,40.801619],[-73.99331,40.801286],[-73.992321,40.800876],[-73.992177,40.800814],[-73.985064,40.797803],[-73.985001,40.797776],[-73.984794,40.797687],[-73.984739,40.797662],[-73.984362,40.798179],[-73.982655,40.800516],[-73.982516,40.800706],[-73.980634,40.803283],[-73.979094,40.805392],[-73.978864,40.805707],[-73.9772909,40.8078621],[-73.977172,40.808025],[-73.975085,40.810882],[-73.973487,40.813071],[-73.971616,40.815633],[-73.971152,40.816269],[-73.971123,40.816308],[-73.970693,40.816897],[-73.967894,40.820731],[-73.967865,40.820771],[-73.967803,40.820854],[-73.966563,40.822553],[-73.96647,40.82268],[-73.965981,40.82335],[-73.9659,40.823461],[-73.965719,40.823709],[-73.965592,40.823883],[-73.96517,40.82446],[-73.965138,40.824504],[-73.96502,40.824666],[-73.963815,40.826316],[-73.963787,40.826355],[-73.963577,40.826642],[-73.962654,40.828742],[-73.962585,40.828901],[-73.962463,40.829177],[-73.96168,40.830961],[-73.961646,40.831036],[-73.961329,40.831759],[-73.961263,40.83191],[-73.961211,40.832027],[-73.960136,40.834474],[-73.960086,40.834587],[-73.958824,40.837462],[-73.9587239,40.8376892],[-73.958705,40.837732],[-73.958019,40.839292],[-73.957831,40.839721],[-73.957796,40.839801],[-73.955727,40.84451],[-73.955661,40.844661],[-73.954312,40.847732],[-73.954194,40.848003],[-73.953988,40.848468],[-73.952829,40.851106],[-73.952565,40.851537],[-73.952486,40.851666],[-73.952397,40.851812],[-73.948822,40.857651],[-73.948336,40.858446],[-73.9341963,40.8815481],[-73.933907,40.882012],[-73.929795,40.888724],[-73.9271142,40.8954936],[-73.9189436,40.9161216],[-73.918346,40.91763],[-73.914253,40.92796],[-73.908844,40.946826],[-73.898739,40.974714],[-73.896144,40.981873],[-73.893634,40.997129],[-73.893628,40.997165],[-73.9024795,40.9973228],[-73.902715,40.997327],[-73.911762,41.001377],[-73.9202357,41.0051882],[-73.9220391,41.0059994],[-73.923299,41.006566],[-73.92956,41.009418],[-73.9383421,41.0133763],[-73.952413,41.019718],[-73.954896,41.020798],[-73.9589967,41.0226319],[-73.969726,41.02743],[-73.9772818,41.0307919],[-73.993825,41.038152],[-73.999928,41.040867],[-74.0125834,41.0464777],[-74.024551,41.051783],[-74.035863,41.056819],[-74.050855,41.063459],[-74.0719358,41.0728353],[-74.081705,41.07718],[-74.0926,41.082027],[-74.096693,41.083864],[-74.1037665,41.0869542],[-74.112332,41.090696],[-74.127323,41.097342],[-74.129494,41.098299],[-74.158298,41.11099],[-74.168133,41.115305],[-74.195263,41.126898],[-74.212603,41.134303],[-74.2130966,41.1344669],[-74.2134125,41.1338521],[-74.238408,41.0846302],[-74.2385594,41.0843311],[-74.24439,41.0728101],[-74.248939,41.06382],[-74.2495087,41.0628406],[-74.249591,41.062699],[-74.24964,41.062615],[-74.2500915,41.0616983],[-74.250592,41.060682],[-74.250595,41.060676],[-74.2507135,41.0604336],[-74.2507537,41.0603513],[-74.2508025,41.0602515],[-74.2509319,41.0599868],[-74.250964,41.059921],[-74.251263,41.059357],[-74.251893,41.05817],[-74.252207,41.057579],[-74.2523172,41.0573715],[-74.252461,41.057101],[-74.252928,41.056221],[-74.253398,41.055334],[-74.253441,41.055253],[-74.253562,41.054894],[-74.2539377,41.0541926],[-74.254555,41.05304],[-74.255378,41.051584],[-74.25541,41.051527],[-74.255419,41.05151],[-74.2560197,41.0503598],[-74.2591017,41.0444016],[-74.260979,41.040772],[-74.261067,41.040584],[-74.261095,41.040525],[-74.261147,41.040413],[-74.2619324,41.0389003],[-74.262298,41.038196],[-74.262425,41.03795],[-74.262463,41.037876],[-74.262648,41.037519],[-74.262767,41.03729],[-74.263072,41.036703],[-74.26337,41.036157],[-74.263507,41.035907],[-74.263512,41.035897],[-74.26353,41.035859],[-74.263535,41.03585],[-74.263586,41.035749],[-74.263715,41.035497],[-74.26382,41.035291],[-74.263938,41.035058],[-74.263949,41.035037],[-74.2691151,41.024894],[-74.269491,41.024156],[-74.269594,41.023954],[-74.269611,41.02392],[-74.269622,41.0239],[-74.26963,41.023884],[-74.269653,41.023839],[-74.26969,41.023766],[-74.269709,41.023728],[-74.26977,41.023608],[-74.2704135,41.0223424],[-74.2704391,41.022292],[-74.270521,41.022131],[-74.271141,41.020914],[-74.2713796,41.0204517],[-74.272484,41.018312]]]}}]}