{"type":"FeatureCollection","features":[{"type":"Feature","properties":{"name":"Hudson County","source":"OpenStreetMap"},"geometry":{"type":"Polygon","coordinates":[[[-74.1660037,40.7459353],[-74.165702,40.744421],[-74.1635115,40.7387081],[-74.1624072,40.7367361],[-74.1609887,40.7353465],[-74.15998,40.734485],[-74.1585292,40.7338932],[-74.1493752,40.7339697],[-74.147112,40.734453],[-74.1459063,40.7351497],[-74.144519,40.7366396],[-74.142358,40.739434],[-74.1398556,40.7406986],[-74.138131,40.7412868],[-74.1366607,40.7414838],[-74.1262326,40.7424762],[-74.1237632,40.7423818],[-74.1220391,40.7420347],[-74.1200644,40.7412276],[-74.119009,40.7406049],[-74.1174913,40.7391948],[-74.1172108,40.7379926],[-74.1171744,40.7367571],[-74.11749,40.735091],[-74.1175,40.735046],[-74.1189385,40.7284411],[-74.1209667,40.7225866],[-74.1204887,40.7170382],[-74.1187298,40.7136584],[-74.1166865,40.7105965],[-74.1145169,40.7066237],[-74.1141786,40.7031709],[-74.114559,40.701072],[-74.117267,40.697808],[-74.119206,40.695572],[-74.120754,40.693739],[-74.122887,40.691202],[-74.122911,40.691172],[-74.128648,40.684234],[-74.129208,40.683557],[-74.131403,40.680902],[-74.131487,40.680802],[-74.131891,40.680308],[-74.132658,40.679368],[-74.133433,40.678434],[-74.133652,40.67817],[-74.136161,40.675084],[-74.1365229,40.6746818],[-74.137887,40.673102],[-74.13822,40.672699],[-74.140108,40.670421],[-74.142516,40.667515],[-74.144614,40.664983],[-74.145508,40.663904],[-74.147781,40.661161],[-74.149086,40.659586],[-74.149839,40.658678],[-74.152349,40.655649],[-74.152387,40.655603],[-74.153041,40.6548],[-74.159912,40.646365],[-74.160288,40.645903],[-74.160684,40.645313],[-74.160721,40.645258],[-74.160746,40.645221],[-74.161021,40.644812],[-74.161121,40.644662],[-74.161228,40.644503],[-74.1614661,40.6441509],[-74.1581525,40.6437606],[-74.14311,40.641989],[-74.132921,40.643684],[-74.126018,40.642151],[-74.109848,40.648064],[-74.093442,40.648064],[-74.086986,40.651506],[-74.055766,40.651475],[-74.049594,40.661622],[-74.0378384,40.6810948],[-74.035443,40.685125],[-74.034495,40.6866935],[-74.02639,40.700102],[-74.023637,40.718068],[-74.021347,40.7274823],[-74.0213403,40.7275071],[-74.0213072,40.7276365],[-74.0206386,40.7303906],[-74.0174387,40.7435392],[-74.0142459,40.7566558],[-74.014028,40.757551],[-74.0016207,40.7745491],[-74.0004487,40.7761545],[-73.992998,40.786353],[-73.99169,40.788143],[-73.984739,40.797662],[-73.984794,40.797687],[-73.985001,40.797776],[-73.985064,40.797803],[-73.992177,40.800814],[-73.992321,40.800876],[-73.99331,40.801286],[-73.993469,40.801619],[-73.993556,40.801802],[-73.993677,40.802057],[-73.993681,40.802074],[-73.993682,40.802125],[-73.993683,40.802161],[-73.993684,40.802189],[-73.993684,40.802215],[-73.993691,40.802598],[-73.993694,40.802879],[-73.993669,40.803089],[-73.993636,40.803238],[-73.993561,40.803525],[-73.993514,40.803684],[-73.993485,40.803846],[-73.993466,40.803954],[-73.993432,40.804152],[-73.993391,40.80438],[-73.993373,40.804482],[-73.993358,40.804568],[-73.993341,40.804672],[-73.993328,40.804738],[-73.993299,40.804976],[-73.993288,40.805067],[-73.993262,40.805277],[-73.993219,40.805497],[-73.993187,40.805645],[-73.993161,40.805759],[-73.993322,40.805849],[-73.993474,40.805933],[-73.993688,40.806052],[-73.994166,40.806318],[-73.994333,40.80641],[-73.994412,40.806453],[-73.994531,40.806532],[-73.9945641,40.8065543],[-73.994783,40.8067],[-73.994949,40.806774],[-73.995053,40.80682],[-73.995221,40.806895],[-73.995683,40.8071],[-73.995723,40.80712],[-73.996483,40.8075],[-73.997219,40.807983],[-73.997278,40.808022],[-73.997348,40.808066],[-73.9978139,40.8083571],[-73.997825,40.808364],[-73.997883,40.8084],[-73.9981446,40.8083976],[-73.998303,40.808477],[-73.998321,40.808486],[-73.998663,40.808668],[-73.999386,40.809052],[-73.999482,40.809104],[-73.999712,40.809227],[-74.00012,40.809444],[-74.000291,40.809535],[-74.000351,40.809567],[-74.000969,40.809895],[-74.001393,40.810122],[-74.002512,40.810718],[-74.003008,40.810982],[-74.004183,40.811607],[-74.005135,40.812115],[-74.006301,40.812736],[-74.007267,40.813251],[-74.007993,40.81364],[-74.008063,40.813678],[-74.008168,40.813734],[-74.008501,40.813912],[-74.009104,40.814236],[-74.009389,40.814388],[-74.009638,40.81452],[-74.010842,40.815168],[-74.01212,40.815853],[-74.012352,40.815977],[-74.012339,40.81602],[-74.012332,40.816064],[-74.01233,40.816108],[-74.012333,40.816152],[-74.012342,40.816199],[-74.012357,40.816251],[-74.01237,40.816279],[-74.012391,40.816308],[-74.012413,40.816336],[-74.012472,40.8164],[-74.012497,40.816433],[-74.012515,40.816465],[-74.012524,40.816495],[-74.012526,40.816531],[-74.012524,40.816569],[-74.012516,40.816611],[-74.012504,40.816654],[-74.012484,40.816703],[-74.012456,40.816751],[-74.012422,40.816799],[-74.012382,40.816843],[-74.012339,40.816883],[-74.012292,40.816919],[-74.012243,40.816948],[-74.012193,40.816971],[-74.012171,40.816978],[-74.012146,40.816984],[-74.01203,40.817002],[-74.012004,40.817009],[-74.011982,40.817017],[-74.011942,40.817039],[-74.01191,40.81706],[-74.011877,40.81709],[-74.011852,40.81712],[-74.011835,40.81715],[-74.011828,40.817178],[-74.011831,40.8172],[-74.01185,40.817248],[-74.011852,40.817268],[-74.011846,40.817293],[-74.011833,40.817322],[-74.011824,40.817335],[-74.011811,40.817346],[-74.011795,40.817357],[-74.011782,40.817366],[-74.01173,40.817381],[-74.011629,40.817405],[-74.01159,40.817417],[-74.011553,40.817432],[-74.011527,40.81745],[-74.011505,40.817474],[-74.011487,40.817505],[-74.011473,40.817539],[-74.01144,40.817637],[-74.011427,40.817665],[-74.01141,40.817691],[-74.01141,40.8177],[-74.011417,40.817708],[-74.011425,40.817715],[-74.011436,40.81773],[-74.01144,40.817739],[-74.011436,40.817768],[-74.011427,40.817797],[-74.011413,40.817825],[-74.011394,40.817851],[-74.011377,40.817888],[-74.011369,40.817926],[-74.011369,40.817969],[-74.011376,40.818003],[-74.011392,40.818041],[-74.011415,40.818075],[-74.011445,40.818107],[-74.011481,40.818134],[-74.011523,40.818157],[-74.011569,40.818174],[-74.011618,40.818186],[-74.011669,40.818191],[-74.011701,40.818195],[-74.011731,40.818203],[-74.01176,40.818214],[-74.011786,40.818229],[-74.011809,40.818246],[-74.011835,40.81828],[-74.011851,40.818311],[-74.011855,40.818331],[-74.011856,40.818354],[-74.011852,40.818379],[-74.011845,40.818408],[-74.011833,40.818437],[-74.011812,40.818468],[-74.011783,40.8185],[-74.011729,40.818555],[-74.01167,40.818612],[-74.01161,40.818661],[-74.01159,40.818675],[-74.011565,40.818689],[-74.011476,40.81873],[-74.011444,40.818747],[-74.011416,40.818765],[-74.011394,40.818785],[-74.011367,40.81882],[-74.011344,40.818859],[-74.011328,40.818899],[-74.01132,40.818938],[-74.01132,40.818972],[-74.011328,40.81901],[-74.011343,40.81905],[-74.011374,40.819123],[-74.011397,40.819173],[-74.011424,40.819223],[-74.011455,40.819273],[-74.011467,40.819291],[-74.011489,40.819321],[-74.011534,40.819378],[-74.011583,40.819431],[-74.011603,40.819449],[-74.011627,40.819468],[-74.011721,40.819527],[-74.011755,40.819552],[-74.011784,40.819579],[-74.011804,40.819607],[-74.011821,40.819648],[-74.01183,40.819686],[-74.011832,40.819711],[-74.011831,40.819736],[-74.011827,40.819761],[-74.011819,40.819787],[-74.011806,40.819815],[-74.011788,40.819842],[-74.011698,40.819941],[-74.011549,40.820108],[-74.011389,40.820288],[-74.011352,40.820334],[-74.011329,40.820367],[-74.011316,40.820391],[-74.011304,40.820422],[-74.011299,40.820443],[-74.011293,40.820475],[-74.011294,40.820504],[-74.011299,40.820557],[-74.011307,40.820659],[-74.011316,40.820692],[-74.011325,40.820729],[-74.011346,40.820786],[-74.011376,40.820838],[-74.011391,40.820855],[-74.011417,40.820878],[-74.011435,40.820892],[-74.011449,40.8209],[-74.011475,40.820913],[-74.011539,40.820934],[-74.011629,40.820964],[-74.011681,40.820981],[-74.011773,40.821011],[-74.011835,40.821039],[-74.011889,40.821074],[-74.011918,40.821096],[-74.011966,40.821139],[-74.011988,40.821167],[-74.012006,40.821194],[-74.012025,40.821232],[-74.012036,40.821263],[-74.012059,40.821353],[-74.012072,40.821391],[-74.012097,40.821451],[-74.012119,40.821485],[-74.012156,40.821548],[-74.012209,40.821633],[-74.012317,40.821808],[-74.012332,40.821821],[-74.012344,40.821831],[-74.012361,40.821839],[-74.012429,40.821857],[-74.012457,40.821866],[-74.012481,40.821873],[-74.012499,40.82188],[-74.012523,40.821891],[-74.012556,40.821914],[-74.012565,40.821921],[-74.012641,40.821988],[-74.012705,40.822043],[-74.01279,40.822129],[-74.012864,40.8222],[-74.013019,40.822341],[-74.013086,40.822412],[-74.013144,40.822472],[-74.013235,40.822572],[-74.01327,40.822606],[-74.01337,40.822687],[-74.013511,40.822793],[-74.013592,40.82287],[-74.01364,40.822916],[-74.013692,40.822972],[-74.013741,40.823027],[-74.01377,40.823059],[-74.0139169,40.8230242],[-74.0145793,40.8229911],[-74.015118,40.8227377],[-74.0164502,40.8234704],[-74.016796,40.823569],[-74.0180089,40.823248],[-74.0185668,40.822631],[-74.0189279,40.8220111],[-74.019256,40.821037],[-74.019704,40.820912],[-74.0201773,40.8208322],[-74.0202668,40.8204039],[-74.0199225,40.8195824],[-74.020262,40.8187663],[-74.0217211,40.8183928],[-74.0225365,40.8184415],[-74.0229442,40.8182629],[-74.0230515,40.8179868],[-74.0227511,40.8171748],[-74.0229657,40.8167526],[-74.0239098,40.8163629],[-74.0248325,40.8162817],[-74.0249612,40.8159894],[-74.0244248,40.8156321],[-74.0241029,40.8151936],[-74.0240386,40.8149013],[-74.024339,40.814609],[-74.0248325,40.814609],[-74.0253046,40.8148364],[-74.0253747,40.815356],[-74.025841,40.8161355],[-74.0263774,40.8164116],[-74.027343,40.8160706],[-74.0278151,40.8145278],[-74.0278795,40.8132773],[-74.0280726,40.8128876],[-74.0285661,40.8127252],[-74.0308793,40.8127544],[-74.0316288,40.812724],[-74.032123,40.812857],[-74.032938,40.811454],[-74.034343,40.8095],[-74.035542,40.808442],[-74.0361,40.808001],[-74.036148,40.807963],[-74.036284,40.807957],[-74.036647,40.80794],[-74.036684,40.8079],[-74.036959,40.807893],[-74.040106,40.807818],[-74.04331,40.807746],[-74.044144,40.807722],[-74.044977,40.807702],[-74.045085,40.8077],[-74.048259,40.807317],[-74.049502,40.807166],[-74.050746,40.807015],[-74.0584369,40.8063061],[-74.0606921,40.8057658],[-74.0609542,40.8056489],[-74.0649594,40.8034555],[-74.0665017,40.8016848],[-74.0677586,40.8000457],[-74.068927,40.7985283],[-74.070082,40.797879],[-74.070837,40.797513],[-74.0715404,40.7973552],[-74.0733895,40.7970522],[-74.074087,40.796903],[-74.074472,40.796834],[-74.07478,40.796779],[-74.0753531,40.7966906],[-74.0765877,40.7959169],[-74.0774411,40.7949244],[-74.077988,40.7939696],[-74.0784431,40.7928814],[-74.079086,40.791239],[-74.08044,40.789616],[-74.081427,40.788433],[-74.081769,40.788023],[-74.081794,40.787994],[-74.083246,40.786429],[-74.083351,40.786316],[-74.083387,40.786278],[-74.083401,40.786263],[-74.085529,40.784006],[-74.085825,40.783692],[-74.08666,40.782807],[-74.087226,40.782206],[-74.087657,40.781749],[-74.08846,40.780897],[-74.089263,40.780046],[-74.089368,40.779889],[-74.08982,40.779211],[-74.089993,40.778814],[-74.090086,40.7786],[-74.090138,40.778432],[-74.09019,40.778264],[-74.090198,40.778209],[-74.090403,40.776775],[-74.090389,40.776618],[-74.090316,40.775819],[-74.0883965,40.7687134],[-74.088373,40.767358],[-74.0890062,40.7644704],[-74.0904474,40.7620284],[-74.091032,40.762322],[-74.09137,40.76253],[-74.091486,40.762601],[-74.09186,40.762713],[-74.092089,40.762782],[-74.092566,40.762925],[-74.093247,40.76313],[-74.093309,40.763119],[-74.093434,40.763089],[-74.093604,40.763],[-74.093721,40.762881],[-74.093734,40.762868],[-74.093896,40.762654],[-74.093929,40.76261],[-74.094086,40.762401],[-74.0941,40.7624],[-74.094548,40.762368],[-74.094812,40.762349],[-74.095097,40.762329],[-74.095149,40.762325],[-74.095396,40.762307],[-74.095486,40.762301],[-74.095609,40.762404],[-74.095845,40.762601],[-74.095917,40.76266],[-74.096002,40.762731],[-74.096086,40.762801],[-74.096094,40.76282],[-74.096562,40.763912],[-74.096649,40.764114],[-74.09669,40.764211],[-74.096775,40.764408],[-74.097145,40.76527],[-74.097221,40.765448],[-74.097286,40.765601],[-74.097803,40.766205],[-74.097917,40.766338],[-74.098369,40.766865],[-74.098474,40.766988],[-74.098514,40.767035],[-74.098618,40.767156],[-74.098986,40.767585],[-74.099066,40.767678],[-74.099082,40.767696],[-74.099086,40.767701],[-74.099047,40.767772],[-74.098979,40.767898],[-74.098878,40.768083],[-74.098812,40.768204],[-74.098606,40.768581],[-74.098544,40.768695],[-74.09848,40.768813],[-74.09846,40.76885],[-74.09842,40.768922],[-74.0984,40.768959],[-74.098327,40.769093],[-74.09827,40.769198],[-74.098231,40.76927],[-74.09815,40.769419],[-74.098096,40.769518],[-74.097975,40.769738],[-74.097923,40.769834],[-74.097886,40.769901],[-74.097914,40.769963],[-74.097929,40.769997],[-74.098473,40.771222],[-74.098508,40.7713],[-74.098624,40.77156],[-74.098655,40.77163],[-74.098686,40.771699],[-74.098716,40.771767],[-74.098751,40.771847],[-74.098781,40.771914],[-74.099086,40.7726],[-74.100003,40.773267],[-74.10014,40.773366],[-74.100186,40.7734],[-74.100215,40.773554],[-74.100256,40.773775],[-74.100282,40.77392],[-74.100333,40.774209],[-74.100349,40.774296],[-74.100452,40.774861],[-74.1005739,40.7749291],[-74.1009172,40.7748803],[-74.1010642,40.7751192],[-74.1012815,40.7752086],[-74.101746,40.7751708],[-74.102188,40.7754868],[-74.1025287,40.7755859],[-74.103086,40.7756],[-74.104686,40.7767],[-74.105334,40.776814],[-74.106386,40.777],[-74.107486,40.777142],[-74.108879,40.777322],[-74.108996,40.777337],[-74.109487,40.7774],[-74.109865,40.777238],[-74.109989,40.777185],[-74.110291,40.777056],[-74.11071,40.776876],[-74.110887,40.7768],[-74.1126407,40.7759119],[-74.1132523,40.7752782],[-74.113782,40.774575],[-74.113872,40.774316],[-74.113788,40.773315],[-74.113787,40.7733],[-74.1150589,40.7733043],[-74.114987,40.7723],[-74.116164,40.7720856],[-74.115787,40.7711],[-74.116787,40.7707],[-74.118187,40.7701],[-74.120087,40.7703],[-74.120844,40.771057],[-74.120987,40.7712],[-74.123089,40.771756],[-74.123455,40.771853],[-74.123702,40.771918],[-74.12387,40.771963],[-74.124105,40.772025],[-74.124126,40.772031],[-74.124193,40.772049],[-74.124203,40.772051],[-74.124387,40.7721],[-74.124651,40.772052],[-74.127193,40.771574],[-74.127293,40.772008],[-74.127327,40.772124],[-74.127404,40.772236],[-74.127518,40.772336],[-74.127853,40.772568],[-74.128928,40.77318],[-74.129364,40.773428],[-74.129443,40.773473],[-74.129545,40.773554],[-74.129627,40.773647],[-74.129681,40.77374],[-74.129716,40.773837],[-74.129731,40.773937],[-74.129726,40.774027],[-74.129705,40.774115],[-74.129468,40.774745],[-74.129434,40.7749],[-74.129425,40.775034],[-74.12943,40.775125],[-74.1295567,40.7758611],[-74.129625,40.776203],[-74.129684,40.77653],[-74.129733,40.776703],[-74.129802,40.776871],[-74.12989,40.777035],[-74.129996,40.777192],[-74.13012,40.777341],[-74.13029,40.777506],[-74.130307,40.777522],[-74.13045,40.777637],[-74.130588,40.777732],[-74.130771,40.77784],[-74.1309028,40.7779056],[-74.131295,40.778101],[-74.131418,40.778162],[-74.131449,40.778177],[-74.132194,40.778549],[-74.1322402,40.778572],[-74.132997,40.778948],[-74.133786,40.77934],[-74.134549,40.77972],[-74.13535,40.780119],[-74.135606,40.780246],[-74.1357943,40.7803448],[-74.136191,40.780553],[-74.136978,40.780965],[-74.137725,40.781357],[-74.137733,40.781361],[-74.137861,40.781428],[-74.138448,40.781736],[-74.138507,40.781767],[-74.138714,40.781879],[-74.139266,40.782175],[-74.1394145,40.7822476],[-74.1397228,40.7824156],[-74.140406,40.782788],[-74.141208,40.783219],[-74.141272,40.783254],[-74.141678,40.783472],[-74.142041,40.783667],[-74.142388,40.783853],[-74.142762,40.784055],[-74.1429663,40.7841649],[-74.14313,40.784253],[-74.143499,40.784451],[-74.143862,40.784646],[-74.144253,40.784844],[-74.144573,40.785024],[-74.144597,40.785038],[-74.144957,40.785229],[-74.145309,40.785415],[-74.145343,40.785433],[-74.14558,40.785558],[-74.14599,40.785776],[-74.146292,40.78598],[-74.146489,40.786089],[-74.1467,40.786182],[-74.146762,40.786203],[-74.14683,40.786227],[-74.147122,40.786329],[-74.147244,40.786376],[-74.147333,40.786411],[-74.147529,40.786491],[-74.147586,40.786399],[-74.1482116,40.7840945],[-74.1483073,40.7824036],[-74.148163,40.780731],[-74.1482709,40.7795831],[-74.1483272,40.7790287],[-74.1490091,40.7778341],[-74.1543149,40.7725696],[-74.15664,40.767986],[-74.157747,40.76603],[-74.158402,40.76526],[-74.158673,40.764942],[-74.1610072,40.7628645],[-74.1619567,40.7616964],[-74.163139,40.7601099],[-74.1640536,40.758314],[-74.1643144,40.7573763],[-74.1647474,40.7545902],[-74.1652962,40.7514269],[-74.1657833,40.7485713],[-74.1658582,40.7472625],[-74.1660037,40.7459353]],[[-74.0472219,40.6908633],[-74.0472209,40.6908892],[-74.0472133,40.690917],[-74.0472041,40.6909398],[-74.047189,40.690962],[-74.0471724,40.6909803],[-74.0471496,40.6909979],[-74.0471232,40.6910138],[-74.0470937,40.6910277],[-74.0470605,40.6910372],[-74.0470212,40.6910442],[-74.0469829,40.6910489],[-74.0461778,40.691104],[-74.0461524,40.6911293],[-74.0461245,40.6911292],[-74.0461132,40.691129],[-74.0460787,40.6911267],[-74.0460458,40.6911231],[-74.0460174,40.6911182],[-74.0459898,40.6911115],[-74.0459617,40.6911024],[-74.0459271,40.6910896],[-74.0458907,40.6910753],[-74.0445985,40.6905663],[-74.0438883,40.6901864],[-74.0435049,40.6896932],[-74.0434871,40.6896706],[-74.04347,40.6896489],[-74.043465,40.6896421],[-74.0435113,40.689208],[-74.0436327,40.688777],[-74.0439725,40.6885868],[-74.0441445,40.6885605],[-74.0443758,40.6885252],[-74.0447779,40.6885981],[-74.0453031,40.6888646],[-74.0453147,40.6888513],[-74.0453632,40.6888759],[-74.045357,40.6888833],[-74.0462749,40.6893396],[-74.046752,40.6898984],[-74.0467971,40.6899522],[-74.046845,40.6900082],[-74.0468962,40.6900682],[-74.0469401,40.6901196],[-74.0471981,40.6904236],[-74.0471319,40.6904559],[-74.0470101,40.6905177],[-74.0470244,40.6905703],[-74.0470351,40.6906098],[-74.047146,40.690714],[-74.0472028,40.6907986],[-74.0472123,40.6908169],[-74.0472201,40.6908408],[-74.0472219,40.6908633]],[[-74.0407472,40.7001669],[-74.0407303,40.7001925],[-74.0406966,40.7002152],[-74.0406477,40.7002136],[-74.0406121,40.7002008],[-74.0405689,40.7001879],[-74.0405278,40.7001765],[-74.0404958,40.7001623],[-74.0404601,40.7001494],[-74.0404152,40.7001264],[-74.0403756,40.7001122],[-74.0403288,40.7001007],[-74.0402827,40.7001113],[-74.0402491,40.700117],[-74.0401871,40.700114],[-74.0401534,40.7001026],[-74.0401196,40.700094],[-74.040082,40.7000925],[-74.0400483,40.700074],[-74.040022,40.700061],[-74.0399938,40.7000412],[-74.0399657,40.7000183],[-74.0399339,40.6999941],[-74.0399002,40.6999811],[-74.0398588,40.6999655],[-74.0398251,40.6999554],[-74.0397827,40.6999518],[-74.0397453,40.6999503],[-74.0397134,40.6999275],[-74.0396891,40.699899],[-74.0396647,40.6998733],[-74.0396215,40.6998561],[-74.0395859,40.6998533],[-74.0395465,40.6998431],[-74.0395109,40.6998161],[-74.0394771,40.6997818],[-74.0394283,40.6997632],[-74.0393815,40.6997504],[-74.0393298,40.6997268],[-74.0392866,40.6997081],[-74.0392548,40.6996867],[-74.0392097,40.699681],[-74.0391629,40.6996767],[-74.0391214,40.6996709],[-74.0390746,40.699668],[-74.0390239,40.6996623],[-74.0389901,40.6996622],[-74.0389358,40.6996549],[-74.0388927,40.6996251],[-74.0388796,40.6996022],[-74.0388382,40.6995622],[-74.0388149,40.6995316],[-74.0388017,40.6994874],[-74.0387962,40.699439],[-74.0387831,40.6994062],[-74.0387719,40.6993976],[-74.0387588,40.6993677],[-74.0387475,40.6993362],[-74.0387232,40.699302],[-74.038697,40.6992793],[-74.0386642,40.6992628],[-74.0386321,40.6992385],[-74.0385985,40.6992101],[-74.038561,40.6991929],[-74.0385329,40.6991722],[-74.0385101,40.6991469],[-74.0384936,40.6991151],[-74.0384982,40.699074],[-74.0384668,40.6990169],[-74.0384589,40.6989808],[-74.0384629,40.6989239],[-74.0384669,40.6988698],[-74.0384551,40.6988247],[-74.0384355,40.6987917],[-74.0384116,40.6987557],[-74.038396,40.6987285],[-74.0383801,40.6987135],[-74.0383683,40.6986866],[-74.0383723,40.6986686],[-74.0383919,40.6986656],[-74.0384197,40.6986655],[-74.0384529,40.6986809],[-74.038477,40.6986908],[-74.0385048,40.698702],[-74.0385269,40.6987117],[-74.0385693,40.6987301],[-74.0386064,40.6987175],[-74.038623,40.6986979],[-74.0386028,40.6986769],[-74.0386211,40.6986713],[-74.0386342,40.698667],[-74.0386528,40.6986628],[-74.0386807,40.69866],[-74.0387123,40.698654],[-74.038744,40.6986371],[-74.0387796,40.698636],[-74.0388273,40.6986241],[-74.0388788,40.6986109],[-74.0389252,40.698607],[-74.0389596,40.6985951],[-74.0390065,40.6985937],[-74.039061,40.6985967],[-74.0391153,40.6985924],[-74.0391679,40.6985954],[-74.0392054,40.698604],[-74.0392448,40.6986141],[-74.039285,40.6986319],[-74.0393171,40.6986648],[-74.0393415,40.6986841],[-74.0393648,40.6987087],[-74.0393763,40.6987314],[-74.0394115,40.6987374],[-74.0394385,40.6987394],[-74.0394688,40.6987519],[-74.0394876,40.6987775],[-74.0395083,40.6987803],[-74.0395382,40.6987875],[-74.0395853,40.6987904],[-74.0396316,40.6987899],[-74.0396471,40.69879],[-74.0396695,40.6987755],[-74.0399309,40.6985897],[-74.0400782,40.6987147],[-74.040234,40.6988328],[-74.0402387,40.6988362],[-74.040215,40.6988538],[-74.0401502,40.6989014],[-74.0401454,40.6988975],[-74.0400963,40.6989342],[-74.0400595,40.6989072],[-74.0400437,40.6989027],[-74.0400282,40.6988979],[-74.0399861,40.6988865],[-74.0399512,40.6988816],[-74.0399097,40.6988835],[-74.0398682,40.6988933],[-74.0398243,40.6989111],[-74.039798,40.6989367],[-74.0397962,40.6989767],[-74.0398149,40.6990109],[-74.0398618,40.6990423],[-74.0398992,40.699068],[-74.0399479,40.6990979],[-74.03998,40.6991236],[-74.0400698,40.6991722],[-74.040158,40.6991965],[-74.0401863,40.6992152],[-74.0401899,40.6992451],[-74.0401899,40.6992778],[-74.0402106,40.699315],[-74.0402425,40.6993335],[-74.040278,40.6993506],[-74.0403156,40.699365],[-74.0403511,40.6993749],[-74.0404019,40.6993934],[-74.0404262,40.6994134],[-74.0404384,40.6994384],[-74.0404553,40.6994669],[-74.0404666,40.6994927],[-74.0404664,40.6995282],[-74.0404702,40.6995581],[-74.0404842,40.6995945],[-74.0405124,40.6996274],[-74.0405311,40.6996573],[-74.0405535,40.6996801],[-74.0405779,40.69971],[-74.0406004,40.6997386],[-74.0406117,40.6997657],[-74.0406173,40.6998026],[-74.0406154,40.6998284],[-74.0406237,40.6998605],[-74.0406443,40.6998832],[-74.0406631,40.6999075],[-74.0406744,40.6999346],[-74.0406744,40.6999616],[-74.0406837,40.699983],[-74.0406874,40.70001],[-74.0406912,40.70005],[-74.0407023,40.7000713],[-74.0407192,40.7000956],[-74.0407248,40.7001055],[-74.0407397,40.7001311],[-74.0407472,40.7001669]]]}}]}