{"type": "FeatureCollection", "features": [{"type": "Feature", "properties": {"name": "33rd Street", "mode": "PATH"}, "geometry": {"type": "Point", "coordinates": [-73.9887, 40.748538]}}, {"type": "Feature", "properties": {"name": "23rd Street", "mode": "PATH"}, "geometry": {"type": "Point", "coordinates": [-73.992834, 40.742853]}}, {"type": "Feature", "properties": {"name": "14th Street", "mode": "PATH"}, "geometry": {"type": "Point", "coordinates": [-73.997069, 40.737048]}}, {"type": "Feature", "properties": {"name": "9th Street", "mode": "PATH"}, "geometry": {"type": "Point", "coordinates": [-73.99964, 40.734075]}}, {"type": "Feature", "properties": {"name": "Christopher Street", "mode": "PATH"}, "geometry": {"type": "Point", "coordinates": [-74.006906, 40.732988]}}, {"type": "Feature", "properties": {"name": "World Trade Center", "mode": "PATH"}, "geometry": {"type": "Point", "coordinates": [-74.012527, 40.7119]}}]}