{"type":"FeatureCollection","features":[{"type":"Feature","properties":{"name":"playable-border"},"geometry":{"type":"LineString","coordinates":[[-74.11913678013093,40.71281669333855],[-74.1204860373185,40.710306893069706],[-74.11827944493415,40.70594583056866],[-74.11815992412376,40.70010960181833],[-74.10594718081741,40.69349082043119],[-74.10553123296728,40.68930496549027],[-74.10101758091957,40.678926353671],[-74.05079636152351,40.658874825250955],[-74.04790130557633,40.659027759289145],[-74.03004382745513,40.687105450739246],[-74.02946055202075,40.68314103558052],[-74.0231355371078,40.680025997002765],[-74.0237575276001,40.676881111961286],[-74.02216176681982,40.67361872880714],[-74.02309267204811,40.67110011991249],[-74.0215040501114,40.664927341213],[-74.01887914660686,40.66237420421559],[-74.0233965397818,40.657446713329385],[-74.02829178534647,40.65458199193469],[-74.02975202766571,40.65168448338793],[-74.03289573042134,40.650113634460794],[-74.03322404086906,40.64731043736168],[-74.03660181239327,40.64648144985345],[-74.04206723151391,40.64108136080976],[-74.04146410021505,40.63775771429834],[-74.04485560407558,40.63049875090176],[-74.04537354834393,40.62006238928573],[-74.04326223903445,40.61307627081023],[-74.03464765140428,40.60372700106061],[-74.03104702293705,40.60196497176165],[-74.01405052820148,40.59873234870668],[-74.00523313962142,40.59262668299408],[-74.00322448734657,40.58969203587172],[-74.00411534790081,40.5846739653905],[-74.0130207079129,40.582846953750476],[-74.01559785518342,40.58073687943416],[-74.01683773896954,40.577716292342416],[-74.01397791616463,40.57222081459992],[-74.00601466588806,40.57001705210513],[-74.00377599904317,40.566991800207155],[-73.98671357043831,40.56816116249356],[-73.98277822161774,40.56666936736082],[-73.97988618582704,40.56834725147871],[-73.96533855018325,40.57056745085719],[-73.93052600805619,40.572862526666825],[-73.92731495855409,40.575638627121414],[-73.92845662937657,40.580537903501764],[-73.91071520914576,40.578996918712384],[-73.9079701407346,40.580709778055244],[-73.90790162911338,40.58363591766571],[-73.90559060582363,40.58420046999078],[-73.90180614544572,40.58441858505535],[-73.8990850679926,40.575739150838665],[-73.89611296446577,40.57390998600351],[-73.88016575752786,40.57652500123132],[-73.87664682710134,40.57840495685644],[-73.87409116591328,40.58236437158299],[-73.87126306506164,40.57938574813755],[-73.86795929168595,40.57890132925339],[-73.86034162904024,40.58202838808962],[-73.85745298713746,40.587761657587656],[-73.86055925550131,40.59294109164511],[-73.86683119719984,40.59476092841581],[-73.86580602456367,40.59735025034256],[-73.86214417404457,40.59388102896191],[-73.85435362039043,40.59343990396362],[-73.8476711769113,40.59715075667652],[-73.84695966218155,40.59898001201522],[-73.84791073416872,40.600780784228],[-73.8383386959118,40.60343183089301],[-73.8272139522616,40.60313688641859],[-73.82926484746046,40.60102031481445],[-73.8422949023827,40.59834616711356],[-73.84598471818886,40.596486712752025],[-73.84750387544659,40.594272924650824],[-73.84630714488205,40.59120658313283],[-73.83880890301971,40.58707660992044],[-73.8340287303723,40.5864403699152],[-73.84145823171202,40.584660250454235],[-73.8519821415464,40.584778647021196],[-73.87894265640688,40.57167690615769],[-73.89363263663168,40.571375727308876],[-73.90167911681273,40.5662183039044],[-73.90499447283904,40.56598256685114],[-73.90807911704253,40.56790106142341],[-73.91311612432328,40.56863006853889],[-73.91926895349674,40.565483394457864],[-73.92798584278674,40.56409210885465],[-73.93393710036558,40.56031742099348],[-73.94069018465522,40.558167239211464],[-73.94439144475321,40.55305394779728],[-73.9445448584649,40.541753182024685],[-73.94338060701389,40.53973627510595],[-73.94031516469249,40.538943246344246],[-73.90539743619709,40.55294202041624],[-73.89368298120708,40.55434051741373],[-73.86878810065127,40.56150980744614],[-73.8322293746254,40.575025957430825],[-73.81260277927653,40.58064363542715],[-73.77531615061984,40.58745013696824],[-73.76136211027584,40.58877288271382],[-73.75272777960207,40.5881175353184],[-73.74529071890497,40.59154368413014],[-73.73482843077039,40.59245804025726],[-73.73383381932203,40.59421573458212],[-73.7344531779854,40.60341390062328],[-73.74274527701715,40.61376258116765],[-73.74824230046552,40.6151985983411],[-73.75725494571525,40.61315680980167],[-73.7615806412712,40.61473860647662],[-73.76304140754283,40.61614979669159],[-73.76493742524609,40.62379301166113],[-73.76352388329619,40.626316479386254],[-73.7456552147501,40.633535681033024],[-73.742245651937,40.63206050517413],[-73.73752116521567,40.6329179065098],[-73.73565692543937,40.635730101048956],[-73.73768967062126,40.639925092281196],[-73.73769216767796,40.645371389596384],[-73.72182671360042,40.65068671384228],[-73.72128610350849,40.653955344109754],[-73.7240919860201,40.662592545729865],[-73.7244357641297,40.66804717848419],[-73.72182440644546,40.67936559755015],[-73.7230764156556,40.71000910009134],[-73.72579117117529,40.720709317980685],[-73.70514602860604,40.72565310094599],[-73.69620526154762,40.73959263955321],[-73.69867143458372,40.754322044946],[-73.74869333682072,40.78530587433807],[-73.75222894978816,40.78558000036072],[-73.75613985160382,40.78293892096483],[-73.75927925383087,40.77821783531354],[-73.7576911315269,40.773935223993526],[-73.75898358729579,40.77283184982432],[-73.76353564738807,40.777930175950296],[-73.76342438572017,40.78120497192467],[-73.76897862975206,40.78541191249627],[-73.76680806699439,40.78846051560608],[-73.76893271918085,40.792813961522114],[-73.77145762753513,40.79637007097877],[-73.77627036208196,40.79938131479265],[-73.78140481150801,40.799132529248254],[-73.78635581385493,40.79662147909323],[-73.78762671398505,40.793225365444655],[-73.7907272931544,40.793190516492686],[-73.79129651403599,40.7963729293645],[-73.79499382454854,40.798417772315446],[-73.80879046888943,40.799827744901705],[-73.82117440745738,40.80385901240948],[-73.83230165503515,40.79876011479407],[-73.83318838263719,40.79391572600238],[-73.83467395244823,40.800063352887946],[-73.83899886725995,40.80128142925032],[-73.85513436321882,40.79713283430276],[-73.85736231619933,40.79484734669162],[-73.85840446804912,40.78993524531217],[-73.86307839364252,40.78660617375429],[-73.86316825310163,40.78464376330348],[-73.86120833807448,40.782056944786724],[-73.85276976633922,40.77626619335224],[-73.8530358012688,40.7746558197075],[-73.86640274750275,40.78124254365976],[-73.86473384079041,40.78314382804023],[-73.864788073984,40.78905933328871],[-73.87361344320684,40.79550830915297],[-73.88269439305768,40.79907835129403],[-73.87043513980471,40.797667859870884],[-73.86433677456513,40.80719118436686],[-73.8631741028078,40.80703300095273],[-73.86177291022918,40.80398733640585],[-73.85783096937163,40.802025244184364],[-73.85008393053316,40.801614725013835],[-73.84439540168175,40.803669146430295],[-73.84371225244453,40.805957364334866],[-73.84468891260138,40.808012242813675],[-73.84300850850704,40.809057540460444],[-73.83986981868433,40.80396985241159],[-73.83126461256556,40.80205585353504],[-73.82805248118039,40.803887526303534],[-73.82796085756351,40.80838707153394],[-73.82425729607503,40.80825541772455],[-73.81667905537802,40.810529861677615],[-73.81148177814953,40.81004274229453],[-73.80598507747872,40.806088385313515],[-73.80268318790651,40.80579193370654],[-73.79464306858216,40.80146956617941],[-73.79117478191772,40.80121747362988],[-73.78734681336834,40.802963612933034],[-73.78626190163861,40.80572937357537],[-73.7879290130796,40.80919621737292],[-73.79708344087636,40.81226093519338],[-73.79384364673751,40.81466292949566],[-73.79424495663356,40.81791074914376],[-73.80202669397599,40.82144766850314],[-73.80379734901683,40.82699688562378],[-73.81174350492248,40.83329621976967],[-73.81075753761041,40.84168583679137],[-73.80879843813341,40.83892965229988],[-73.8027103558164,40.83818703854468],[-73.7999967773977,40.838986925027186],[-73.79839883737188,40.841538370377044],[-73.79915955452326,40.84336920635013],[-73.80229248695002,40.84520997946262],[-73.80830732930409,40.845148246485934],[-73.80817091495022,40.847801197581745],[-73.8113421548178,40.8495637311647],[-73.81193767049729,40.851283925751886],[-73.809017474002,40.852681605231595],[-73.80819237824151,40.8556722678799],[-73.80770872550853,40.85222795223413],[-73.80366660254892,40.8464014087297],[-73.79899245797912,40.845421795087006],[-73.79535622848658,40.848654514694054],[-73.7954076847921,40.845780989247906],[-73.79063556173597,40.838127208281286],[-73.79330100794928,40.83575514791289],[-73.79153119819036,40.83210688218104],[-73.78867163363773,40.83161112464842],[-73.78468284859146,40.83381214206972],[-73.78115945920925,40.83373133904662],[-73.77845981126042,40.83635983771893],[-73.77639351634465,40.841724031667994],[-73.77668226699441,40.84760636307023],[-73.77965573256992,40.85223337598471],[-73.77767845053316,40.85341129360465],[-73.77679121601294,40.85580023296982],[-73.77773874017682,40.85764271159058],[-73.78072689145924,40.85895480976343],[-73.77947408843715,40.863943645475224],[-73.78332017573587,40.86602038422353],[-73.77977677896419,40.869377683385025],[-73.7784261775238,40.87436926363617],[-73.77592307620635,40.86948882263105],[-73.77209008055941,40.86798207871855],[-73.77404497360104,40.86492972491368],[-73.77757911583357,40.863887846266145],[-73.77910613540004,40.86091875378451],[-73.77613307901558,40.858437174947866],[-73.776776246176,40.85191228603342],[-73.77491455308035,40.849424590877746],[-73.77511893779868,40.846413526648924],[-73.77161440118546,40.84297395952275],[-73.7685326229197,40.84222570081566],[-73.76432788323065,40.8442418436606],[-73.76553288130143,40.84802666266126],[-73.76510582935299,40.85199187062198],[-73.76232808854684,40.853250563332615],[-73.76150670924463,40.855118708048565],[-73.76852169517161,40.86240096531476],[-73.76368241276086,40.86530700266344],[-73.76297164349614,40.867785869880294],[-73.77140115727491,40.87695258565981],[-73.77414541078763,40.87779056738917],[-73.77722509940841,40.87676795870517],[-73.78394063216822,40.88313597820085],[-73.82159601547853,40.8939409659123],[-73.8253670758737,40.89354023215714],[-73.83530641887408,40.896412062636266],[-73.83544245658094,40.89992891684039],[-73.83820170015362,40.905780071851055],[-73.84735358165146,40.909688235026564],[-73.84935302684377,40.912958598191835],[-73.85558816412488,40.91245603243623],[-73.86233351872214,40.904447108170466],[-73.91060955308386,40.91841983144342],[-73.96343324485099,40.82145101549671],[-73.98707996103431,40.78925191348238],[-73.99041609119791,40.78667554283897],[-73.99174265175124,40.78248027535531],[-73.99483828136746,40.78105232971836],[-73.99579277209685,40.77686319660884],[-73.99877218436724,40.77611389712567],[-74.00239161777792,40.771833027013564],[-74.0496215766072,40.7718182138864],[-74.05300156625098,40.769466443769275],[-74.05547656336807,40.77162958280326],[-74.0589906051076,40.771351625828125],[-74.06363513883467,40.76655718015292],[-74.06664888154515,40.76629943120768],[-74.07779293575139,40.75992375074387],[-74.08249382351879,40.750841270937975],[-74.08182158835561,40.74894683403277],[-74.07875467652764,40.7470760437814],[-74.07937716921609,40.745629968249595],[-74.09577631965429,40.738471903372584],[-74.09997561031561,40.734050964010585],[-74.1047434946431,40.72229713252378],[-74.11913678013093,40.71281669333855]]}}]}